$GPRMC,091500.000,A,3725.3631,N,12205.0275,W,8.75,108.30,190526,,,A*78
$GPRMC,091501.000,A,3725.3623,N,12205.0246,W,8.76,108.38,190526,,,A*71
$GPRMC,091502.000,A,3725.3617,N,12205.0217,W,8.76,112.94,190526,,,A*7C
$GPRMC,091503.000,A,3725.3607,N,12205.0189,W,8.79,116.55,190526,,,A*7E
$GPRMC,091504.000,A,3725.3596,N,12205.0161,W,8.80,116.31,190526,,,A*70
$GPRMC,091505.000,A,3725.3586,N,12205.0134,W,8.82,116.27,190526,,,A*75
$GPRMC,091506.000,A,3725.3576,N,12205.0106,W,8.83,116.34,190526,,,A*7B
$GPRMC,091507.000,A,3725.3566,N,12205.0079,W,8.83,115.56,190526,,,A*75
$GPRMC,091508.000,A,3725.3555,N,12205.0051,W,8.85,107.86,190526,,,A*78
$GPRMC,091509.000,A,3725.3548,N,12205.0022,W,8.84,101.51,190526,,,A*7C
$GPRMC,091510.000,A,3725.3543,N,12204.9992,W,8.82,67.35,190526,,,A*40
$GPRMC,091511.000,A,3725.3554,N,12204.9964,W,8.88,36.54,190526,,,A*47
$GPRMC,091512.000,A,3725.3574,N,12204.9947,W,8.88,36.63,190526,,,A*43
$GPRMC,091513.000,A,3725.3594,N,12204.9929,W,7.71,48.71,190526,,,A*47
$GPRMC,091514.000,A,3725.3608,N,12204.9910,W,8.89,120.54,190526,,,A*7C
$GPRMC,091515.000,A,3725.3596,N,12204.9883,W,8.90,120.14,190526,,,A*7E
$GPRMC,091516.000,A,3725.3585,N,12204.9856,W,8.90,120.17,190526,,,A*74
$GPRMC,091517.000,A,3725.3573,N,12204.9831,W,8.90,120.20,190526,,,A*79
$GPRMC,091518.000,A,3725.3561,N,12204.9804,W,8.82,133.30,190526,,,A*73
$GPRMC,091519.000,A,3725.3545,N,12204.9782,W,8.88,139.83,190526,,,A*7D
$GPRMC,091520.000,A,3725.3527,N,12204.9761,W,8.90,151.98,190526,,,A*73
$GPRMC,091521.000,A,3725.3505,N,12204.9747,W,8.72,159.74,190526,,,A*70
$GPRMC,091522.000,A,3725.3483,N,12204.9737,W,8.89,176.19,190526,,,A*79
$GPRMC,091523.000,A,3725.3459,N,12204.9734,W,8.88,176.18,190526,,,A*7C
$GPRMC,091524.000,A,3725.3434,N,12204.9731,W,8.87,176.16,190526,,,A*74
$GPRMC,091525.000,A,3725.3410,N,12204.9730,W,8.86,176.14,190526,,,A*71
$GPRMC,091526.000,A,3725.3386,N,12204.9727,W,8.86,176.84,190526,,,A*75
$GPRMC,091527.000,A,3725.3361,N,12204.9725,W,8.85,175.43,190526,,,A*74
$GPRMC,091528.000,A,3725.3337,N,12204.9722,W,8.83,176.24,190526,,,A*7B
$GPRMC,091529.000,A,3725.3313,N,12204.9721,W,8.79,173.58,190526,,,A*74
$GPRMC,091530.000,A,3725.3288,N,12204.9717,W,8.81,166.66,190526,,,A*74
$GPRMC,091531.000,A,3725.3265,N,12204.9709,W,8.71,160.47,190526,,,A*73
$GPRMC,091532.000,A,3725.3242,N,12204.9700,W,8.78,149.45,190526,,,A*7C
$GPRMC,091533.000,A,3725.3221,N,12204.9684,W,8.77,148.54,190526,,,A*7B
$GPRMC,091534.000,A,3725.3201,N,12204.9668,W,8.76,148.52,190526,,,A*7B
$GPRMC,091535.000,A,3725.3180,N,12204.9651,W,8.74,148.51,190526,,,A*7B
$GPRMC,091536.000,A,3725.3159,N,12204.9636,W,8.73,148.44,190526,,,A*7E
$GPRMC,091537.000,A,3725.3138,N,12204.9620,W,8.69,153.33,190526,,,A*7E
$GPRMC,091538.000,A,3725.3116,N,12204.9606,W,8.67,159.50,190526,,,A*78
$GPRMC,091539.000,A,3725.3093,N,12204.9596,W,8.69,167.70,190526,,,A*7E
$GPRMC,091540.000,A,3725.3069,N,12204.9590,W,8.65,179.72,190526,,,A*72
$GPRMC,091541.000,A,3725.3045,N,12204.9589,W,8.66,182.87,190526,,,A*78
$GPRMC,091542.000,A,3725.3021,N,12204.9591,W,8.66,186.67,190526,,,A*7A
$GPRMC,091543.000,A,3725.2995,N,12204.9595,W,8.61,192.86,190526,,,A*75
$GPRMC,091544.000,A,3725.2972,N,12204.9603,W,8.64,195.52,190526,,,A*7C
$GPRMC,091545.000,A,3725.2948,N,12204.9611,W,8.61,197.98,190526,,,A*76
$GPRMC,091546.000,A,3725.2925,N,12204.9621,W,8.62,201.94,190526,,,A*7E
$GPRMC,091547.000,A,3725.2902,N,12204.9632,W,8.56,217.95,190526,,,A*79
$GPRMC,091548.000,A,3725.2882,N,12204.9651,W,8.60,220.90,190526,,,A*7E
$GPRMC,091549.000,A,3725.2864,N,12204.9672,W,8.60,223.15,190526,,,A*78
$GPRMC,091550.000,A,3725.2847,N,12204.9694,W,8.58,209.66,190526,,,A*7E
$GPRMC,091551.000,A,3725.2826,N,12204.9709,W,8.53,198.12,190526,,,A*7E
$GPRMC,091552.000,A,3725.2802,N,12204.9719,W,8.58,190.96,190526,,,A*75
$GPRMC,091553.000,A,3725.2778,N,12204.9725,W,8.60,185.90,190526,,,A*70
$GPRMC,091554.000,A,3725.2753,N,12204.9729,W,8.60,185.85,190526,,,A*76
$GPRMC,091555.000,A,3725.2729,N,12204.9732,W,8.61,185.81,190526,,,A*75
$GPRMC,091556.000,A,3725.2704,N,12204.9736,W,8.61,185.30,190526,,,A*77
$GPRMC,091557.000,A,3725.2680,N,12204.9739,W,8.62,182.20,190526,,,A*71
$GPRMC,091558.000,A,3725.2655,N,12204.9741,W,8.62,182.18,190526,,,A*72
$GPRMC,091559.000,A,3725.2631,N,12204.9743,W,8.63,182.52,190526,,,A*7C
$GPRMC,091600.000,A,3725.2606,N,12204.9744,W,8.64,182.54,190526,,,A*71
$GPRMC,091601.000,A,3725.2581,N,12204.9746,W,8.65,182.30,190526,,,A*7D
$GPRMC,091602.000,A,3725.2557,N,12204.9748,W,8.66,182.12,190526,,,A*78
$GPRMC,091603.000,A,3725.2532,N,12204.9750,W,8.67,180.01,190526,,,A*72
$GPRMC,091604.000,A,3725.2507,N,12204.9750,W,8.68,180.02,190526,,,A*7F
$GPRMC,091605.000,A,3725.2483,N,12204.9751,W,7.41,105.88,190526,,,A*79
$GPRMC,091606.000,A,3725.2477,N,12204.9726,W,8.71,93.82,190526,,,A*49
$GPRMC,091607.000,A,3725.2475,N,12204.9696,W,8.72,93.85,190526,,,A*44
$GPRMC,091608.000,A,3725.2473,N,12204.9665,W,8.73,93.91,190526,,,A*45
$GPRMC,091609.000,A,3725.2471,N,12204.9635,W,8.75,93.98,190526,,,A*4C
$GPRMC,091610.000,A,3725.2467,N,12204.9604,W,8.76,93.86,190526,,,A*4D
$GPRMC,091611.000,A,3725.2466,N,12204.9573,W,8.78,93.91,190526,,,A*46
$GPRMC,091612.000,A,3725.2464,N,12204.9542,W,8.79,93.96,190526,,,A*43
$GPRMC,091613.000,A,3725.2462,N,12204.9512,W,8.80,94.02,190526,,,A*4D
$GPRMC,091614.000,A,3725.2460,N,12204.9481,W,8.81,94.08,190526,,,A*48
$GPRMC,091615.000,A,3725.2458,N,12204.9451,W,8.83,94.15,190526,,,A*41
$GPRMC,091616.000,A,3725.2456,N,12204.9421,W,8.84,94.20,190526,,,A*4A
$GPRMC,091617.000,A,3725.2454,N,12204.9389,W,8.85,94.22,190526,,,A*4F
$GPRMC,091618.000,A,3725.2452,N,12204.9359,W,8.86,94.29,190526,,,A*43
$GPRMC,091619.000,A,3725.2450,N,12204.9328,W,8.87,94.37,190526,,,A*48
$GPRMC,091620.000,A,3725.2448,N,12204.9298,W,8.88,94.44,190526,,,A*4A
$GPRMC,091621.000,A,3725.2446,N,12204.9266,W,8.88,94.52,190526,,,A*43
$GPRMC,091622.000,A,3725.2444,N,12204.9236,W,8.89,94.61,190526,,,A*46
$GPRMC,091623.000,A,3725.2442,N,12204.9205,W,8.89,94.81,190526,,,A*4F
$GPRMC,091624.000,A,3725.2440,N,12204.9175,W,8.90,94.89,190526,,,A*4E
$GPRMC,091625.000,A,3725.2438,N,12204.9144,W,8.90,94.96,190526,,,A*4C
$GPRMC,091626.000,A,3725.2436,N,12204.9113,W,8.90,94.46,190526,,,A*4E
$GPRMC,091627.000,A,3725.2434,N,12204.9083,W,8.90,94.39,190526,,,A*4D
$GPRMC,091628.000,A,3725.2433,N,12204.9051,W,8.90,94.46,190526,,,A*42
$GPRMC,091629.000,A,3725.2431,N,12204.9021,W,8.90,94.52,190526,,,A*43
$GPRMC,091630.000,A,3725.2429,N,12204.8990,W,8.89,94.59,190526,,,A*43
$GPRMC,091631.000,A,3725.2429,N,12204.8960,W,8.89,94.65,190526,,,A*42
$GPRMC,091632.000,A,3725.2427,N,12204.8928,W,8.88,94.70,190526,,,A*46
$GPRMC,091633.000,A,3725.2425,N,12204.8898,W,8.87,94.75,190526,,,A*45
$GPRMC,091634.000,A,3725.2424,N,12204.8867,W,8.87,94.80,190526,,,A*49
$GPRMC,091635.000,A,3725.2422,N,12204.8836,W,8.86,94.84,190526,,,A*4F
$GPRMC,091636.000,A,3725.2420,N,12204.8806,W,8.85,94.88,190526,,,A*42
$GPRMC,091637.000,A,3725.2420,N,12204.8775,W,8.84,94.96,190526,,,A*46
$GPRMC,091638.000,A,3725.2418,N,12204.8745,W,8.82,95.05,190526,,,A*4C
$GPRMC,091639.000,A,3725.2416,N,12204.8713,W,8.81,95.07,190526,,,A*41
$GPRMC,091640.000,A,3725.2414,N,12204.8683,W,8.80,95.09,190526,,,A*4A
$GPRMC,091641.000,A,3725.2414,N,12204.8652,W,8.79,95.19,190526,,,A*40
$GPRMC,091642.000,A,3725.2412,N,12204.8622,W,8.77,95.24,190526,,,A*42
$GPRMC,091643.000,A,3725.2410,N,12204.8590,W,8.76,95.13,190526,,,A*4E
$GPRMC,091644.000,A,3725.2408,N,12204.8560,W,8.75,95.06,190526,,,A*48
$GPRMC,091645.000,A,3725.2408,N,12204.8529,W,8.73,95.05,190526,,,A*41
$GPRMC,091646.000,A,3725.2406,N,12204.8499,W,8.72,94.89,190526,,,A*42
$GPRMC,091647.000,A,3725.2404,N,12204.8468,W,8.71,94.14,190526,,,A*48
$GPRMC,091648.000,A,3725.2403,N,12204.8438,W,8.69,94.50,190526,,,A*4C
$GPRMC,091649.000,A,3725.2402,N,12204.8406,W,8.68,94.70,190526,,,A*42
$GPRMC,091650.000,A,3725.2401,N,12204.8376,W,8.67,94.66,190526,,,A*41
$GPRMC,091651.000,A,3725.2399,N,12204.8346,W,8.66,94.61,190526,,,A*43
$GPRMC,091652.000,A,3725.2397,N,12204.8315,W,8.65,94.56,190526,,,A*4F
$GPRMC,091653.000,A,3725.2397,N,12204.8285,W,8.64,95.21,190526,,,A*46
$GPRMC,091654.000,A,3725.2395,N,12204.8254,W,8.63,95.16,190526,,,A*4C
$GPRMC,091655.000,A,3725.2393,N,12204.8224,W,8.62,95.10,190526,,,A*4B
$GPRMC,091656.000,A,3725.2391,N,12204.8193,W,8.61,95.09,190526,,,A*4E
$GPRMC,091657.000,A,3725.2389,N,12204.8163,W,8.61,95.07,190526,,,A*47
$GPRMC,091658.000,A,3725.2388,N,12204.8132,W,8.61,95.00,190526,,,A*4A
$GPRMC,091659.000,A,3725.2386,N,12204.8102,W,8.60,94.93,190526,,,A*4C
$GPRMC,091700.000,A,3725.2417,N,12204.8108,W,8.60,94.85,190526,,,A*43
$GPRMC,091701.000,A,3725.2415,N,12204.8078,W,8.60,94.78,190526,,,A*44
$GPRMC,091702.000,A,3725.2413,N,12204.8048,W,8.60,94.70,190526,,,A*4A
$GPRMC,091703.000,A,3725.2411,N,12204.8017,W,8.60,94.62,190526,,,A*40
$GPRMC,091704.000,A,3725.2409,N,12204.7987,W,8.61,94.55,190526,,,A*44
$GPRMC,091705.000,A,3725.2407,N,12204.7956,W,8.61,94.47,190526,,,A*44
$GPRMC,091706.000,A,3725.2405,N,12204.7926,W,8.62,94.40,190526,,,A*46
$GPRMC,091707.000,A,3725.2404,N,12204.7895,W,8.62,93.81,190526,,,A*45
$GPRMC,091708.000,A,3725.2403,N,12204.7865,W,8.63,93.68,190526,,,A*44
$GPRMC,091709.000,A,3725.2401,N,12204.7835,W,8.64,93.61,190526,,,A*4C
$GPRMC,091710.000,A,3725.2399,N,12204.7805,W,8.65,93.55,190526,,,A*47
$GPRMC,091711.000,A,3725.2397,N,12204.7775,W,8.66,94.05,190526,,,A*41
$GPRMC,091712.000,A,3725.2395,N,12204.7744,W,8.67,94.90,190526,,,A*4F
$GPRMC,091713.000,A,3725.2393,N,12204.7714,W,8.68,94.85,190526,,,A*46
$GPRMC,091714.000,A,3725.2391,N,12204.7683,W,8.69,94.80,190526,,,A*48
$GPRMC,091715.000,A,3725.2388,N,12204.7654,W,8.71,94.75,190526,,,A*48
$GPRMC,091716.000,A,3725.2353,N,12204.7587,W,8.72,94.71,190526,,,A*47
$GPRMC,091717.000,A,3725.2351,N,12204.7556,W,8.73,94.67,190526,,,A*4E
$GPRMC,091718.000,A,3725.2348,N,12204.7526,W,8.75,94.64,190526,,,A*4B
$GPRMC,091719.000,A,3725.2346,N,12204.7495,W,8.76,94.62,190526,,,A*48
$GPRMC,091720.000,A,3725.2344,N,12204.7465,W,8.77,94.60,190526,,,A*4C
$GPRMC,091721.000,A,3725.2341,N,12204.7436,W,8.79,94.58,190526,,,A*4B
$GPRMC,091722.000,A,3725.2339,N,12204.7405,W,8.80,94.57,190526,,,A*4E
$GPRMC,091723.000,A,3725.2337,N,12204.7375,W,8.81,94.57,190526,,,A*40
$GPRMC,091724.000,A,3725.2334,N,12204.7345,W,8.83,93.72,190526,,,A*45
$GPRMC,091725.000,A,3725.2331,N,12204.7315,W,8.84,93.27,190526,,,A*43
$GPRMC,091726.000,A,3725.2329,N,12204.7284,W,8.85,93.29,190526,,,A*4F
$GPRMC,091727.000,A,3725.2328,N,12204.7254,W,8.86,93.46,190526,,,A*48
$GPRMC,091728.000,A,3725.2326,N,12204.7225,W,8.87,93.56,190526,,,A*4F
$GPRMC,091729.000,A,3725.2324,N,12204.7194,W,8.87,93.60,190526,,,A*40
$GPRMC,091730.000,A,3725.2321,N,12204.7164,W,8.88,93.63,190526,,,A*4E
$GPRMC,091731.000,A,3725.2319,N,12204.7134,W,8.89,93.68,190526,,,A*4B
$GPRMC,091732.000,A,3725.2317,N,12204.7104,W,8.89,93.72,190526,,,A*4E
$GPRMC,091733.000,A,3725.2315,N,12204.7073,W,8.90,93.77,190526,,,A*41
$GPRMC,091734.000,A,3725.2313,N,12204.7043,W,8.90,93.83,190526,,,A*48
$GPRMC,091735.000,A,3725.2310,N,12204.7013,W,8.90,93.89,190526,,,A*45
$GPRMC,091736.000,A,3725.2309,N,12204.6983,W,8.89,92.62,190526,,,A*43
$GPRMC,091737.000,A,3725.2307,N,12204.6952,W,8.89,94.91,190526,,,A*4A
$GPRMC,091738.000,A,3725.2305,N,12204.6922,W,8.90,96.42,190526,,,A*44
$GPRMC,091739.000,A,3725.2301,N,12204.6893,W,8.89,96.49,190526,,,A*49
$GPRMC,091740.000,A,3725.2298,N,12204.6862,W,8.89,96.56,190526,,,A*46
$GPRMC,091741.000,A,3725.2295,N,12204.6832,W,8.88,97.55,190526,,,A*4C
$GPRMC,091742.000,A,3725.2292,N,12204.6802,W,8.87,97.93,190526,,,A*4E
$GPRMC,091743.000,A,3725.2288,N,12204.6773,W,6.62,76.51,190526,,,A*49
$GPRMC,091744.000,A,3725.2292,N,12204.6751,W,8.86,0.54,190526,,,A*75
$GPRMC,091745.000,A,3725.2316,N,12204.6750,W,8.85,0.62,190526,,,A*7E
$GPRMC,091746.000,A,3725.2341,N,12204.6750,W,8.84,0.20,190526,,,A*78
$GPRMC,091747.000,A,3725.2364,N,12204.6750,W,8.83,0.28,190526,,,A*71
$GPRMC,091748.000,A,3725.2389,N,12204.6751,W,8.81,1.47,190526,,,A*76
$GPRMC,091749.000,A,3725.2413,N,12204.6750,W,8.80,0.42,190526,,,A*77
$GPRMC,091750.000,A,3725.2437,N,12204.6750,W,8.79,0.49,190526,,,A*74
$GPRMC,091751.000,A,3725.2461,N,12204.6750,W,8.77,0.55,190526,,,A*75
$GPRMC,091752.000,A,3725.2485,N,12204.6750,W,8.76,1.10,190526,,,A*7D
$GPRMC,091753.000,A,3725.2510,N,12204.6750,W,8.75,1.36,190526,,,A*76
$GPRMC,091754.000,A,3725.2534,N,12204.6750,W,8.73,1.41,190526,,,A*71
$GPRMC,091755.000,A,3725.2559,N,12204.6749,W,8.72,1.17,190526,,,A*71
$GPRMC,091756.000,A,3725.2583,N,12204.6749,W,8.71,0.83,190526,,,A*7A
$GPRMC,091757.000,A,3725.2606,N,12204.6749,W,8.69,0.87,190526,,,A*78
$GPRMC,091758.000,A,3725.2631,N,12204.6749,W,8.68,0.29,190526,,,A*76
$GPRMC,091759.000,A,3725.2655,N,12204.6750,W,8.67,358.09,190526,,,A*7E
$GPRMC,091800.000,A,3725.2680,N,12204.6751,W,8.66,357.25,190526,,,A*74
$GPRMC,091801.000,A,3725.2704,N,12204.6753,W,8.65,356.68,190526,,,A*71
$GPRMC,091802.000,A,3725.2728,N,12204.6755,W,8.64,353.92,190526,,,A*7B
$GPRMC,091803.000,A,3725.2753,N,12204.6759,W,8.63,354.07,190526,,,A*76
$GPRMC,091804.000,A,3725.2777,N,12204.6763,W,8.62,354.24,190526,,,A*7E
$GPRMC,091805.000,A,3725.2801,N,12204.6766,W,8.62,354.21,190526,,,A*71
$GPRMC,091806.000,A,3725.2825,N,12204.6770,W,8.61,354.20,190526,,,A*71
$GPRMC,091807.000,A,3725.2850,N,12204.6774,W,8.61,354.10,190526,,,A*75
$GPRMC,091808.000,A,3725.2874,N,12204.6777,W,8.60,354.95,190526,,,A*73
$GPRMC,091809.000,A,3725.2898,N,12204.6781,W,8.60,355.31,190526,,,A*76
$GPRMC,091810.000,A,3725.2922,N,12204.6784,W,8.60,355.00,190526,,,A*79
$GPRMC,091811.000,A,3725.2947,N,12204.6786,W,8.60,354.96,190526,,,A*77
$GPRMC,091812.000,A,3725.2971,N,12204.6789,W,8.59,356.74,190526,,,A*7A
$GPRMC,091813.000,A,3725.2995,N,12204.6791,W,8.61,357.88,190526,,,A*71
$GPRMC,091814.000,A,3725.3020,N,12204.6793,W,8.61,357.97,190526,,,A*7C
$GPRMC,091815.000,A,3725.3044,N,12204.6794,W,8.61,357.98,190526,,,A*77
$GPRMC,091816.000,A,3725.3069,N,12204.6795,W,8.62,357.92,190526,,,A*73
$GPRMC,091817.000,A,3725.3093,N,12204.6796,W,8.63,358.47,190526,,,A*72
$GPRMC,091818.000,A,3725.3118,N,12204.6797,W,8.64,359.71,190526,,,A*7D
$GPRMC,091819.000,A,3725.3143,N,12204.6798,W,8.65,359.70,190526,,,A*7D
$GPRMC,091820.000,A,3725.3167,N,12204.6797,W,8.66,359.76,190526,,,A*7B
$GPRMC,091821.000,A,3725.3192,N,12204.6797,W,8.67,0.24,190526,,,A*79
$GPRMC,091822.000,A,3725.3216,N,12204.6797,W,8.68,1.24,190526,,,A*7B
$GPRMC,091823.000,A,3725.3240,N,12204.6797,W,8.69,2.26,190526,,,A*79
$GPRMC,091824.000,A,3725.3266,N,12204.6794,W,8.71,2.08,190526,,,A*7C
$GPRMC,091825.000,A,3725.3290,N,12204.6793,W,8.72,1.91,190526,,,A*73
$GPRMC,091826.000,A,3725.3315,N,12204.6792,W,8.73,2.78,190526,,,A*78
$GPRMC,091827.000,A,3725.3339,N,12204.6791,W,8.75,3.26,190526,,,A*78
$GPRMC,091828.000,A,3725.3364,N,12204.6788,W,8.76,3.35,190526,,,A*76
$GPRMC,091829.000,A,3725.3389,N,12204.6786,W,8.77,4.45,190526,,,A*7B
$GPRMC,091830.000,A,3725.3413,N,12204.6783,W,8.79,4.08,190526,,,A*75
$GPRMC,091831.000,A,3725.3438,N,12204.6780,W,8.80,3.69,190526,,,A*78
$GPRMC,091832.000,A,3725.3463,N,12204.6778,W,8.81,3.63,190526,,,A*79
$GPRMC,091833.000,A,3725.3487,N,12204.6775,W,8.82,3.76,190526,,,A*78
$GPRMC,091834.000,A,3725.3512,N,12204.6773,W,8.84,4.21,190526,,,A*77
$GPRMC,091835.000,A,3725.3536,N,12204.6769,W,8.85,3.21,190526,,,A*7D
$GPRMC,091836.000,A,3725.3561,N,12204.6767,W,8.86,2.71,190526,,,A*75
$GPRMC,091837.000,A,3725.3586,N,12204.6765,W,8.87,2.67,190526,,,A*79
$GPRMC,091838.000,A,3725.3610,N,12204.6764,W,8.87,2.29,190526,,,A*71
$GPRMC,091839.000,A,3725.3634,N,12204.6761,W,8.88,1.89,190526,,,A*75
$GPRMC,091840.000,A,3725.3660,N,12204.6759,W,8.89,1.27,190526,,,A*74
$GPRMC,091841.000,A,3725.3684,N,12204.6758,W,8.89,1.15,190526,,,A*7F
$GPRMC,091842.000,A,3725.3709,N,12204.6757,W,8.90,1.09,190526,,,A*72
$GPRMC,091843.000,A,3725.3733,N,12204.6755,W,8.90,1.55,190526,,,A*71
$GPRMC,091844.000,A,3725.3757,N,12204.6754,W,8.90,1.72,190526,,,A*70
$GPRMC,091845.000,A,3725.3783,N,12204.6752,W,8.90,1.10,190526,,,A*7A
$GPRMC,091846.000,A,3725.3807,N,12204.6751,W,8.90,0.79,190526,,,A*77
$GPRMC,091847.000,A,3725.3832,N,12204.6750,W,8.90,0.42,190526,,,A*79
$GPRMC,091848.000,A,3725.3856,N,12204.6748,W,8.89,0.51,190526,,,A*77
$GPRMC,091849.000,A,3725.3881,N,12204.6748,W,8.89,360.00,190526,,,A*7D
$GPRMC,091850.000,A,3725.3906,N,12204.6747,W,8.88,359.88,190526,,,A*7F
$GPRMC,091851.000,A,3725.3930,N,12204.6747,W,8.88,359.22,190526,,,A*7B
$GPRMC,091852.000,A,3725.3955,N,12204.6747,W,8.87,358.90,190526,,,A*7C
$GPRMC,091853.000,A,3725.3979,N,12204.6747,W,8.86,358.94,190526,,,A*76
$GPRMC,091854.000,A,3725.4004,N,12204.6747,W,8.85,358.99,190526,,,A*7B
$GPRMC,091855.000,A,3725.4028,N,12204.6747,W,6.00,302.39,190526,,,A*72
$GPRMC,091856.000,A,3725.4037,N,12204.6764,W,8.83,262.88,190526,,,A*76
$GPRMC,091857.000,A,3725.4034,N,12204.6795,W,8.81,262.93,190526,,,A*72
$GPRMC,091858.000,A,3725.4032,N,12204.6825,W,8.80,262.95,190526,,,A*78
$GPRMC,091859.000,A,3725.4029,N,12204.6855,W,8.79,263.02,190526,,,A*7D
$GPRMC,091900.000,A,3725.4026,N,12204.6886,W,8.77,320.15,190526,,,A*7F
$GPRMC,091901.000,A,3725.4024,N,12204.6916,W,8.76,323.51,190526,,,A*76
$GPRMC,091902.000,A,3725.4023,N,12204.6947,W,8.75,323.63,190526,,,A*74
$GPRMC,091903.000,A,3725.4023,N,12204.6977,W,8.74,323.87,190526,,,A*7D
$GPRMC,091904.000,A,3725.4022,N,12204.7008,W,8.72,323.87,190526,,,A*7D
$GPRMC,091905.000,A,3725.4022,N,12204.7038,W,8.71,323.87,190526,,,A*7C
$GPRMC,091906.000,A,3725.4021,N,12204.7069,W,8.70,323.87,190526,,,A*79
$GPRMC,091907.000,A,3725.4021,N,12204.7099,W,8.68,324.11,190526,,,A*76
$GPRMC,091908.000,A,3725.4021,N,12204.7130,W,8.67,324.45,190526,,,A*75
$GPRMC,091909.000,A,3725.4020,N,12204.7160,W,8.66,324.45,190526,,,A*71
$GPRMC,091910.000,A,3725.4020,N,12204.7191,W,8.65,324.45,190526,,,A*74
$GPRMC,091911.000,A,3725.4020,N,12204.7222,W,8.64,324.45,190526,,,A*7F
$GPRMC,091912.000,A,3725.4019,N,12204.7253,W,8.62,323.48,190526,,,A*7C
$GPRMC,091913.000,A,3725.4018,N,12204.7283,W,8.62,320.16,190526,,,A*79
$GPRMC,091914.000,A,3725.4016,N,12204.7314,W,8.62,320.16,190526,,,A*7F
$GPRMC,091915.000,A,3725.4014,N,12204.7344,W,8.61,320.16,190526,,,A*7A
$GPRMC,091916.000,A,3725.4012,N,12204.7376,W,8.61,265.91,190526,,,A*71
$GPRMC,091917.000,A,3725.4009,N,12204.7406,W,8.60,265.96,190526,,,A*7C
$GPRMC,091918.000,A,3725.4007,N,12204.7437,W,8.60,266.00,190526,,,A*73
$GPRMC,091919.000,A,3725.4005,N,12204.7467,W,8.60,266.04,190526,,,A*71
$GPRMC,091920.000,A,3725.4003,N,12204.7499,W,8.60,266.07,190526,,,A*7F
$GPRMC,091921.000,A,3725.4001,N,12204.7529,W,8.60,266.10,190526,,,A*70
$GPRMC,091922.000,A,3725.3998,N,12204.7559,W,8.60,266.17,190526,,,A*7D
$GPRMC,091923.000,A,3725.3996,N,12204.7590,W,8.61,266.34,190526,,,A*77
$GPRMC,091924.000,A,3725.3994,N,12204.7621,W,8.61,266.35,190526,,,A*7A
$GPRMC,091925.000,A,3725.3992,N,12204.7652,W,8.62,266.36,190526,,,A*79
$GPRMC,091926.000,A,3725.3989,N,12204.7682,W,8.63,266.36,190526,,,A*7C
$GPRMC,091927.000,A,3725.3987,N,12204.7714,W,8.64,266.35,190526,,,A*79
$GPRMC,091928.000,A,3725.3985,N,12204.7744,W,8.65,266.34,190526,,,A*71
$GPRMC,091929.000,A,3725.3982,N,12204.7774,W,8.66,266.32,190526,,,A*71
$GPRMC,091930.000,A,3725.3980,N,12204.7805,W,8.67,266.30,190526,,,A*71
$GPRMC,091931.000,A,3725.3978,N,12204.7836,W,8.68,266.27,190526,,,A*7E
$GPRMC,091932.000,A,3725.3976,N,12204.7867,W,8.69,266.24,190526,,,A*75
$GPRMC,091933.000,A,3725.3974,N,12204.7897,W,8.70,266.20,190526,,,A*75
$GPRMC,091934.000,A,3725.3971,N,12204.7929,W,8.72,264.86,190526,,,A*7F
$GPRMC,091935.000,A,3725.3968,N,12204.7959,W,8.73,264.72,190526,,,A*7B
$GPRMC,091936.000,A,3725.3966,N,12204.7989,W,8.74,264.67,190526,,,A*78
$GPRMC,091937.000,A,3725.3963,N,12204.8020,W,8.76,264.61,190526,,,A*7D
$GPRMC,091938.000,A,3725.3960,N,12204.8051,W,8.77,264.55,190526,,,A*71
$GPRMC,091939.000,A,3725.3957,N,12204.8082,W,8.78,264.49,190526,,,A*78
$GPRMC,091940.000,A,3725.3955,N,12204.8112,W,8.80,264.42,190526,,,A*70
$GPRMC,091941.000,A,3725.3952,N,12204.8142,W,8.81,264.35,190526,,,A*72
$GPRMC,091942.000,A,3725.3950,N,12204.8174,W,8.82,264.40,190526,,,A*77
$GPRMC,091943.000,A,3725.3946,N,12204.8204,W,8.83,264.31,190526,,,A*72
$GPRMC,091944.000,A,3725.3944,N,12204.8234,W,8.84,263.52,190526,,,A*71
$GPRMC,091945.000,A,3725.3941,N,12204.8265,W,8.86,263.45,190526,,,A*75
$GPRMC,091946.000,A,3725.3938,N,12204.8295,W,7.54,220.57,190526,,,A*73
$GPRMC,091947.000,A,3725.3922,N,12204.8312,W,8.87,196.92,190526,,,A*71
$GPRMC,091948.000,A,3725.3899,N,12204.8322,W,8.88,196.85,190526,,,A*75
$GPRMC,091949.000,A,3725.3876,N,12204.8331,W,8.87,200.49,190526,,,A*74
$GPRMC,091950.000,A,3725.3853,N,12204.8342,W,8.88,206.26,190526,,,A*7F
$GPRMC,091951.000,A,3725.3831,N,12204.8356,W,8.90,207.52,190526,,,A*74
$GPRMC,091952.000,A,3725.3810,N,12204.8370,W,8.90,207.45,190526,,,A*76
$GPRMC,091953.000,A,3725.3788,N,12204.8384,W,8.89,208.83,190526,,,A*7F
$GPRMC,091954.000,A,3725.3767,N,12204.8399,W,8.90,213.12,190526,,,A*7F
$GPRMC,091955.000,A,3725.3746,N,12204.8416,W,8.90,214.68,190526,,,A*77
$GPRMC,091956.000,A,3725.3727,N,12204.8434,W,8.90,214.90,190526,,,A*74
$GPRMC,091957.000,A,3725.3707,N,12204.8452,W,8.89,214.62,190526,,,A*72
$GPRMC,091958.000,A,3725.3687,N,12204.8470,W,8.89,214.42,190526,,,A*76
$GPRMC,091959.000,A,3725.3667,N,12204.8487,W,8.88,214.37,190526,,,A*72
$GPRMC,092000.000,A,3725.3647,N,12204.8505,W,8.88,214.34,190526,,,A*7E
$GPRMC,092001.000,A,3725.3627,N,12204.8523,W,8.86,212.33,190526,,,A*72
$GPRMC,092002.000,A,3725.3607,N,12204.8540,W,8.86,210.54,190526,,,A*75
$GPRMC,092003.000,A,3725.3586,N,12204.8556,W,8.85,210.52,190526,,,A*7C
$GPRMC,092004.000,A,3725.3565,N,12204.8572,W,8.81,206.09,190526,,,A*7D
$GPRMC,092005.000,A,3725.3545,N,12204.8586,W,8.83,201.64,190526,,,A*7B
$GPRMC,092006.000,A,3725.3522,N,12204.8598,W,8.82,201.63,190526,,,A*70
$GPRMC,092007.000,A,3725.3500,N,12204.8609,W,8.76,198.15,190526,,,A*73
$GPRMC,092008.000,A,3725.3477,N,12204.8619,W,8.79,190.06,190526,,,A*79
$GPRMC,092009.000,A,3725.3453,N,12204.8625,W,8.78,190.07,190526,,,A*71
$GPRMC,092010.000,A,3725.3429,N,12204.8630,W,8.75,188.55,190526,,,A*73
$GPRMC,092011.000,A,3725.3406,N,12204.8635,W,8.75,183.86,190526,,,A*7F
$GPRMC,092012.000,A,3725.3381,N,12204.8638,W,8.74,183.89,190526,,,A*77
$GPRMC,092013.000,A,3725.3357,N,12204.8640,W,8.71,182.90,190526,,,A*7E
$GPRMC,092014.000,A,3725.3333,N,12204.8642,W,8.70,177.34,190526,,,A*7C
$GPRMC,092015.000,A,3725.3309,N,12204.8640,W,8.70,174.95,190526,,,A*7E
$GPRMC,092016.000,A,3725.3285,N,12204.8638,W,8.68,175.00,190526,,,A*73
$GPRMC,092017.000,A,3725.3260,N,12204.8636,W,8.66,173.61,190526,,,A*78
$GPRMC,092018.000,A,3725.3236,N,12204.8633,W,8.66,172.48,190526,,,A*7B
$GPRMC,092019.000,A,3725.3213,N,12204.8629,W,8.65,172.54,190526,,,A*78
$GPRMC,092020.000,A,3725.3189,N,12204.8624,W,8.64,172.61,190526,,,A*78
$GPRMC,092021.000,A,3725.3164,N,12204.8621,W,8.63,172.67,190526,,,A*7E
$GPRMC,092022.000,A,3725.3140,N,12204.8617,W,8.62,172.74,190526,,,A*7D
$GPRMC,092023.000,A,3725.3117,N,12204.8612,W,8.62,172.82,190526,,,A*72
$GPRMC,092024.000,A,3725.3093,N,12204.8609,W,8.59,168.58,190526,,,A*76
$GPRMC,092025.000,A,3725.3069,N,12204.8603,W,8.61,165.39,190526,,,A*79
$GPRMC,092026.000,A,3725.3045,N,12204.8595,W,8.60,165.46,190526,,,A*71
$GPRMC,092027.000,A,3725.3022,N,12204.8586,W,8.60,165.54,190526,,,A*70
$GPRMC,092028.000,A,3725.2999,N,12204.8579,W,8.60,165.62,190526,,,A*72
$GPRMC,092029.000,A,3725.2975,N,12204.8571,W,8.60,165.69,190526,,,A*72
$GPRMC,092030.000,A,3725.2952,N,12204.8563,W,8.60,165.77,190526,,,A*73
$GPRMC,092031.000,A,3725.2929,N,12204.8554,W,5.00,153.12,190526,,,A*77
$GPRMC,092032.000,A,3725.2916,N,12204.8546,W,8.61,19.67,190526,,,A*4C
$GPRMC,092033.000,A,3725.2939,N,12204.8536,W,8.61,19.74,190526,,,A*45
$GPRMC,092034.000,A,3725.2962,N,12204.8525,W,8.58,15.85,190526,,,A*46
$GPRMC,092035.000,A,3725.2986,N,12204.8517,W,8.63,9.83,190526,,,A*7F
$GPRMC,092036.000,A,3725.3010,N,12204.8512,W,8.53,3.80,190526,,,A*74
$GPRMC,092037.000,A,3725.3035,N,12204.8510,W,8.64,351.56,190526,,,A*7B
$GPRMC,092038.000,A,3725.3059,N,12204.8514,W,8.65,351.69,190526,,,A*77
$GPRMC,092039.000,A,3725.3083,N,12204.8519,W,8.67,351.74,190526,,,A*72
$GPRMC,092040.000,A,3725.3107,N,12204.8524,W,8.68,351.78,190526,,,A*7C
$GPRMC,092041.000,A,3725.3131,N,12204.8529,W,8.69,351.82,190526,,,A*71
$GPRMC,092042.000,A,3725.3155,N,12204.8533,W,8.69,350.63,190526,,,A*75
$GPRMC,092043.000,A,3725.3179,N,12204.8538,W,8.72,347.55,190526,,,A*78
$GPRMC,092044.000,A,3725.3203,N,12204.8545,W,8.72,347.33,190526,,,A*7B
$GPRMC,092045.000,A,3725.3227,N,12204.8552,W,8.74,317.17,190526,,,A*7F
$GPRMC,092046.000,A,3725.3245,N,12204.8574,W,8.05,299.79,190526,,,A*75
$GPRMC,092047.000,A,3725.3255,N,12204.8597,W,8.50,270.77,190526,,,A*71
$GPRMC,092048.000,A,3725.3255,N,12204.8627,W,8.78,356.87,190526,,,A*76
$GPRMC,092049.000,A,3725.3280,N,12204.8629,W,8.80,356.86,190526,,,A*77
$GPRMC,092050.000,A,3725.3304,N,12204.8631,W,8.81,357.06,190526,,,A*73
$GPRMC,092051.000,A,3725.3328,N,12204.8633,W,8.81,2.71,190526,,,A*7D
$GPRMC,092052.000,A,3725.3353,N,12204.8632,W,8.83,5.73,190526,,,A*74
$GPRMC,092053.000,A,3725.3377,N,12204.8630,W,8.84,5.70,190526,,,A*75
$GPRMC,092054.000,A,3725.3401,N,12204.8627,W,8.84,7.73,190526,,,A*73
$GPRMC,092055.000,A,3725.3426,N,12204.8624,W,8.86,11.87,190526,,,A*4A
$GPRMC,092056.000,A,3725.3450,N,12204.8618,W,8.87,11.83,190526,,,A*42
$GPRMC,092057.000,A,3725.3473,N,12204.8612,W,8.84,14.98,190526,,,A*44
$GPRMC,092058.000,A,3725.3496,N,12204.8604,W,8.89,23.30,190526,,,A*4C
$GPRMC,092059.000,A,3725.3519,N,12204.8592,W,8.89,23.24,190526,,,A*42
$GPRMC,092108.000,A,3725.3541,N,12204.8581,W,8.88,23.89,190526,,,A*4E
$GPRMC,092101.000,A,3725.3563,N,12204.8569,W,8.90,31.97,190526,,,A*44
$GPRMC,092102.000,A,3725.3584,N,12204.8552,W,8.90,31.91,190526,,,A*40
$GPRMC,092103.000,A,3725.3605,N,12204.8536,W,8.90,32.02,190526,,,A*40
$GPRMC,092104.000,A,3725.3625,N,12204.8520,W,8.90,35.49,190526,,,A*4A
$GPRMC,092105.000,A,3725.3645,N,12204.8503,W,8.90,35.42,190526,,,A*47
$GPRMC,092106.000,A,3725.3665,N,12204.8485,W,8.89,35.34,190526,,,A*40
$GPRMC,092107.000,A,3725.3685,N,12204.8467,W,8.89,35.26,190526,,,A*40
$GPRMC,092108.000,A,3725.3703,N,12204.8450,W,8.88,35.56,190526,,,A*42
$GPRMC,092109.000,A,3725.3723,N,12204.8432,W,8.88,35.49,190526,,,A*4B
$GPRMC,092110.000,A,3725.3743,N,12204.8415,W,8.87,34.13,190526,,,A*41
$GPRMC,092111.000,A,3725.3763,N,12204.8398,W,8.85,31.45,190526,,,A*44
$GPRMC,092112.000,A,3725.3783,N,12204.8381,W,8.85,27.57,190526,,,A*45
$GPRMC,092113.000,A,3725.3804,N,12204.8367,W,8.84,27.49,190526,,,A*42
$GPRMC,092114.000,A,3725.3826,N,12204.8353,W,8.83,27.43,190526,,,A*4F
$GPRMC,092115.000,A,3725.3848,N,12204.8339,W,8.81,23.45,190526,,,A*4A
$GPRMC,092116.000,A,3725.3869,N,12204.8327,W,8.81,16.41,190526,,,A*47
$GPRMC,092117.000,A,3725.3892,N,12204.8318,W,8.79,16.35,190526,,,A*4A
$GPRMC,092118.000,A,3725.3916,N,12204.8309,W,8.78,16.29,190526,,,A*44
$GPRMC,092119.000,A,3725.3939,N,12204.8301,W,8.52,79.94,190526,,,A*47
$GPRMC,092120.000,A,3725.3942,N,12204.8272,W,8.75,82.56,190526,,,A*4B
$GPRMC,092121.000,A,3725.3944,N,12204.8241,W,8.74,82.72,190526,,,A*4B
$GPRMC,092122.000,A,3725.3947,N,12204.8211,W,8.72,83.47,190526,,,A*4F
$GPRMC,092123.000,A,3725.3950,N,12204.8181,W,8.71,83.05,190526,,,A*47
$GPRMC,092124.000,A,3725.3952,N,12204.8151,W,8.70,83.03,190526,,,A*48
$GPRMC,092125.000,A,3725.3954,N,12204.8121,W,8.69,83.01,190526,,,A*42
$GPRMC,092126.000,A,3725.3956,N,12204.8090,W,8.67,82.99,190526,,,A*46
$GPRMC,092127.000,A,3725.3959,N,12204.8061,W,8.66,82.98,190526,,,A*46
$GPRMC,092128.000,A,3725.3961,N,12204.8031,W,8.65,82.98,190526,,,A*44
$GPRMC,092129.000,A,3725.3964,N,12204.8000,W,8.64,82.98,190526,,,A*43
$GPRMC,092130.000,A,3725.3965,N,12204.7971,W,8.63,82.99,190526,,,A*4C
$GPRMC,092131.000,A,3725.3968,N,12204.7940,W,8.62,83.90,190526,,,A*4B
$GPRMC,092132.000,A,3725.3970,N,12204.7910,W,8.62,84.41,190526,,,A*4F
$GPRMC,092133.000,A,3725.3972,N,12204.7880,W,8.61,84.43,190526,,,A*45
$GPRMC,092134.000,A,3725.3974,N,12204.7850,W,8.61,84.47,190526,,,A*4D
$GPRMC,092135.000,A,3725.3976,N,12204.7820,W,8.60,84.50,190526,,,A*4E
$GPRMC,092136.000,A,3725.3978,N,12204.7789,W,8.60,84.54,190526,,,A*4B
$GPRMC,092137.000,A,3725.3980,N,12204.7759,W,8.60,84.59,190526,,,A*4D
$GPRMC,092138.000,A,3725.3982,N,12204.7729,W,8.60,84.64,190526,,,A*49
$GPRMC,092139.000,A,3725.3984,N,12204.7699,W,8.60,84.70,190526,,,A*41
$GPRMC,092140.000,A,3725.3986,N,12204.7669,W,8.60,84.76,190526,,,A*44
$GPRMC,092141.000,A,3725.3988,N,12204.7638,W,8.61,84.82,190526,,,A*45
$GPRMC,092142.000,A,3725.3990,N,12204.7609,W,8.61,84.83,190526,,,A*4C
$GPRMC,092143.000,A,3725.3992,N,12204.7578,W,8.62,84.76,190526,,,A*43
$GPRMC,092144.000,A,3725.3994,N,12204.7548,W,8.63,84.83,190526,,,A*4A
$GPRMC,092145.000,A,3725.3996,N,12204.7517,W,8.63,84.90,190526,,,A*41
$GPRMC,092146.000,A,3725.3998,N,12204.7487,W,8.64,84.98,190526,,,A*4B
$GPRMC,092147.000,A,3725.4000,N,12204.7457,W,8.65,85.05,190526,,,A*4C
$GPRMC,092148.000,A,3725.4002,N,12204.7427,W,8.66,85.13,190526,,,A*42
$GPRMC,092149.000,A,3725.4004,N,12204.7397,W,8.68,85.21,190526,,,A*46
$GPRMC,092150.000,A,3725.4006,N,12204.7366,W,8.69,85.28,190526,,,A*4A
$GPRMC,092151.000,A,3725.4008,N,12204.7336,W,8.70,85.36,190526,,,A*47
$GPRMC,092152.000,A,3725.4011,N,12204.7305,W,8.70,86.95,190526,,,A*46
$GPRMC,092153.000,A,3725.4012,N,12204.7275,W,8.73,89.80,190526,,,A*4A
$GPRMC,092154.000,A,3725.4013,N,12204.7244,W,8.74,89.87,190526,,,A*4E
$GPRMC,092155.000,A,3725.4013,N,12204.7214,W,8.75,89.94,190526,,,A*49
$GPRMC,092156.000,A,3725.4013,N,12204.7183,W,8.77,90.00,190526,,,A*40
$GPRMC,092157.000,A,3725.4014,N,12204.7153,W,8.78,89.97,190526,,,A*42
$GPRMC,092158.000,A,3725.4015,N,12204.7122,W,8.79,89.54,190526,,,A*44
$GPRMC,092159.000,A,3725.4015,N,12204.7092,W,8.81,89.60,190526,,,A*4F
$GPRMC,092200.000,A,3725.4016,N,12204.7061,W,8.82,89.65,190526,,,A*49
$GPRMC,092201.000,A,3725.4016,N,12204.7031,W,8.83,89.69,190526,,,A*40
$GPRMC,092202.000,A,3725.4018,N,12204.7000,W,8.84,89.68,190526,,,A*49
$GPRMC,092203.000,A,3725.4018,N,12204.6969,W,8.85,89.36,190526,,,A*45
$GPRMC,092204.000,A,3725.4019,N,12204.6939,W,8.85,88.22,190526,,,A*42
$GPRMC,092205.000,A,3725.4020,N,12204.6908,W,8.87,84.43,190526,,,A*42
$GPRMC,092206.000,A,3725.4024,N,12204.6878,W,8.88,84.45,190526,,,A*4A
$GPRMC,092207.000,A,3725.4026,N,12204.6848,W,6.09,122.71,190526,,,A*77
$GPRMC,092208.000,A,3725.4018,N,12204.6830,W,8.89,180.15,190526,,,A*76
$GPRMC,092209.000,A,3725.3993,N,12204.6830,W,8.89,180.15,190526,,,A*7A
$GPRMC,092210.000,A,3725.3970,N,12204.6828,W,8.90,180.15,190526,,,A*7E
$GPRMC,092211.000,A,3725.3945,N,12204.6828,W,8.90,180.54,190526,,,A*7C
$GPRMC,092212.000,A,3725.3921,N,12204.6827,W,8.90,182.04,190526,,,A*75
$GPRMC,092213.000,A,3725.3897,N,12204.6828,W,8.90,182.42,190526,,,A*75
$GPRMC,092214.000,A,3725.3873,N,12204.6829,W,8.90,182.39,190526,,,A*75
$GPRMC,092215.000,A,3725.3849,N,12204.6829,W,8.89,182.83,190526,,,A*74
$GPRMC,092216.000,A,3725.3824,N,12204.6830,W,8.89,183.00,190526,,,A*7E
$GPRMC,092217.000,A,3725.3800,N,12204.6831,W,8.88,182.88,190526,,,A*78
$GPRMC,092218.000,A,3725.3777,N,12204.6832,W,8.88,183.59,190526,,,A*76
$GPRMC,092219.000,A,3725.3752,N,12204.6832,W,8.87,184.26,190526,,,A*70
$GPRMC,092220.000,A,3725.3728,N,12204.6834,W,8.86,184.05,190526,,,A*71
$GPRMC,092221.000,A,3725.3703,N,12204.6836,W,8.85,184.01,190526,,,A*7C
$GPRMC,092222.000,A,3725.3679,N,12204.6838,W,8.84,184.03,190526,,,A*7E
$GPRMC,092223.000,A,3725.3655,N,12204.6839,W,8.83,184.44,190526,,,A*74
$GPRMC,092224.000,A,3725.3631,N,12204.6841,W,8.82,184.64,190526,,,A*7D
$GPRMC,092225.000,A,3725.3607,N,12204.6843,W,8.81,185.13,190526,,,A*79
$GPRMC,092226.000,A,3725.3583,N,12204.6845,W,8.79,185.10,190526,,,A*77
$GPRMC,092227.000,A,3725.3558,N,12204.6847,W,8.78,185.06,190526,,,A*74
$GPRMC,092228.000,A,3725.3534,N,12204.6850,W,8.77,185.58,190526,,,A*73
$GPRMC,092229.000,A,3725.3510,N,12204.6853,W,8.75,185.62,190526,,,A*7C
$GPRMC,092230.000,A,3725.3485,N,12204.6855,W,8.74,185.61,190526,,,A*7D
$GPRMC,092231.000,A,3725.3461,N,12204.6858,W,8.73,185.42,190526,,,A*7D
$GPRMC,092232.000,A,3725.3437,N,12204.6861,W,8.71,185.23,190526,,,A*72
$GPRMC,092233.000,A,3725.3412,N,12204.6863,W,8.70,183.98,190526,,,A*71
$GPRMC,092234.000,A,3725.3388,N,12204.6865,W,8.69,183.57,190526,,,A*7F
$GPRMC,092235.000,A,3725.3364,N,12204.6867,W,8.68,183.12,190526,,,A*7E
$GPRMC,092236.000,A,3725.3339,N,12204.6869,W,8.66,181.70,190526,,,A*73
$GPRMC,092237.000,A,3725.3315,N,12204.6869,W,8.65,181.33,190526,,,A*78
$GPRMC,092238.000,A,3725.3290,N,12204.6870,W,8.64,180.80,190526,,,A*7B
$GPRMC,092239.000,A,3725.3266,N,12204.6871,W,8.63,180.26,190526,,,A*79
$GPRMC,092240.000,A,3725.3242,N,12204.6872,W,8.63,179.85,190526,,,A*7D
$GPRMC,092241.000,A,3725.3217,N,12204.6871,W,8.62,178.52,190526,,,A*75
$GPRMC,092242.000,A,3725.3193,N,12204.6871,W,8.61,178.15,190526,,,A*79
$GPRMC,092243.000,A,3725.3168,N,12204.6870,W,8.61,177.71,190526,,,A*70
$GPRMC,092244.000,A,3725.3144,N,12204.6869,W,8.60,176.45,190526,,,A*76
$GPRMC,092245.000,A,3725.3118,N,12204.6868,W,8.60,176.26,190526,,,A*7A
$GPRMC,092246.000,A,3725.3094,N,12204.6866,W,8.60,176.24,190526,,,A*70
$GPRMC,092247.000,A,3725.3070,N,12204.6864,W,8.60,175.80,190526,,,A*74
$GPRMC,092248.000,A,3725.3045,N,12204.6862,W,8.60,174.21,190526,,,A*71
$GPRMC,092249.000,A,3725.3021,N,12204.6860,W,8.60,172.89,190526,,,A*74
$GPRMC,092250.000,A,3725.2997,N,12204.6856,W,8.61,172.78,190526,,,A*73
$GPRMC,092251.000,A,3725.2971,N,12204.6853,W,8.61,172.76,190526,,,A*71
$GPRMC,092252.000,A,3725.2947,N,12204.6850,W,8.62,172.05,190526,,,A*73
$GPRMC,092253.000,A,3725.2923,N,12204.6846,W,8.63,171.41,190526,,,A*75
$GPRMC,092254.000,A,3725.2899,N,12204.6842,W,8.63,171.12,190526,,,A*70
$GPRMC,092255.000,A,3725.2873,N,12204.6838,W,8.64,170.51,190526,,,A*79
$GPRMC,092256.000,A,3725.2849,N,12204.6833,W,8.65,169.96,190526,,,A*7A
$GPRMC,092257.000,A,3725.2825,N,12204.6828,W,8.66,170.33,190526,,,A*7F
$GPRMC,092258.000,A,3725.2801,N,12204.6823,W,8.67,172.78,190526,,,A*71
$GPRMC,092259.000,A,3725.2776,N,12204.6820,W,8.69,175.57,190526,,,A*78
$GPRMC,092300.000,A,3725.2751,N,12204.6818,W,8.70,176.50,190526,,,A*77
$GPRMC,092301.000,A,3725.2727,N,12204.6816,W,8.71,177.42,190526,,,A*7A
$GPRMC,092302.000,A,3725.2703,N,12204.6815,W,8.73,179.38,190526,,,A*7D
$GPRMC,092303.000,A,3725.2677,N,12204.6815,W,8.74,179.48,190526,,,A*7E
$GPRMC,092304.000,A,3725.2653,N,12204.6815,W,8.75,179.55,190526,,,A*72
$GPRMC,092305.000,A,3725.2628,N,12204.6815,W,8.77,179.62,190526,,,A*79
$GPRMC,092306.000,A,3725.2604,N,12204.6815,W,8.78,180.13,190526,,,A*7B
$GPRMC,092307.000,A,3725.2579,N,12204.6816,W,8.79,180.29,190526,,,A*78
$GPRMC,092308.000,A,3725.2554,N,12204.6816,W,8.81,180.37,190526,,,A*70
$GPRMC,092309.000,A,3725.2530,N,12204.6817,W,8.82,180.45,190526,,,A*74
$GPRMC,092310.000,A,3725.2505,N,12204.6817,W,8.83,180.52,190526,,,A*7D
$GPRMC,092311.000,A,3725.2481,N,12204.6818,W,8.84,180.60,190526,,,A*78
$GPRMC,092312.000,A,3725.2455,N,12204.6818,W,8.85,180.43,190526,,,A*72
$GPRMC,092313.000,A,3725.2431,N,12204.6818,W,8.86,179.46,190526,,,A*71
$GPRMC,092314.000,A,3725.2407,N,12204.6818,W,8.87,179.94,190526,,,A*7D
$GPRMC,092315.000,A,3725.2382,N,12204.6819,W,8.88,180.37,190526,,,A*77
$GPRMC,092316.000,A,3725.2358,N,12204.6819,W,5.95,232.32,190526,,,A*7D
$GPRMC,092317.000,A,3725.2347,N,12204.6835,W,8.89,277.30,190526,,,A*7F
$GPRMC,092318.000,A,3725.2350,N,12204.6865,W,8.89,277.36,190526,,,A*75
$GPRMC,092319.000,A,3725.2352,N,12204.6896,W,8.90,276.58,190526,,,A*7B
$GPRMC,092320.000,A,3725.2393,N,12204.6896,W,8.90,320.20,190526,,,A*71
$GPRMC,092321.000,A,3725.2395,N,12204.6927,W,8.90,320.15,190526,,,A*7B
$GPRMC,092322.000,A,3725.2397,N,12204.6958,W,8.90,320.15,190526,,,A*72
$GPRMC,092323.000,A,3725.2400,N,12204.6988,W,8.90,320.15,190526,,,A*77
$GPRMC,092324.000,A,3725.2402,N,12204.7019,W,8.89,320.15,190526,,,A*7A
$GPRMC,092325.000,A,3725.2404,N,12204.7050,W,8.89,320.15,190526,,,A*70
$GPRMC,092326.000,A,3725.2406,N,12204.7080,W,8.89,320.15,190526,,,A*7C
$GPRMC,092327.000,A,3725.2408,N,12204.7111,W,8.88,320.15,190526,,,A*7B
$GPRMC,092328.000,A,3725.2410,N,12204.7142,W,8.87,320.15,190526,,,A*74
$GPRMC,092329.000,A,3725.2413,N,12204.7172,W,8.86,320.15,190526,,,A*74
$GPRMC,092330.000,A,3725.2415,N,12204.7203,W,8.85,320.15,190526,,,A*7C
$GPRMC,092331.000,A,3725.2379,N,12204.7264,W,8.84,276.15,190526,,,A*72
$GPRMC,092332.000,A,3725.2381,N,12204.7295,W,8.83,276.14,190526,,,A*7E
$GPRMC,092333.000,A,3725.2383,N,12204.7326,W,8.82,276.13,190526,,,A*72
$GPRMC,092334.000,A,3725.2385,N,12204.7357,W,8.81,276.11,190526,,,A*74
$GPRMC,092335.000,A,3725.2388,N,12204.7387,W,8.80,276.09,190526,,,A*7D
$GPRMC,092336.000,A,3725.2390,N,12204.7417,W,8.78,276.06,190526,,,A*71
$GPRMC,092337.000,A,3725.2392,N,12204.7449,W,8.77,275.63,190526,,,A*76
$GPRMC,092338.000,A,3725.2394,N,12204.7479,W,8.75,275.59,190526,,,A*77
$GPRMC,092339.000,A,3725.2397,N,12204.7510,W,8.74,275.54,190526,,,A*77
$GPRMC,092340.000,A,3725.2399,N,12204.7540,W,8.73,275.50,190526,,,A*71
$GPRMC,092341.000,A,3725.2401,N,12204.7572,W,8.71,275.44,190526,,,A*70
$GPRMC,092342.000,A,3725.2403,N,12204.7602,W,8.70,275.38,190526,,,A*7F
$GPRMC,092343.000,A,3725.2405,N,12204.7632,W,8.69,275.32,190526,,,A*79
$GPRMC,092344.000,A,3725.2408,N,12204.7663,W,8.68,275.26,190526,,,A*73
$GPRMC,092345.000,A,3725.2410,N,12204.7693,W,8.66,275.19,190526,,,A*76
$GPRMC,092346.000,A,3725.2412,N,12204.7725,W,8.65,275.12,190526,,,A*73
$GPRMC,092347.000,A,3725.2414,N,12204.7755,W,8.64,275.05,190526,,,A*74
$GPRMC,092348.000,A,3725.2416,N,12204.7786,W,8.63,274.97,190526,,,A*7A
$GPRMC,092349.000,A,3725.2419,N,12204.7816,W,8.63,274.90,190526,,,A*75
$GPRMC,092350.000,A,3725.2421,N,12204.7846,W,8.62,274.82,190526,,,A*71
$GPRMC,092351.000,A,3725.2423,N,12204.7877,W,8.61,274.74,190526,,,A*7A
$GPRMC,092352.000,A,3725.2425,N,12204.7907,W,8.61,274.67,190526,,,A*7B
$GPRMC,092353.000,A,3725.2428,N,12204.7938,W,8.60,274.59,190526,,,A*77
$GPRMC,092354.000,A,3725.2430,N,12204.7968,W,8.60,274.47,190526,,,A*73
$GPRMC,092355.000,A,3725.2432,N,12204.7999,W,8.60,273.83,190526,,,A*71
$GPRMC,092356.000,A,3725.2434,N,12204.8029,W,8.60,273.76,190526,,,A*73
$GPRMC,092357.000,A,3725.2437,N,12204.8060,W,8.60,273.69,190526,,,A*72
$GPRMC,092358.000,A,3725.2438,N,12204.8090,W,8.60,273.62,190526,,,A*76
$GPRMC,092359.000,A,3725.2440,N,12204.8120,W,8.61,274.28,190526,,,A*7A
$GPRMC,092400.000,A,3725.2442,N,12204.8151,W,8.61,273.43,190526,,,A*7F
$GPRMC,092401.000,A,3725.2445,N,12204.8181,W,8.62,273.18,190526,,,A*79
$GPRMC,092402.000,A,3725.2447,N,12204.8212,W,8.62,273.13,190526,,,A*7A
$GPRMC,092403.000,A,3725.2448,N,12204.8242,W,8.63,273.08,190526,,,A*7A
$GPRMC,092404.000,A,3725.2450,N,12204.8273,W,6.12,237.21,190526,,,A*75
$GPRMC,092405.000,A,3725.2442,N,12204.8291,W,8.65,182.15,190526,,,A*7F
$GPRMC,092406.000,A,3725.2417,N,12204.8293,W,8.65,181.14,190526,,,A*7C
$GPRMC,092407.000,A,3725.2393,N,12204.8294,W,8.67,177.28,190526,,,A*75
$GPRMC,092408.000,A,3725.2368,N,12204.8293,W,8.69,177.25,190526,,,A*7A
$GPRMC,092409.000,A,3725.2344,N,12204.8291,W,8.70,177.32,190526,,,A*79
$GPRMC,092410.000,A,3725.2320,N,12204.8290,W,8.71,177.95,190526,,,A*7E
$GPRMC,092411.000,A,3725.2296,N,12204.8290,W,8.72,178.18,190526,,,A*7A
$GPRMC,092412.000,A,3725.2272,N,12204.8289,W,8.74,178.19,190526,,,A*7C
$GPRMC,092413.000,A,3725.2247,N,12204.8289,W,8.75,178.20,190526,,,A*70
$GPRMC,092414.000,A,3725.2223,N,12204.8287,W,8.76,178.21,190526,,,A*79
$GPRMC,092415.000,A,3725.2199,N,12204.8287,W,8.78,179.22,190526,,,A*76
$GPRMC,092416.000,A,3725.2174,N,12204.8287,W,8.79,179.42,190526,,,A*71
$GPRMC,092417.000,A,3725.2150,N,12204.8287,W,8.80,179.45,190526,,,A*77
$GPRMC,092418.000,A,3725.2125,N,12204.8286,W,8.82,179.49,190526,,,A*75
$GPRMC,092419.000,A,3725.2101,N,12204.8287,W,8.83,179.53,190526,,,A*79
$GPRMC,092420.000,A,3725.2076,N,12204.8287,W,8.84,179.57,190526,,,A*71
$GPRMC,092421.000,A,3725.2052,N,12204.8287,W,8.85,179.55,190526,,,A*75
$GPRMC,092422.000,A,3725.2028,N,12204.8286,W,8.86,179.57,190526,,,A*7B
$GPRMC,092423.000,A,3725.2003,N,12204.8286,W,8.87,179.63,190526,,,A*75
$GPRMC,092424.000,A,3725.1979,N,12204.8286,W,8.88,179.69,190526,,,A*70
$GPRMC,092425.000,A,3725.1954,N,12204.8286,W,8.88,179.75,190526,,,A*73
$GPRMC,092426.000,A,3725.1930,N,12204.8286,W,8.89,179.82,190526,,,A*7B
$GPRMC,092427.000,A,3725.1905,N,12204.8286,W,8.89,179.89,190526,,,A*77
$GPRMC,092428.000,A,3725.1881,N,12204.8286,W,8.90,179.96,190526,,,A*73
$GPRMC,092429.000,A,3725.1857,N,12204.8285,W,8.90,180.04,190526,,,A*77
$GPRMC,092430.000,A,3725.1832,N,12204.8285,W,8.90,180.11,190526,,,A*78
$GPRMC,092431.000,A,3725.1808,N,12204.8285,W,8.90,180.19,190526,,,A*78
$GPRMC,092432.000,A,3725.1782,N,12204.8285,W,8.90,180.27,190526,,,A*7B
$GPRMC,092433.000,A,3725.1758,N,12204.8285,W,8.90,180.34,190526,,,A*7F
$GPRMC,092434.000,A,3725.1733,N,12204.8285,W,6.73,205.23,190526,,,A*7E
$GPRMC,092435.000,A,3725.1717,N,12204.8295,W,8.89,270.25,190526,,,A*77
$GPRMC,092436.000,A,3725.1717,N,12204.8325,W,8.88,270.56,190526,,,A*7B
$GPRMC,092437.000,A,3725.1717,N,12204.8355,W,8.87,270.73,190526,,,A*75
$GPRMC,092438.000,A,3725.1716,N,12204.8385,W,8.86,270.80,190526,,,A*7B
$GPRMC,092439.000,A,3725.1716,N,12204.8416,W,8.85,270.87,190526,,,A*73
$GPRMC,092440.000,A,3725.1716,N,12204.8446,W,6.28,321.08,190526,,,A*73
$GPRMC,092441.000,A,3725.1730,N,12204.8459,W,8.83,1.28,190526,,,A*74
$GPRMC,092442.000,A,3725.1753,N,12204.8459,W,8.82,0.85,190526,,,A*75
$GPRMC,092443.000,A,3725.1777,N,12204.8459,W,8.81,0.76,190526,,,A*7D
$GPRMC,092444.000,A,3725.1802,N,12204.8459,W,7.31,284.28,190526,,,A*76
$GPRMC,092445.000,A,3725.1807,N,12204.8483,W,8.78,270.85,190526,,,A*7B
$GPRMC,092446.000,A,3725.1806,N,12204.8513,W,8.77,270.89,190526,,,A*72
$GPRMC,092447.000,A,3725.1806,N,12204.8543,W,8.76,270.92,190526,,,A*7D
$GPRMC,092448.000,A,3725.1806,N,12204.8574,W,7.97,276.82,190526,,,A*71
$GPRMC,092449.000,A,3725.1808,N,12204.8602,W,8.73,1.15,190526,,,A*75
$GPRMC,092450.000,A,3725.1831,N,12204.8601,W,8.72,1.17,190526,,,A*77
$GPRMC,092451.000,A,3725.1856,N,12204.8601,W,8.70,1.18,190526,,,A*7A
$GPRMC,092452.000,A,3725.1880,N,12204.8601,W,8.69,1.18,190526,,,A*7A
$GPRMC,092453.000,A,3725.1905,N,12204.8601,W,8.68,1.18,190526,,,A*76
$GPRMC,092454.000,A,3725.1928,N,12204.8601,W,8.67,1.17,190526,,,A*7E
$GPRMC,092455.000,A,3725.1952,N,12204.8601,W,8.66,1.16,190526,,,A*72
$GPRMC,092456.000,A,3725.1977,N,12204.8601,W,8.65,1.14,190526,,,A*77
$GPRMC,092457.000,A,3725.2001,N,12204.8601,W,8.64,1.11,190526,,,A*79
$GPRMC,092458.000,A,3725.2025,N,12204.8601,W,8.63,1.08,190526,,,A*7F
$GPRMC,092459.000,A,3725.2049,N,12204.8601,W,8.62,1.05,190526,,,A*78
$GPRMC,092500.000,A,3725.2074,N,12204.8600,W,8.61,1.01,190526,,,A*7D
$GPRMC,092501.000,A,3725.2098,N,12204.8600,W,8.61,1.00,190526,,,A*7F
$GPRMC,092502.000,A,3725.2122,N,12204.8600,W,8.60,0.95,190526,,,A*70
$GPRMC,092503.000,A,3725.2147,N,12204.8600,W,8.60,0.89,190526,,,A*7F
$GPRMC,092504.000,A,3725.2170,N,12204.8600,W,8.60,0.83,190526,,,A*76
$GPRMC,092505.000,A,3725.2195,N,12204.8600,W,8.60,0.77,190526,,,A*77
$GPRMC,092506.000,A,3725.2219,N,12204.8600,W,7.56,278.84,190526,,,A*78
$GPRMC,092507.000,A,3725.2222,N,12204.8626,W,8.60,270.42,190526,,,A*7D
$GPRMC,092508.000,A,3725.2222,N,12204.8657,W,8.61,270.35,190526,,,A*75
$GPRMC,092509.000,A,3725.2222,N,12204.8689,W,8.61,270.27,190526,,,A*74
$GPRMC,092510.000,A,3725.2222,N,12204.8719,W,8.62,270.20,190526,,,A*70
$GPRMC,092511.000,A,3725.2222,N,12204.8750,W,8.62,270.12,190526,,,A*7D
$GPRMC,092512.000,A,3725.2222,N,12204.8780,W,8.63,270.05,190526,,,A*74
$GPRMC,092513.000,A,3725.2222,N,12204.8811,W,8.63,267.91,190526,,,A*79
$GPRMC,092514.000,A,3725.2221,N,12204.8842,W,8.12,250.97,190526,,,A*7F
$GPRMC,092515.000,A,3725.2214,N,12204.8869,W,8.46,209.87,190526,,,A*7D
$GPRMC,092516.000,A,3725.2193,N,12204.8884,W,8.58,187.15,190526,,,A*70
$GPRMC,092517.000,A,3725.2169,N,12204.8888,W,8.68,180.59,190526,,,A*74
$GPRMC,092518.000,A,3725.2145,N,12204.8890,W,8.70,180.49,190526,,,A*74
$GPRMC,092519.000,A,3725.2120,N,12204.8890,W,8.71,180.27,190526,,,A*7F
$GPRMC,092520.000,A,3725.2096,N,12204.8891,W,8.72,180.20,190526,,,A*7C
$GPRMC,092521.000,A,3725.2072,N,12204.8891,W,8.74,180.14,190526,,,A*76
$GPRMC,092522.000,A,3725.2047,N,12204.8892,W,8.75,180.08,190526,,,A*7C
$GPRMC,092523.000,A,3725.2023,N,12204.8893,W,8.76,180.02,190526,,,A*77
$GPRMC,092524.000,A,3725.1998,N,12204.8893,W,8.78,179.97,190526,,,A*7E
$GPRMC,092525.000,A,3725.1975,N,12204.8895,W,8.79,179.92,190526,,,A*7E
$GPRMC,092526.000,A,3725.1951,N,12204.8895,W,8.80,179.79,190526,,,A*78
$GPRMC,092527.000,A,3725.1926,N,12204.8895,W,8.82,179.71,190526,,,A*73
$GPRMC,092528.000,A,3725.1902,N,12204.8896,W,8.83,179.67,190526,,,A*7F
$GPRMC,092529.000,A,3725.1877,N,12204.8897,W,8.84,179.65,190526,,,A*79
$GPRMC,092530.000,A,3725.1853,N,12204.8897,W,8.85,179.63,190526,,,A*70
$GPRMC,092531.000,A,3725.1829,N,12204.8898,W,8.86,179.61,190526,,,A*72
$GPRMC,092532.000,A,3725.1805,N,12204.8898,W,8.87,179.56,190526,,,A*7A
$GPRMC,092533.000,A,3725.1781,N,12204.8899,W,8.88,179.55,190526,,,A*75
$GPRMC,092534.000,A,3725.1756,N,12204.8900,W,8.88,179.00,190526,,,A*79
$GPRMC,092535.000,A,3725.1733,N,12204.8900,W,7.12,196.00,190526,,,A*76
$GPRMC,092536.000,A,3725.1714,N,12204.8908,W,8.89,269.74,190526,,,A*75
$GPRMC,092537.000,A,3725.1714,N,12204.8938,W,8.90,269.76,190526,,,A*7D
$GPRMC,092538.000,A,3725.1715,N,12204.8969,W,8.90,269.78,190526,,,A*79
$GPRMC,092539.000,A,3725.1716,N,12204.8999,W,8.90,269.56,190526,,,A*78
$GPRMC,092540.000,A,3725.1716,N,12204.9030,W,8.90,268.82,190526,,,A*75
$GPRMC,092541.000,A,3725.1716,N,12204.9061,W,8.90,268.86,190526,,,A*74
$GPRMC,092542.000,A,3725.1716,N,12204.9092,W,8.90,268.91,190526,,,A*7D
$GPRMC,092543.000,A,3725.1717,N,12204.9123,W,8.89,268.96,190526,,,A*79
$GPRMC,092544.000,A,3725.1717,N,12204.9153,W,8.89,269.02,190526,,,A*75
$GPRMC,092545.000,A,3725.1716,N,12204.9184,W,8.88,269.07,190526,,,A*7B
$GPRMC,092546.000,A,3725.1716,N,12204.9215,W,8.87,269.14,190526,,,A*7E
$GPRMC,092547.000,A,3725.1717,N,12204.9246,W,8.86,269.20,190526,,,A*7E
$GPRMC,092548.000,A,3725.1717,N,12204.9276,W,8.86,269.52,190526,,,A*77
$GPRMC,092549.000,A,3725.1717,N,12204.9307,W,8.85,270.28,190526,,,A*77
$GPRMC,092550.000,A,3725.1717,N,12204.9337,W,8.83,270.36,190526,,,A*75
$GPRMC,092551.000,A,3725.1718,N,12204.9368,W,8.82,270.43,190526,,,A*72
$GPRMC,092552.000,A,3725.1719,N,12204.9398,W,8.81,270.51,190526,,,A*7F
$GPRMC,092553.000,A,3725.1719,N,12204.9429,W,8.80,270.59,190526,,,A*7A
$GPRMC,092554.000,A,3725.1719,N,12204.9459,W,8.79,270.66,190526,,,A*70
$GPRMC,092555.000,A,3725.1720,N,12204.9490,W,8.77,270.51,190526,,,A*74
$GPRMC,092556.000,A,3725.1720,N,12204.9521,W,8.76,270.19,190526,,,A*71
$GPRMC,092557.000,A,3725.1721,N,12204.9551,W,7.51,280.42,190526,,,A*7D
$GPRMC,092558.000,A,3725.1724,N,12204.9577,W,8.73,1.35,190526,,,A*77
$GPRMC,092559.000,A,3725.1749,N,12204.9576,W,8.72,1.42,190526,,,A*7D
$GPRMC,092600.000,A,3725.1773,N,12204.9576,W,8.70,0.83,190526,,,A*75
$GPRMC,092601.000,A,3725.1798,N,12204.9576,W,8.69,0.86,190526,,,A*7C
$GPRMC,092602.000,A,3725.1822,N,12204.9575,W,8.68,0.92,190526,,,A*76
$GPRMC,092603.000,A,3725.1847,N,12204.9575,W,8.67,0.98,190526,,,A*71
$GPRMC,092604.000,A,3725.1871,N,12204.9575,W,8.66,1.04,190526,,,A*76
$GPRMC,092605.000,A,3725.1895,N,12204.9575,W,8.65,1.09,190526,,,A*73
$GPRMC,092606.000,A,3725.1920,N,12204.9575,W,8.64,1.13,190526,,,A*75
$GPRMC,092607.000,A,3725.1944,N,12204.9575,W,8.63,1.24,190526,,,A*75
$GPRMC,092608.000,A,3725.1969,N,12204.9573,W,8.62,1.31,190526,,,A*76
$GPRMC,092609.000,A,3725.1993,N,12204.9573,W,8.61,1.34,190526,,,A*74
$GPRMC,092610.000,A,3725.2018,N,12204.9573,W,8.61,1.37,190526,,,A*76
$GPRMC,092611.000,A,3725.2042,N,12204.9573,W,8.61,1.39,190526,,,A*76
$GPRMC,092612.000,A,3725.2066,N,12204.9573,W,8.60,1.40,190526,,,A*7C
$GPRMC,092613.000,A,3725.2091,N,12204.9572,W,8.60,1.41,190526,,,A*75
$GPRMC,092614.000,A,3725.2115,N,12204.9571,W,8.60,1.41,190526,,,A*7C
$GPRMC,092615.000,A,3725.2140,N,12204.9571,W,8.60,1.40,190526,,,A*7C
$GPRMC,092616.000,A,3725.2164,N,12204.9571,W,8.60,1.38,190526,,,A*76
$GPRMC,092617.000,A,3725.2189,N,12204.9570,W,8.61,1.36,190526,,,A*7A
$GPRMC,092618.000,A,3725.2213,N,12204.9569,W,8.61,1.34,190526,,,A*7F
$GPRMC,092619.000,A,3725.2236,N,12204.9569,W,8.62,1.31,190526,,,A*7F
$GPRMC,092620.000,A,3725.2261,N,12204.9569,W,8.62,1.28,190526,,,A*7F
$GPRMC,092621.000,A,3725.2285,N,12204.9569,W,8.63,1.24,190526,,,A*79
$GPRMC,092622.000,A,3725.2310,N,12204.9567,W,8.64,1.20,190526,,,A*7A
$GPRMC,092623.000,A,3725.2334,N,12204.9567,W,6.70,1.15,190526,,,A*70
$GPRMC,092624.000,A,3725.2352,N,12204.9567,W,8.66,181.11,190526,,,A*73
$GPRMC,092625.000,A,3725.2328,N,12204.9566,W,8.67,181.06,190526,,,A*79
$GPRMC,092626.000,A,3725.2303,N,12204.9566,W,8.68,181.00,190526,,,A*7A
$GPRMC,092627.000,A,3725.2279,N,12204.9567,W,8.69,180.93,190526,,,A*7C
$GPRMC,092628.000,A,3725.2254,N,12204.9567,W,8.71,180.87,190526,,,A*70
$GPRMC,092629.000,A,3725.2229,N,12204.9566,W,8.72,180.80,190526,,,A*7E
$GPRMC,092630.000,A,3725.2205,N,12204.9566,W,8.73,180.72,190526,,,A*74
$GPRMC,092631.000,A,3725.2180,N,12204.9567,W,8.75,180.65,190526,,,A*7A
$GPRMC,092632.000,A,3725.2156,N,12204.9566,W,8.76,180.58,190526,,,A*7E
$GPRMC,092633.000,A,3725.2130,N,12204.9566,W,8.78,180.50,190526,,,A*79
$GPRMC,092634.000,A,3725.2106,N,12204.9566,W,8.79,180.42,190526,,,A*79
$GPRMC,092635.000,A,3725.2081,N,12204.9566,W,8.80,180.35,190526,,,A*70
$GPRMC,092636.000,A,3725.2057,N,12204.9566,W,8.81,180.27,190526,,,A*7A
$GPRMC,092637.000,A,3725.2032,N,12204.9566,W,8.83,180.19,190526,,,A*77
$GPRMC,092638.000,A,3725.2007,N,12204.9566,W,8.84,180.12,190526,,,A*72
$GPRMC,092639.000,A,3725.1983,N,12204.9566,W,8.85,180.05,190526,,,A*72
$GPRMC,092640.000,A,3725.1958,N,12204.9565,W,8.86,179.92,190526,,,A*72
$GPRMC,092641.000,A,3725.1933,N,12204.9566,W,8.87,179.82,190526,,,A*7D
$GPRMC,092642.000,A,3725.1908,N,12204.9566,W,8.88,179.75,190526,,,A*71
$GPRMC,092643.000,A,3725.1884,N,12204.9566,W,8.88,179.69,190526,,,A*78
$GPRMC,092644.000,A,3725.1860,N,12204.9566,W,8.89,179.63,190526,,,A*7E
$GPRMC,092645.000,A,3725.1834,N,12204.9566,W,8.89,179.58,190526,,,A*76
$GPRMC,092646.000,A,3725.1810,N,12204.9566,W,8.90,179.53,190526,,,A*70
$GPRMC,092647.000,A,3725.1785,N,12204.9566,W,8.90,179.68,190526,,,A*7A
$GPRMC,092648.000,A,3725.1761,N,12204.9566,W,8.90,180.14,190526,,,A*72
$GPRMC,092649.000,A,3725.1736,N,12204.9566,W,8.30,184.52,190526,,,A*7D
$GPRMC,092650.000,A,3725.1714,N,12204.9569,W,8.90,269.40,190526,,,A*73
$GPRMC,092651.000,A,3725.1713,N,12204.9600,W,8.90,269.38,190526,,,A*76
$GPRMC,092652.000,A,3725.1713,N,12204.9630,W,8.89,269.36,190526,,,A*70
$GPRMC,092653.000,A,3725.1713,N,12204.9661,W,8.89,269.35,190526,,,A*76
$GPRMC,092654.000,A,3725.1713,N,12204.9691,W,8.88,269.04,190526,,,A*7D
$GPRMC,092655.000,A,3725.1713,N,12204.9722,W,6.56,296.24,190526,,,A*7A
$GPRMC,092656.000,A,3725.1722,N,12204.9742,W,8.87,359.93,190526,,,A*71
$GPRMC,092657.000,A,3725.1746,N,12204.9741,W,8.86,359.57,190526,,,A*78
$GPRMC,092658.000,A,3725.1770,N,12204.9741,W,8.85,359.58,190526,,,A*7E
$GPRMC,092659.000,A,3725.1795,N,12204.9741,W,8.84,359.60,190526,,,A*7E
$GPRMC,092700.000,A,3725.1819,N,12204.9741,W,8.82,359.63,190526,,,A*7D
$GPRMC,092701.000,A,3725.1844,N,12204.9740,W,8.81,359.66,190526,,,A*73
$GPRMC,092702.000,A,3725.1868,N,12204.9740,W,8.80,359.70,190526,,,A*78
$GPRMC,092703.000,A,3725.1893,N,12204.9740,W,8.79,359.75,190526,,,A*7E
$GPRMC,092704.000,A,3725.1917,N,12204.9739,W,8.77,359.79,190526,,,A*78
$GPRMC,092705.000,A,3725.1941,N,12204.9739,W,8.76,359.85,190526,,,A*78
$GPRMC,092706.000,A,3725.1966,N,12204.9739,W,8.75,359.90,190526,,,A*79
$GPRMC,092707.000,A,3725.1990,N,12204.9738,W,8.73,359.96,190526,,,A*70
$GPRMC,092708.000,A,3725.2015,N,12204.9739,W,8.72,0.03,190526,,,A*7B
$GPRMC,092709.000,A,3725.2039,N,12204.9739,W,8.71,0.10,190526,,,A*75
$GPRMC,092710.000,A,3725.2064,N,12204.9739,W,8.69,0.17,190526,,,A*7B
$GPRMC,092711.000,A,3725.2088,N,12204.9738,W,8.68,0.24,190526,,,A*78
$GPRMC,092712.000,A,3725.2113,N,12204.9738,W,8.67,0.34,190526,,,A*76
$GPRMC,092713.000,A,3725.2138,N,12204.9739,W,8.66,0.45,190526,,,A*78
$GPRMC,092714.000,A,3725.2162,N,12204.9738,W,8.65,359.88,190526,,,A*7C
$GPRMC,092715.000,A,3725.2187,N,12204.9738,W,8.64,359.46,190526,,,A*75
$GPRMC,092716.000,A,3725.2211,N,12204.9739,W,8.63,359.54,190526,,,A*7F
$GPRMC,092717.000,A,3725.2235,N,12204.9739,W,8.62,359.61,190526,,,A*7F
$GPRMC,092718.000,A,3725.2261,N,12204.9740,W,8.62,359.32,190526,,,A*79
$GPRMC,092719.000,A,3725.2285,N,12204.9741,W,8.61,358.57,190526,,,A*72
$GPRMC,092720.000,A,3725.2310,N,12204.9742,W,8.61,358.65,190526,,,A*77
$GPRMC,092721.000,A,3725.2334,N,12204.9744,W,8.60,358.72,190526,,,A*71
$GPRMC,092722.000,A,3725.2360,N,12204.9744,W,8.60,358.78,190526,,,A*79
$GPRMC,092723.000,A,3725.2384,N,12204.9745,W,8.60,0.99,190526,,,A*72
$GPRMC,092724.000,A,3725.2408,N,12204.9745,W,8.60,0.93,190526,,,A*7C
$GPRMC,092725.000,A,3725.2433,N,12204.9746,W,8.60,0.69,190526,,,A*73
$GPRMC,092726.000,A,3725.2458,N,12204.9746,W,8.61,0.80,190526,,,A*7B
$GPRMC,092727.000,A,3725.2483,N,12204.9746,W,8.61,1.79,190526,,,A*7B
$GPRMC,092728.000,A,3725.2507,N,12204.9746,W,8.62,1.84,190526,,,A*78
$GPRMC,092729.000,A,3725.2532,N,12204.9746,W,7.34,287.28,190526,,,A*79
$GPRMC,092730.000,A,3725.2538,N,12204.9771,W,8.63,275.46,190526,,,A*77
$GPRMC,092731.000,A,3725.2540,N,12204.9801,W,8.64,275.49,190526,,,A*79
$GPRMC,092732.000,A,3725.2542,N,12204.9833,W,8.65,275.56,190526,,,A*76
$GPRMC,092733.000,A,3725.2544,N,12204.9863,W,8.66,275.74,190526,,,A*77
$GPRMC,092734.000,A,3725.2547,N,12204.9894,W,8.67,274.39,190526,,,A*72
$GPRMC,092735.000,A,3725.2549,N,12204.9924,W,8.68,274.40,190526,,,A*76
$GPRMC,092736.000,A,3725.2550,N,12204.9956,W,8.69,274.40,190526,,,A*79
$GPRMC,092737.000,A,3725.2552,N,12204.9986,W,8.71,274.15,190526,,,A*7E
$GPRMC,092738.000,A,3725.2553,N,12205.0017,W,8.72,272.02,190526,,,A*7A
$GPRMC,092739.000,A,3725.2554,N,12205.0047,W,8.73,272.01,190526,,,A*7B
$GPRMC,092740.000,A,3725.2555,N,12205.0079,W,8.75,271.98,190526,,,A*7C
$GPRMC,092741.000,A,3725.2555,N,12205.0109,W,8.76,271.95,190526,,,A*75
$GPRMC,092742.000,A,3725.2556,N,12205.0140,W,8.77,271.92,190526,,,A*7E
$GPRMC,092743.000,A,3725.2556,N,12205.0170,W,8.78,273.70,190526,,,A*7D
$GPRMC,092744.000,A,3725.2558,N,12205.0201,W,8.80,274.78,190526,,,A*79
$GPRMC,092745.000,A,3725.2560,N,12205.0232,W,8.81,275.14,190526,,,A*79
$GPRMC,092746.000,A,3725.2562,N,12205.0263,W,8.82,274.73,190526,,,A*7F
$GPRMC,092747.000,A,3725.2564,N,12205.0293,W,8.84,274.41,190526,,,A*70
$GPRMC,092748.000,A,3725.2565,N,12205.0324,W,8.85,274.35,190526,,,A*71
$GPRMC,092749.000,A,3725.2567,N,12205.0354,W,8.86,274.28,190526,,,A*7A
$GPRMC,092750.000,A,3725.2568,N,12205.0385,W,8.87,274.21,190526,,,A*79
$GPRMC,092751.000,A,3725.2570,N,12205.0415,W,8.87,274.14,190526,,,A*79
$GPRMC,092752.000,A,3725.2571,N,12205.0446,W,8.88,274.07,190526,,,A*70
$GPRMC,092753.000,A,3725.2573,N,12205.0476,W,8.89,274.00,190526,,,A*76
$GPRMC,092754.000,A,3725.2575,N,12205.0507,W,8.89,273.92,190526,,,A*7C
$GPRMC,092755.000,A,3725.2576,N,12205.0537,W,8.90,273.84,190526,,,A*72
$GPRMC,092756.000,A,3725.2578,N,12205.0567,W,8.90,273.77,190526,,,A*76
$GPRMC,092757.000,A,3725.2579,N,12205.0598,W,8.90,273.69,190526,,,A*79
$GPRMC,092758.000,A,3725.2581,N,12205.0628,W,8.90,273.61,190526,,,A*71
$GPRMC,092759.000,A,3725.2583,N,12205.0659,W,8.90,273.54,190526,,,A*72
$GPRMC,092800.000,A,3725.2584,N,12205.0689,W,8.90,273.47,190526,,,A*79
$GPRMC,092801.000,A,3725.2586,N,12205.0720,W,8.89,273.39,190526,,,A*79
$GPRMC,092802.000,A,3725.2587,N,12205.0750,W,8.89,273.32,190526,,,A*77
$GPRMC,092803.000,A,3725.2589,N,12205.0781,W,8.88,273.26,190526,,,A*70
$GPRMC,092804.000,A,3725.2591,N,12205.0811,W,8.87,273.44,190526,,,A*73
$GPRMC,092805.000,A,3725.2592,N,12205.0842,W,8.87,273.41,190526,,,A*72
$GPRMC,092806.000,A,3725.2593,N,12205.0872,W,8.86,273.35,190526,,,A*71
$GPRMC,092807.000,A,3725.2595,N,12205.0903,W,8.85,273.30,190526,,,A*77
$GPRMC,092808.000,A,3725.2596,N,12205.0932,W,8.84,273.25,190526,,,A*7C
$GPRMC,092809.000,A,3725.2598,N,12205.0963,W,8.83,275.22,190526,,,A*71
$GPRMC,092810.000,A,3725.2601,N,12205.0993,W,8.81,275.18,190526,,,A*7E
$GPRMC,092811.000,A,3725.2602,N,12205.1023,W,8.80,275.14,190526,,,A*72
$GPRMC,092812.000,A,3725.2605,N,12205.1054,W,8.79,275.12,190526,,,A*76
$GPRMC,092813.000,A,3725.2607,N,12205.1083,W,8.77,275.09,190526,,,A*7B
$GPRMC,092814.000,A,3725.2610,N,12205.1113,W,8.76,274.06,190526,,,A*7D
$GPRMC,092815.000,A,3725.2612,N,12205.1144,W,8.75,274.88,190526,,,A*79
$GPRMC,092816.000,A,3725.2614,N,12205.1174,W,6.67,253.47,190526,,,A*74
$GPRMC,092817.000,A,3725.2609,N,12205.1196,W,8.72,182.72,190526,,,A*76
$GPRMC,092818.000,A,3725.2584,N,12205.1198,W,8.71,182.73,190526,,,A*73
$GPRMC,092819.000,A,3725.2560,N,12205.1200,W,6.28,131.19,190526,,,A*7C
$GPRMC,092820.000,A,3725.2547,N,12205.1183,W,8.68,94.63,190526,,,A*42
$GPRMC,092821.000,A,3725.2545,N,12205.1152,W,8.67,94.64,190526,,,A*45
$GPRMC,092822.000,A,3725.2542,N,12205.1121,W,8.66,94.66,190526,,,A*46
$GPRMC,092823.000,A,3725.2540,N,12205.1091,W,8.65,94.70,190526,,,A*4B
$GPRMC,092824.000,A,3725.2537,N,12205.1061,W,8.64,94.74,190526,,,A*46
$GPRMC,092825.000,A,3725.2534,N,12205.1029,W,8.63,94.78,190526,,,A*43
$GPRMC,092826.000,A,3725.2532,N,12205.0999,W,8.62,94.83,190526,,,A*40
$GPRMC,092827.000,A,3725.2530,N,12205.0969,W,8.62,93.40,190526,,,A*44
$GPRMC,092828.000,A,3725.2527,N,12205.0937,W,8.61,92.74,190526,,,A*43
$GPRMC,092829.000,A,3725.2525,N,12205.0907,W,8.61,92.80,190526,,,A*48
$GPRMC,092830.000,A,3725.2524,N,12205.0876,W,8.60,92.87,190526,,,A*40
$GPRMC,092831.000,A,3725.2523,N,12205.0846,W,8.60,92.94,190526,,,A*47
$GPRMC,092832.000,A,3725.2520,N,12205.0814,W,8.60,93.01,190526,,,A*4D
$GPRMC,092833.000,A,3725.2519,N,12205.0784,W,8.60,93.08,190526,,,A*49
$GPRMC,092834.000,A,3725.2517,N,12205.0753,W,8.60,93.16,190526,,,A*45
$GPRMC,092835.000,A,3725.2516,N,12205.0722,W,8.61,93.23,190526,,,A*44
$GPRMC,092836.000,A,3725.2514,N,12205.0691,W,8.61,93.31,190526,,,A*4F
$GPRMC,092837.000,A,3725.2513,N,12205.0661,W,8.61,93.38,190526,,,A*4F
$GPRMC,092838.000,A,3725.2511,N,12205.0630,W,8.62,93.46,190526,,,A*4C
$GPRMC,092839.000,A,3725.2509,N,12205.0600,W,8.63,93.54,190526,,,A*45
$GPRMC,092840.000,A,3725.2508,N,12205.0568,W,8.64,93.61,190526,,,A*46
$GPRMC,092841.000,A,3725.2506,N,12205.0538,W,8.65,93.69,190526,,,A*45
$GPRMC,092842.000,A,3725.2505,N,12205.0507,W,8.66,93.76,190526,,,A*44
$GPRMC,092843.000,A,3725.2503,N,12205.0477,W,8.67,93.83,190526,,,A*4E
$GPRMC,092844.000,A,3725.2502,N,12205.0446,W,8.68,93.90,190526,,,A*47
$GPRMC,092845.000,A,3725.2501,N,12205.0415,W,8.69,93.96,190526,,,A*44
$GPRMC,092846.000,A,3725.2499,N,12205.0384,W,8.70,94.02,190526,,,A*4A
$GPRMC,092847.000,A,3725.2498,N,12205.0354,W,8.72,94.08,190526,,,A*4F
$GPRMC,092848.000,A,3725.2496,N,12205.0323,W,8.73,94.13,190526,,,A*45
$GPRMC,092849.000,A,3725.2495,N,12205.0293,W,8.74,94.18,190526,,,A*41
$GPRMC,092850.000,A,3725.2493,N,12205.0262,W,8.76,94.22,190526,,,A*4A
$GPRMC,092851.000,A,3725.2492,N,12205.0232,W,8.77,93.28,190526,,,A*43
$GPRMC,092852.000,A,3725.2491,N,12205.0201,W,8.79,92.86,190526,,,A*48
$GPRMC,092853.000,A,3725.2490,N,12205.0171,W,8.80,92.89,190526,,,A*45
$GPRMC,092854.000,A,3725.2489,N,12205.0140,W,8.81,92.91,190526,,,A*40
$GPRMC,092855.000,A,3725.2489,N,12205.0110,W,8.82,92.93,190526,,,A*45
$GPRMC,092856.000,A,3725.2488,N,12205.0079,W,8.83,92.94,190526,,,A*4F
$GPRMC,092857.000,A,3725.2487,N,12205.0049,W,8.85,92.94,190526,,,A*44
$GPRMC,092858.000,A,3725.2486,N,12205.0018,W,8.86,92.94,190526,,,A*4D
$GPRMC,092859.000,A,3725.2486,N,12204.9988,W,8.87,92.93,190526,,,A*42
$GPRMC,092900.000,A,3725.2485,N,12204.9957,W,8.87,92.92,190526,,,A*4F
$GPRMC,092901.000,A,3725.2485,N,12204.9927,W,8.87,94.22,190526,,,A*44
$GPRMC,092902.000,A,3725.2483,N,12204.9896,W,8.88,93.98,190526,,,A*43
$GPRMC,092903.000,A,3725.2482,N,12204.9866,W,8.89,93.00,190526,,,A*4C
$GPRMC,092904.000,A,3725.2481,N,12204.9835,W,8.90,93.08,190526,,,A*4E
$GPRMC,092905.000,A,3725.2481,N,12204.9805,W,8.90,93.04,190526,,,A*40
$GPRMC,092906.000,A,3725.2480,N,12204.9774,W,8.90,92.99,190526,,,A*4E
$GPRMC,092907.000,A,3725.2479,N,12204.9745,W,8.18,6.98,190526,,,A*77
$GPRMC,092908.000,A,3725.2502,N,12204.9742,W,8.90,1.68,190526,,,A*7A
$GPRMC,092909.000,A,3725.2527,N,12204.9741,W,8.90,3.15,190526,,,A*77
$GPRMC,092910.000,A,3725.2551,N,12204.9740,W,8.89,3.81,190526,,,A*7A
$GPRMC,092911.000,A,3725.2576,N,12204.9738,W,8.89,3.98,190526,,,A*79
$GPRMC,092912.000,A,3725.2600,N,12204.9736,W,8.88,4.06,190526,,,A*77
$GPRMC,092913.000,A,3725.2626,N,12204.9735,W,8.88,3.50,190526,,,A*75
$GPRMC,092914.000,A,3725.2650,N,12204.9733,W,8.87,3.43,190526,,,A*78
$GPRMC,092915.000,A,3725.2674,N,12204.9732,W,8.85,5.49,190526,,,A*70
$GPRMC,092916.000,A,3725.2699,N,12204.9729,W,8.85,6.83,190526,,,A*7F
$GPRMC,092917.000,A,3725.2724,N,12204.9726,W,8.84,6.75,190526,,,A*7E
$GPRMC,092918.000,A,3725.2748,N,12204.9723,W,8.83,6.67,190526,,,A*7A
$GPRMC,092919.000,A,3725.2772,N,12204.9719,W,8.80,9.69,190526,,,A*79
$GPRMC,092920.000,A,3725.2796,N,12204.9714,W,8.78,14.66,190526,,,A*40
$GPRMC,092921.000,A,3725.2821,N,12204.9707,W,8.79,28.98,190526,,,A*4F
$GPRMC,092922.000,A,3725.2842,N,12204.9692,W,8.73,40.71,190526,,,A*47
$GPRMC,092923.000,A,3725.2860,N,12204.9672,W,8.75,41.84,190526,,,A*45
$GPRMC,092924.000,A,3725.2879,N,12204.9652,W,8.75,40.15,190526,,,A*41
$GPRMC,092925.000,A,3725.2898,N,12204.9632,W,8.68,24.33,190526,,,A*43
$GPRMC,092926.000,A,3725.2920,N,12204.9620,W,8.70,19.52,190526,,,A*41
$GPRMC,092927.000,A,3725.2943,N,12204.9609,W,8.71,14.71,190526,,,A*43
$GPRMC,092928.000,A,3725.2966,N,12204.9602,W,8.68,14.97,190526,,,A*40
$GPRMC,092929.000,A,3725.2990,N,12204.9594,W,8.68,5.99,190526,,,A*7A
$GPRMC,092930.000,A,3725.3014,N,12204.9590,W,8.66,3.48,190526,,,A*76
$GPRMC,092931.000,A,3725.3039,N,12204.9589,W,8.66,0.54,190526,,,A*7E
$GPRMC,092932.000,A,3725.3064,N,12204.9588,W,8.62,348.54,190526,,,A*7F
$GPRMC,092933.000,A,3725.3088,N,12204.9594,W,8.60,341.20,190526,,,A*79
$GPRMC,092934.000,A,3725.3111,N,12204.9603,W,8.61,334.38,190526,,,A*78
$GPRMC,092935.000,A,3725.3133,N,12204.9617,W,8.62,327.11,190526,,,A*76
$GPRMC,092936.000,A,3725.3154,N,12204.9633,W,8.62,327.09,190526,,,A*7B
$GPRMC,092937.000,A,3725.3174,N,12204.9649,W,8.61,327.08,190526,,,A*77
$GPRMC,092938.000,A,3725.3195,N,12204.9665,W,8.61,326.72,190526,,,A*75
$GPRMC,092939.000,A,3725.3216,N,12204.9683,W,8.60,327.82,190526,,,A*7B
$GPRMC,092940.000,A,3725.3237,N,12204.9699,W,8.51,334.27,190526,,,A*72
$GPRMC,092941.000,A,3725.3259,N,12204.9711,W,8.60,344.95,190526,,,A*76
$GPRMC,092942.000,A,3725.3282,N,12204.9719,W,8.57,349.31,190526,,,A*7C
$GPRMC,092943.000,A,3725.3306,N,12204.9724,W,8.60,354.60,190526,,,A*72
$GPRMC,092944.000,A,3725.3331,N,12204.9726,W,8.60,354.09,190526,,,A*7C
$GPRMC,092945.000,A,3725.3355,N,12204.9730,W,8.61,354.61,190526,,,A*77
$GPRMC,092946.000,A,3725.3379,N,12204.9733,W,8.61,354.38,190526,,,A*75
$GPRMC,092947.000,A,3725.3404,N,12204.9735,W,8.62,354.43,190526,,,A*70
$GPRMC,092948.000,A,3725.3428,N,12204.9738,W,8.63,354.48,190526,,,A*76
$GPRMC,092949.000,A,3725.3452,N,12204.9740,W,8.64,354.53,190526,,,A*78
$GPRMC,092950.000,A,3725.3477,N,12204.9743,W,8.46,344.57,190526,,,A*71
$GPRMC,092951.000,A,3725.3500,N,12204.9751,W,8.66,330.43,190526,,,A*76
$GPRMC,092952.000,A,3725.3520,N,12204.9765,W,8.61,322.01,190526,,,A*72
$GPRMC,092953.000,A,3725.3539,N,12204.9784,W,8.68,316.53,190526,,,A*7D
$GPRMC,092954.000,A,3725.3557,N,12204.9805,W,8.69,298.91,190526,,,A*7C
$GPRMC,092955.000,A,3725.3569,N,12204.9832,W,8.70,298.96,190526,,,A*7B
$GPRMC,092956.000,A,3725.3581,N,12204.9858,W,8.72,299.04,190526,,,A*7A
$GPRMC,092957.000,A,3725.3593,N,12204.9885,W,8.73,299.37,190526,,,A*79
$GPRMC,092958.000,A,3725.3604,N,12204.9912,W,6.58,251.41,190526,,,A*76
$GPRMC,092959.000,A,3725.3598,N,12204.9934,W,8.76,216.05,190526,,,A*74
$GPRMC,093000.000,A,3725.3578,N,12204.9952,W,8.77,215.91,190526,,,A*71
$GPRMC,093001.000,A,3725.3558,N,12204.9969,W,8.50,238.56,190526,,,A*7B
$GPRMC,093002.000,A,3725.3545,N,12204.9995,W,8.51,272.52,190526,,,A*7C
$GPRMC,093003.000,A,3725.3546,N,12205.0024,W,8.80,285.97,190526,,,A*78
$GPRMC,093004.000,A,3725.3552,N,12205.0054,W,8.80,293.25,190526,,,A*73
$GPRMC,093005.000,A,3725.3562,N,12205.0082,W,8.83,296.37,190526,,,A*7F
$GPRMC,093006.000,A,3725.3571,N,12205.0109,W,8.84,296.44,190526,,,A*7F
$GPRMC,093007.000,A,3725.3582,N,12205.0136,W,8.85,296.51,190526,,,A*7B
$GPRMC,093008.000,A,3725.3593,N,12205.0163,W,8.86,296.99,190526,,,A*73
$GPRMC,093009.000,A,3725.3603,N,12205.0191,W,8.85,295.62,190526,,,A*71
$GPRMC,093010.000,A,3725.3613,N,12205.0218,W,8.88,289.07,190526,,,A*79
$GPRMC,093011.000,A,3725.3620,N,12205.0247,W,8.89,289.12,190526,,,A*77
$GPRMC,093012.000,A,3725.3628,N,12205.0275,W,0.33,289.16,190526,,,A*70
