$GPRMC,091500.000,A,3725.3631,N,12205.0280,W,8.75,108.30,190526,,,A*72
$GPRMC,091501.000,A,3725.3623,N,12205.0251,W,8.75,108.30,190526,,,A*7C
$GPRMC,091502.000,A,3725.3616,N,12205.0222,W,8.73,112.79,190526,,,A*7D
$GPRMC,091503.000,A,3725.3606,N,12205.0194,W,8.75,116.32,190526,,,A*7E
$GPRMC,091504.000,A,3725.3595,N,12205.0166,W,8.75,116.01,190526,,,A*7D
$GPRMC,091505.000,A,3725.3585,N,12205.0139,W,8.75,115.89,190526,,,A*74
$GPRMC,091506.000,A,3725.3574,N,12205.0111,W,8.75,115.89,190526,,,A*73
$GPRMC,091507.000,A,3725.3564,N,12205.0084,W,8.74,115.05,190526,,,A*7B
$GPRMC,091508.000,A,3725.3553,N,12205.0056,W,8.75,107.28,190526,,,A*72
$GPRMC,091509.000,A,3725.3546,N,12205.0027,W,8.73,100.87,190526,,,A*75
$GPRMC,091510.000,A,3725.3541,N,12204.9997,W,8.70,66.65,190526,,,A*4E
$GPRMC,091511.000,A,3725.3551,N,12204.9969,W,8.75,35.79,190526,,,A*41
$GPRMC,091512.000,A,3725.3571,N,12204.9951,W,8.75,35.83,190526,,,A*4E
$GPRMC,091513.000,A,3725.3591,N,12204.9933,W,7.57,47.87,190526,,,A*4B
$GPRMC,091514.000,A,3725.3605,N,12204.9914,W,8.75,119.66,190526,,,A*7D
$GPRMC,091515.000,A,3725.3593,N,12204.9887,W,8.75,119.23,190526,,,A*7A
$GPRMC,091516.000,A,3725.3581,N,12204.9860,W,8.75,119.23,190526,,,A*73
$GPRMC,091517.000,A,3725.3569,N,12204.9834,W,8.75,119.23,190526,,,A*75
$GPRMC,091518.000,A,3725.3557,N,12204.9807,W,8.67,132.32,190526,,,A*7D
$GPRMC,091519.000,A,3725.3541,N,12204.9785,W,8.73,138.84,190526,,,A*7C
$GPRMC,091520.000,A,3725.3523,N,12204.9764,W,8.75,150.98,190526,,,A*78
$GPRMC,091521.000,A,3725.3501,N,12204.9749,W,8.58,158.74,190526,,,A*73
$GPRMC,091522.000,A,3725.3479,N,12204.9739,W,8.75,175.20,190526,,,A*78
$GPRMC,091523.000,A,3725.3455,N,12204.9736,W,8.75,175.20,190526,,,A*78
$GPRMC,091524.000,A,3725.3430,N,12204.9733,W,8.75,175.20,190526,,,A*79
$GPRMC,091525.000,A,3725.3406,N,12204.9731,W,8.75,175.20,190526,,,A*7F
$GPRMC,091526.000,A,3725.3382,N,12204.9728,W,8.75,175.93,190526,,,A*77
$GPRMC,091527.000,A,3725.3357,N,12204.9726,W,8.75,174.56,190526,,,A*78
$GPRMC,091528.000,A,3725.3333,N,12204.9723,W,8.75,175.41,190526,,,A*77
$GPRMC,091529.000,A,3725.3309,N,12204.9721,W,8.72,172.79,190526,,,A*76
$GPRMC,091530.000,A,3725.3284,N,12204.9717,W,8.75,165.92,190526,,,A*7B
$GPRMC,091531.000,A,3725.3261,N,12204.9709,W,8.66,159.78,190526,,,A*77
$GPRMC,091532.000,A,3725.3238,N,12204.9699,W,8.75,148.82,190526,,,A*77
$GPRMC,091533.000,A,3725.3217,N,12204.9683,W,8.75,147.97,190526,,,A*7B
$GPRMC,091534.000,A,3725.3197,N,12204.9667,W,8.75,148.02,190526,,,A*7E
$GPRMC,091535.000,A,3725.3176,N,12204.9650,W,8.75,148.08,190526,,,A*7E
$GPRMC,091536.000,A,3725.3155,N,12204.9634,W,8.75,148.08,190526,,,A*7E
$GPRMC,091537.000,A,3725.3134,N,12204.9618,W,8.72,153.04,190526,,,A*77
$GPRMC,091538.000,A,3725.3113,N,12204.9604,W,8.72,159.28,190526,,,A*74
$GPRMC,091539.000,A,3725.3090,N,12204.9593,W,8.75,167.56,190526,,,A*71
$GPRMC,091540.000,A,3725.3066,N,12204.9587,W,8.72,179.66,190526,,,A*78
$GPRMC,091541.000,A,3725.3042,N,12204.9586,W,8.74,182.88,190526,,,A*7C
$GPRMC,091542.000,A,3725.3018,N,12204.9588,W,8.75,186.76,190526,,,A*7A
$GPRMC,091543.000,A,3725.2993,N,12204.9592,W,8.71,193.03,190526,,,A*79
$GPRMC,091544.000,A,3725.2970,N,12204.9599,W,8.75,195.76,190526,,,A*78
$GPRMC,091545.000,A,3725.2946,N,12204.9607,W,8.73,198.29,190526,,,A*79
$GPRMC,091546.000,A,3725.2923,N,12204.9617,W,8.75,202.33,190526,,,A*75
$GPRMC,091547.000,A,3725.2900,N,12204.9628,W,8.70,218.41,190526,,,A*72
$GPRMC,091548.000,A,3725.2881,N,12204.9647,W,8.74,221.42,190526,,,A*71
$GPRMC,091549.000,A,3725.2863,N,12204.9667,W,8.75,223.74,190526,,,A*78
$GPRMC,091550.000,A,3725.2846,N,12204.9689,W,8.73,210.31,190526,,,A*70
$GPRMC,091551.000,A,3725.2825,N,12204.9704,W,8.68,198.82,190526,,,A*71
$GPRMC,091552.000,A,3725.2802,N,12204.9714,W,8.73,191.72,190526,,,A*7A
$GPRMC,091553.000,A,3725.2778,N,12204.9720,W,8.75,186.70,190526,,,A*7C
$GPRMC,091554.000,A,3725.2753,N,12204.9724,W,8.75,186.70,190526,,,A*76
$GPRMC,091555.000,A,3725.2729,N,12204.9727,W,8.75,186.70,190526,,,A*79
$GPRMC,091556.000,A,3725.2705,N,12204.9731,W,8.75,186.22,190526,,,A*74
$GPRMC,091557.000,A,3725.2681,N,12204.9734,W,8.75,183.15,190526,,,A*7C
$GPRMC,091558.000,A,3725.2656,N,12204.9736,W,8.75,183.15,190526,,,A*7B
$GPRMC,091559.000,A,3725.2632,N,12204.9738,W,8.75,183.50,190526,,,A*77
$GPRMC,091600.000,A,3725.2608,N,12204.9739,W,8.75,183.54,190526,,,A*74
$GPRMC,091601.000,A,3725.2583,N,12204.9741,W,8.75,183.30,190526,,,A*78
$GPRMC,091602.000,A,3725.2559,N,12204.9743,W,8.75,183.12,190526,,,A*7E
$GPRMC,091603.000,A,3725.2534,N,12204.9745,W,8.75,181.00,190526,,,A*73
$GPRMC,091604.000,A,3725.2510,N,12204.9745,W,8.75,181.00,190526,,,A*72
$GPRMC,091605.000,A,3725.2486,N,12204.9746,W,7.46,106.84,190526,,,A*72
$GPRMC,091606.000,A,3725.2480,N,12204.9721,W,8.75,94.75,190526,,,A*4D
$GPRMC,091607.000,A,3725.2478,N,12204.9691,W,8.75,94.75,190526,,,A*41
$GPRMC,091608.000,A,3725.2476,N,12204.9660,W,8.75,94.78,190526,,,A*43
$GPRMC,091609.000,A,3725.2474,N,12204.9630,W,8.75,94.81,190526,,,A*43
$GPRMC,091610.000,A,3725.2471,N,12204.9599,W,8.75,94.64,190526,,,A*45
$GPRMC,091611.000,A,3725.2470,N,12204.9569,W,8.75,94.64,190526,,,A*4A
$GPRMC,091612.000,A,3725.2468,N,12204.9538,W,8.75,94.64,190526,,,A*44
$GPRMC,091613.000,A,3725.2466,N,12204.9508,W,8.75,94.64,190526,,,A*48
$GPRMC,091614.000,A,3725.2464,N,12204.9477,W,8.75,94.64,190526,,,A*44
$GPRMC,091615.000,A,3725.2462,N,12204.9447,W,8.75,94.64,190526,,,A*40
$GPRMC,091616.000,A,3725.2460,N,12204.9417,W,8.75,94.62,190526,,,A*42
$GPRMC,091617.000,A,3725.2458,N,12204.9386,W,8.75,94.57,190526,,,A*41
$GPRMC,091618.000,A,3725.2456,N,12204.9356,W,8.75,94.57,190526,,,A*4D
$GPRMC,091619.000,A,3725.2454,N,12204.9325,W,8.75,94.57,190526,,,A*4A
$GPRMC,091620.000,A,3725.2452,N,12204.9295,W,8.75,94.57,190526,,,A*4C
$GPRMC,091621.000,A,3725.2450,N,12204.9264,W,8.75,94.57,190526,,,A*41
$GPRMC,091622.000,A,3725.2448,N,12204.9234,W,8.75,94.59,190526,,,A*40
$GPRMC,091623.000,A,3725.2446,N,12204.9203,W,8.75,94.71,190526,,,A*41
$GPRMC,091624.000,A,3725.2444,N,12204.9173,W,8.75,94.71,190526,,,A*40
$GPRMC,091625.000,A,3725.2442,N,12204.9143,W,8.75,94.71,190526,,,A*44
$GPRMC,091626.000,A,3725.2440,N,12204.9112,W,8.75,94.13,190526,,,A*45
$GPRMC,091627.000,A,3725.2438,N,12204.9082,W,8.75,93.99,190526,,,A*46
$GPRMC,091628.000,A,3725.2437,N,12204.9051,W,8.75,93.99,190526,,,A*48
$GPRMC,091629.000,A,3725.2435,N,12204.9021,W,8.75,93.99,190526,,,A*4C
$GPRMC,091630.000,A,3725.2433,N,12204.8990,W,8.75,93.99,190526,,,A*40
$GPRMC,091631.000,A,3725.2432,N,12204.8960,W,8.75,93.99,190526,,,A*4F
$GPRMC,091632.000,A,3725.2430,N,12204.8929,W,8.75,93.99,190526,,,A*43
$GPRMC,091633.000,A,3725.2428,N,12204.8899,W,8.75,93.99,190526,,,A*41
$GPRMC,091634.000,A,3725.2427,N,12204.8868,W,8.75,93.99,190526,,,A*47
$GPRMC,091635.000,A,3725.2425,N,12204.8838,W,8.75,93.99,190526,,,A*41
$GPRMC,091636.000,A,3725.2423,N,12204.8808,W,8.75,93.99,190526,,,A*47
$GPRMC,091637.000,A,3725.2422,N,12204.8777,W,8.75,94.04,190526,,,A*43
$GPRMC,091638.000,A,3725.2420,N,12204.8747,W,8.75,94.10,190526,,,A*48
$GPRMC,091639.000,A,3725.2418,N,12204.8716,W,8.75,94.10,190526,,,A*46
$GPRMC,091640.000,A,3725.2416,N,12204.8686,W,8.75,94.10,190526,,,A*4E
$GPRMC,091641.000,A,3725.2415,N,12204.8655,W,8.75,94.19,190526,,,A*4B
$GPRMC,091642.000,A,3725.2413,N,12204.8625,W,8.75,94.24,190526,,,A*47
$GPRMC,091643.000,A,3725.2411,N,12204.8594,W,8.75,94.13,190526,,,A*49
$GPRMC,091644.000,A,3725.2409,N,12204.8564,W,8.75,94.07,190526,,,A*4D
$GPRMC,091645.000,A,3725.2408,N,12204.8533,W,8.75,94.07,190526,,,A*4F
$GPRMC,091646.000,A,3725.2406,N,12204.8503,W,8.75,93.93,190526,,,A*4B
$GPRMC,091647.000,A,3725.2404,N,12204.8472,W,8.75,93.21,190526,,,A*46
$GPRMC,091648.000,A,3725.2403,N,12204.8442,W,8.75,93.60,190526,,,A*48
$GPRMC,091649.000,A,3725.2401,N,12204.8411,W,8.75,93.84,190526,,,A*47
$GPRMC,091650.000,A,3725.2400,N,12204.8381,W,8.75,93.84,190526,,,A*40
$GPRMC,091651.000,A,3725.2398,N,12204.8351,W,8.75,93.84,190526,,,A*4A
$GPRMC,091652.000,A,3725.2396,N,12204.8320,W,8.75,93.84,190526,,,A*41
$GPRMC,091653.000,A,3725.2395,N,12204.8290,W,8.75,94.54,190526,,,A*43
$GPRMC,091654.000,A,3725.2393,N,12204.8259,W,8.75,94.55,190526,,,A*46
$GPRMC,091655.000,A,3725.2391,N,12204.8229,W,8.75,94.55,190526,,,A*42
$GPRMC,091656.000,A,3725.2389,N,12204.8198,W,8.75,94.61,190526,,,A*46
$GPRMC,091657.000,A,3725.2387,N,12204.8168,W,8.75,94.66,190526,,,A*41
$GPRMC,091658.000,A,3725.2385,N,12204.8137,W,8.75,94.66,190526,,,A*46
$GPRMC,091659.000,A,3725.2383,N,12204.8107,W,8.75,94.66,190526,,,A*42
$GPRMC,091700.000,A,3725.2381,N,12204.8076,W,8.75,94.66,190526,,,A*4A
$GPRMC,091701.000,A,3725.2379,N,12204.8046,W,8.75,94.66,190526,,,A*4F
$GPRMC,091702.000,A,3725.2377,N,12204.8016,W,8.75,94.66,190526,,,A*47
$GPRMC,091703.000,A,3725.2375,N,12204.7985,W,8.75,94.66,190526,,,A*48
$GPRMC,091704.000,A,3725.2373,N,12204.7955,W,8.75,94.66,190526,,,A*44
$GPRMC,091705.000,A,3725.2371,N,12204.7924,W,8.75,94.66,190526,,,A*41
$GPRMC,091706.000,A,3725.2369,N,12204.7894,W,8.75,94.66,190526,,,A*41
$GPRMC,091707.000,A,3725.2367,N,12204.7863,W,8.75,94.15,190526,,,A*42
$GPRMC,091708.000,A,3725.2366,N,12204.7833,W,8.75,94.09,190526,,,A*44
$GPRMC,091709.000,A,3725.2364,N,12204.7802,W,8.75,94.09,190526,,,A*45
$GPRMC,091710.000,A,3725.2362,N,12204.7772,W,8.75,94.09,190526,,,A*43
$GPRMC,091711.000,A,3725.2360,N,12204.7742,W,8.75,94.66,190526,,,A*4A
$GPRMC,091712.000,A,3725.2358,N,12204.7711,W,8.75,95.57,190526,,,A*47
$GPRMC,091713.000,A,3725.2356,N,12204.7681,W,8.75,95.57,190526,,,A*40
$GPRMC,091714.000,A,3725.2354,N,12204.7650,W,8.75,95.57,190526,,,A*49
$GPRMC,091715.000,A,3725.2351,N,12204.7620,W,8.75,95.57,190526,,,A*4A
$GPRMC,091716.000,A,3725.2349,N,12204.7590,W,8.75,95.57,190526,,,A*48
$GPRMC,091717.000,A,3725.2347,N,12204.7559,W,8.75,95.57,190526,,,A*42
$GPRMC,091718.000,A,3725.2344,N,12204.7529,W,8.75,95.57,190526,,,A*49
$GPRMC,091719.000,A,3725.2342,N,12204.7498,W,8.75,95.57,190526,,,A*45
$GPRMC,091720.000,A,3725.2340,N,12204.7468,W,8.75,95.57,190526,,,A*42
$GPRMC,091721.000,A,3725.2337,N,12204.7438,W,8.75,95.57,190526,,,A*46
$GPRMC,091722.000,A,3725.2335,N,12204.7407,W,8.75,95.57,190526,,,A*4B
$GPRMC,091723.000,A,3725.2333,N,12204.7377,W,8.75,95.57,190526,,,A*4C
$GPRMC,091724.000,A,3725.2330,N,12204.7346,W,8.75,94.72,190526,,,A*4C
$GPRMC,091725.000,A,3725.2328,N,12204.7316,W,8.75,94.26,190526,,,A*40
$GPRMC,091726.000,A,3725.2326,N,12204.7285,W,8.75,94.26,190526,,,A*46
$GPRMC,091727.000,A,3725.2325,N,12204.7255,W,8.75,94.41,190526,,,A*48
$GPRMC,091728.000,A,3725.2323,N,12204.7225,W,8.75,94.49,190526,,,A*4E
$GPRMC,091729.000,A,3725.2321,N,12204.7194,W,8.75,94.49,190526,,,A*44
$GPRMC,091730.000,A,3725.2319,N,12204.7164,W,8.75,94.49,190526,,,A*48
$GPRMC,091731.000,A,3725.2317,N,12204.7133,W,8.75,94.49,190526,,,A*45
$GPRMC,091732.000,A,3725.2315,N,12204.7103,W,8.75,94.49,190526,,,A*47
$GPRMC,091733.000,A,3725.2313,N,12204.7072,W,8.75,94.49,190526,,,A*47
$GPRMC,091734.000,A,3725.2311,N,12204.7042,W,8.75,94.49,190526,,,A*41
$GPRMC,091735.000,A,3725.2309,N,12204.7011,W,8.75,94.49,190526,,,A*4F
$GPRMC,091736.000,A,3725.2308,N,12204.6981,W,8.74,93.16,190526,,,A*40
$GPRMC,091737.000,A,3725.2306,N,12204.6950,W,8.74,95.38,190526,,,A*49
$GPRMC,091738.000,A,3725.2304,N,12204.6920,W,8.75,96.82,190526,,,A*40
$GPRMC,091739.000,A,3725.2301,N,12204.6890,W,8.75,96.82,190526,,,A*4E
$GPRMC,091740.000,A,3725.2298,N,12204.6859,W,8.75,96.82,190526,,,A*44
$GPRMC,091741.000,A,3725.2295,N,12204.6829,W,8.75,97.73,190526,,,A*40
$GPRMC,091742.000,A,3725.2292,N,12204.6799,W,8.75,98.03,190526,,,A*48
$GPRMC,091743.000,A,3725.2289,N,12204.6769,W,6.50,76.54,190526,,,A*47
$GPRMC,091744.000,A,3725.2293,N,12204.6747,W,8.75,0.49,190526,,,A*73
$GPRMC,091745.000,A,3725.2317,N,12204.6746,W,8.75,0.49,190526,,,A*7E
$GPRMC,091746.000,A,3725.2342,N,12204.6746,W,8.75,0.00,190526,,,A*70
$GPRMC,091747.000,A,3725.2366,N,12204.6746,W,8.75,0.00,190526,,,A*77
$GPRMC,091748.000,A,3725.2391,N,12204.6746,W,8.75,1.12,190526,,,A*72
$GPRMC,091749.000,A,3725.2415,N,12204.6745,W,8.75,0.00,190526,,,A*79
$GPRMC,091750.000,A,3725.2439,N,12204.6745,W,8.75,0.00,190526,,,A*7F
$GPRMC,091751.000,A,3725.2464,N,12204.6745,W,8.75,0.00,190526,,,A*76
$GPRMC,091752.000,A,3725.2488,N,12204.6745,W,8.75,0.48,190526,,,A*7B
$GPRMC,091753.000,A,3725.2513,N,12204.6745,W,8.75,0.68,190526,,,A*7B
$GPRMC,091754.000,A,3725.2537,N,12204.6745,W,8.75,0.68,190526,,,A*7A
$GPRMC,091755.000,A,3725.2562,N,12204.6744,W,8.75,0.39,190526,,,A*7E
$GPRMC,091756.000,A,3725.2586,N,12204.6744,W,8.75,0.00,190526,,,A*7D
$GPRMC,091757.000,A,3725.2610,N,12204.6744,W,8.75,0.00,190526,,,A*70
$GPRMC,091758.000,A,3725.2635,N,12204.6744,W,8.75,359.39,190526,,,A*7D
$GPRMC,091759.000,A,3725.2659,N,12204.6745,W,8.75,357.16,190526,,,A*74
$GPRMC,091800.000,A,3725.2684,N,12204.6746,W,8.75,356.29,190526,,,A*79
$GPRMC,091801.000,A,3725.2708,N,12204.6748,W,8.75,355.70,190526,,,A*7C
$GPRMC,091802.000,A,3725.2732,N,12204.6750,W,8.75,352.93,190526,,,A*75
$GPRMC,091803.000,A,3725.2757,N,12204.6754,W,8.75,353.07,190526,,,A*7F
$GPRMC,091804.000,A,3725.2781,N,12204.6758,W,8.75,353.24,190526,,,A*7E
$GPRMC,091805.000,A,3725.2805,N,12204.6761,W,8.75,353.21,190526,,,A*73
$GPRMC,091806.000,A,3725.2829,N,12204.6765,W,8.75,353.21,190526,,,A*7A
$GPRMC,091807.000,A,3725.2854,N,12204.6769,W,8.75,353.13,190526,,,A*7C
$GPRMC,091808.000,A,3725.2878,N,12204.6772,W,8.75,354.00,190526,,,A*72
$GPRMC,091809.000,A,3725.2902,N,12204.6776,W,8.75,354.39,190526,,,A*71
$GPRMC,091810.000,A,3725.2926,N,12204.6779,W,8.75,354.11,190526,,,A*7A
$GPRMC,091811.000,A,3725.2951,N,12204.6782,W,8.75,354.11,190526,,,A*7F
$GPRMC,091812.000,A,3725.2975,N,12204.6785,W,8.74,355.93,190526,,,A*77
$GPRMC,091813.000,A,3725.2999,N,12204.6787,W,8.75,357.12,190526,,,A*7C
$GPRMC,091814.000,A,3725.3024,N,12204.6789,W,8.75,357.26,190526,,,A*7C
$GPRMC,091815.000,A,3725.3048,N,12204.6790,W,8.75,357.33,190526,,,A*7B
$GPRMC,091816.000,A,3725.3073,N,12204.6792,W,8.75,357.33,190526,,,A*72
$GPRMC,091817.000,A,3725.3097,N,12204.6793,W,8.75,357.94,190526,,,A*75
$GPRMC,091818.000,A,3725.3121,N,12204.6794,W,8.75,359.25,190526,,,A*75
$GPRMC,091819.000,A,3725.3146,N,12204.6795,W,8.75,359.31,190526,,,A*71
$GPRMC,091820.000,A,3725.3170,N,12204.6795,W,8.75,359.44,190526,,,A*7C
$GPRMC,091821.000,A,3725.3195,N,12204.6795,W,8.75,0.00,190526,,,A*79
$GPRMC,091822.000,A,3725.3219,N,12204.6795,W,8.75,1.07,190526,,,A*7B
$GPRMC,091823.000,A,3725.3243,N,12204.6795,W,8.75,2.17,190526,,,A*77
$GPRMC,091824.000,A,3725.3268,N,12204.6793,W,8.75,2.06,190526,,,A*7F
$GPRMC,091825.000,A,3725.3292,N,12204.6792,W,8.75,1.97,190526,,,A*71
$GPRMC,091826.000,A,3725.3317,N,12204.6791,W,8.75,2.92,190526,,,A*7B
$GPRMC,091827.000,A,3725.3341,N,12204.6790,W,8.75,3.47,190526,,,A*71
$GPRMC,091828.000,A,3725.3365,N,12204.6788,W,8.75,3.64,190526,,,A*70
$GPRMC,091829.000,A,3725.3390,N,12204.6786,W,8.75,4.81,190526,,,A*79
$GPRMC,091830.000,A,3725.3414,N,12204.6783,W,8.75,4.51,190526,,,A*72
$GPRMC,091831.000,A,3725.3439,N,12204.6781,W,8.75,4.19,190526,,,A*72
$GPRMC,091832.000,A,3725.3463,N,12204.6779,W,8.75,4.19,190526,,,A*79
$GPRMC,091833.000,A,3725.3487,N,12204.6776,W,8.75,4.39,190526,,,A*7F
$GPRMC,091834.000,A,3725.3512,N,12204.6774,W,8.75,4.89,190526,,,A*7C
$GPRMC,091835.000,A,3725.3536,N,12204.6771,W,8.75,3.95,190526,,,A*74
$GPRMC,091836.000,A,3725.3560,N,12204.6769,W,8.75,3.50,190526,,,A*74
$GPRMC,091837.000,A,3725.3585,N,12204.6767,W,8.75,3.50,190526,,,A*70
$GPRMC,091838.000,A,3725.3609,N,12204.6766,W,8.75,3.16,190526,,,A*7B
$GPRMC,091839.000,A,3725.3633,N,12204.6764,W,8.75,2.80,190526,,,A*7F
$GPRMC,091840.000,A,3725.3658,N,12204.6762,W,8.75,2.21,190526,,,A*71
$GPRMC,091841.000,A,3725.3682,N,12204.6761,W,8.75,2.11,190526,,,A*77
$GPRMC,091842.000,A,3725.3707,N,12204.6760,W,8.75,2.07,190526,,,A*7E
$GPRMC,091843.000,A,3725.3731,N,12204.6759,W,8.75,2.54,190526,,,A*76
$GPRMC,091844.000,A,3725.3755,N,12204.6758,W,8.75,2.72,190526,,,A*76
$GPRMC,091845.000,A,3725.3780,N,12204.6756,W,8.75,2.10,190526,,,A*75
$GPRMC,091846.000,A,3725.3804,N,12204.6755,W,8.75,1.78,190526,,,A*7B
$GPRMC,091847.000,A,3725.3829,N,12204.6754,W,8.75,1.40,190526,,,A*7F
$GPRMC,091848.000,A,3725.3853,N,12204.6753,W,8.75,1.48,190526,,,A*72
$GPRMC,091849.000,A,3725.3878,N,12204.6753,W,8.75,0.94,190526,,,A*7A
$GPRMC,091850.000,A,3725.3902,N,12204.6752,W,8.75,0.80,190526,,,A*7A
$GPRMC,091851.000,A,3725.3926,N,12204.6752,W,8.75,0.10,190526,,,A*74
$GPRMC,091852.000,A,3725.3951,N,12204.6752,W,8.75,359.74,190526,,,A*7A
$GPRMC,091853.000,A,3725.3975,N,12204.6752,W,8.75,359.74,190526,,,A*7D
$GPRMC,091854.000,A,3725.4000,N,12204.6752,W,8.75,359.74,190526,,,A*76
$GPRMC,091855.000,A,3725.4024,N,12204.6752,W,5.91,303.09,190526,,,A*73
$GPRMC,091856.000,A,3725.4033,N,12204.6769,W,8.75,263.52,190526,,,A*70
$GPRMC,091857.000,A,3725.4030,N,12204.6800,W,8.75,263.51,190526,,,A*71
$GPRMC,091858.000,A,3725.4028,N,12204.6830,W,8.75,263.47,190526,,,A*73
$GPRMC,091859.000,A,3725.4025,N,12204.6860,W,8.75,263.47,190526,,,A*7A
$GPRMC,091900.000,A,3725.4022,N,12204.6891,W,8.74,265.15,190526,,,A*7E
$GPRMC,091901.000,A,3725.4020,N,12204.6921,W,8.75,268.51,190526,,,A*7B
$GPRMC,091902.000,A,3725.4019,N,12204.6952,W,8.75,268.63,190526,,,A*77
$GPRMC,091903.000,A,3725.4019,N,12204.6982,W,8.75,268.87,190526,,,A*71
$GPRMC,091904.000,A,3725.4018,N,12204.7013,W,8.75,268.87,190526,,,A*77
$GPRMC,091905.000,A,3725.4018,N,12204.7043,W,8.75,268.87,190526,,,A*73
$GPRMC,091906.000,A,3725.4017,N,12204.7074,W,8.75,268.87,190526,,,A*7B
$GPRMC,091907.000,A,3725.4017,N,12204.7104,W,8.75,269.11,190526,,,A*72
$GPRMC,091908.000,A,3725.4017,N,12204.7135,W,8.75,269.45,190526,,,A*7E
$GPRMC,091909.000,A,3725.4016,N,12204.7165,W,8.75,269.45,190526,,,A*7B
$GPRMC,091910.000,A,3725.4016,N,12204.7196,W,8.75,269.45,190526,,,A*7F
$GPRMC,091911.000,A,3725.4016,N,12204.7226,W,8.75,269.45,190526,,,A*76
$GPRMC,091912.000,A,3725.4016,N,12204.7257,W,8.74,268.48,190526,,,A*7E
$GPRMC,091913.000,A,3725.4015,N,12204.7287,W,8.75,265.16,190526,,,A*76
$GPRMC,091914.000,A,3725.4013,N,12204.7318,W,8.75,265.16,190526,,,A*70
$GPRMC,091915.000,A,3725.4011,N,12204.7348,W,8.75,265.16,190526,,,A*76
$GPRMC,091916.000,A,3725.4009,N,12204.7379,W,8.75,265.16,190526,,,A*7E
$GPRMC,091917.000,A,3725.4007,N,12204.7409,W,8.75,265.16,190526,,,A*71
$GPRMC,091918.000,A,3725.4005,N,12204.7440,W,8.75,265.16,190526,,,A*71
$GPRMC,091919.000,A,3725.4003,N,12204.7470,W,8.75,265.16,190526,,,A*75
$GPRMC,091920.000,A,3725.4001,N,12204.7501,W,8.75,265.16,190526,,,A*7A
$GPRMC,091921.000,A,3725.3999,N,12204.7531,W,8.75,265.16,190526,,,A*77
$GPRMC,091922.000,A,3725.3997,N,12204.7561,W,8.75,265.21,190526,,,A*7B
$GPRMC,091923.000,A,3725.3995,N,12204.7592,W,8.75,265.36,190526,,,A*72
$GPRMC,091924.000,A,3725.3993,N,12204.7622,W,8.75,265.36,190526,,,A*7B
$GPRMC,091925.000,A,3725.3991,N,12204.7653,W,8.75,265.36,190526,,,A*7E
$GPRMC,091926.000,A,3725.3989,N,12204.7683,W,8.75,265.36,190526,,,A*79
$GPRMC,091927.000,A,3725.3987,N,12204.7714,W,8.75,265.36,190526,,,A*79
$GPRMC,091928.000,A,3725.3985,N,12204.7744,W,8.75,265.36,190526,,,A*71
$GPRMC,091929.000,A,3725.3983,N,12204.7774,W,8.75,265.36,190526,,,A*75
$GPRMC,091930.000,A,3725.3981,N,12204.7805,W,8.75,265.36,190526,,,A*76
$GPRMC,091931.000,A,3725.3979,N,12204.7835,W,8.75,265.36,190526,,,A*73
$GPRMC,091932.000,A,3725.3977,N,12204.7866,W,8.75,265.36,190526,,,A*78
$GPRMC,091933.000,A,3725.3975,N,12204.7896,W,8.75,265.36,190526,,,A*74
$GPRMC,091934.000,A,3725.3973,N,12204.7927,W,8.75,264.07,190526,,,A*7D
$GPRMC,091935.000,A,3725.3970,N,12204.7957,W,8.75,263.98,190526,,,A*79
$GPRMC,091936.000,A,3725.3968,N,12204.7987,W,8.75,263.98,190526,,,A*7E
$GPRMC,091937.000,A,3725.3965,N,12204.8018,W,8.75,263.98,190526,,,A*72
$GPRMC,091938.000,A,3725.3963,N,12204.8048,W,8.75,263.98,190526,,,A*7E
$GPRMC,091939.000,A,3725.3960,N,12204.8079,W,8.75,263.98,190526,,,A*7E
$GPRMC,091940.000,A,3725.3958,N,12204.8109,W,8.75,263.98,190526,,,A*7D
$GPRMC,091941.000,A,3725.3955,N,12204.8139,W,8.75,263.98,190526,,,A*72
$GPRMC,091942.000,A,3725.3953,N,12204.8170,W,8.75,264.11,190526,,,A*7C
$GPRMC,091943.000,A,3725.3950,N,12204.8200,W,8.75,264.09,190526,,,A*73
$GPRMC,091944.000,A,3725.3948,N,12204.8230,W,8.75,263.38,190526,,,A*7B
$GPRMC,091945.000,A,3725.3945,N,12204.8261,W,8.75,263.38,190526,,,A*73
$GPRMC,091946.000,A,3725.3942,N,12204.8291,W,7.43,220.58,190526,,,A*73
$GPRMC,091947.000,A,3725.3926,N,12204.8308,W,8.75,197.01,190526,,,A*78
$GPRMC,091948.000,A,3725.3903,N,12204.8317,W,8.75,197.01,190526,,,A*7E
$GPRMC,091949.000,A,3725.3880,N,12204.8326,W,8.73,200.73,190526,,,A*79
$GPRMC,091950.000,A,3725.3857,N,12204.8337,W,8.74,206.57,190526,,,A*7C
$GPRMC,091951.000,A,3725.3835,N,12204.8351,W,8.75,207.90,190526,,,A*72
$GPRMC,091952.000,A,3725.3814,N,12204.8365,W,8.75,207.90,190526,,,A*75
$GPRMC,091953.000,A,3725.3792,N,12204.8379,W,8.74,209.35,190526,,,A*78
$GPRMC,091954.000,A,3725.3771,N,12204.8394,W,8.75,213.70,190526,,,A*7A
$GPRMC,091955.000,A,3725.3750,N,12204.8411,W,8.75,215.33,190526,,,A*73
$GPRMC,091956.000,A,3725.3731,N,12204.8429,W,8.75,215.60,190526,,,A*7A
$GPRMC,091957.000,A,3725.3711,N,12204.8447,W,8.75,215.37,190526,,,A*73
$GPRMC,091958.000,A,3725.3691,N,12204.8465,W,8.75,215.22,190526,,,A*71
$GPRMC,091959.000,A,3725.3671,N,12204.8482,W,8.75,215.22,190526,,,A*77
$GPRMC,092000.000,A,3725.3651,N,12204.8500,W,8.75,215.22,190526,,,A*78
$GPRMC,092001.000,A,3725.3631,N,12204.8518,W,8.74,213.25,190526,,,A*76
$GPRMC,092002.000,A,3725.3611,N,12204.8535,W,8.75,211.49,190526,,,A*71
$GPRMC,092003.000,A,3725.3590,N,12204.8551,W,8.75,211.49,190526,,,A*78
$GPRMC,092004.000,A,3725.3569,N,12204.8567,W,8.72,207.07,190526,,,A*76
$GPRMC,092005.000,A,3725.3548,N,12204.8581,W,8.75,202.63,190526,,,A*7C
$GPRMC,092006.000,A,3725.3525,N,12204.8593,W,8.75,202.63,190526,,,A*77
$GPRMC,092007.000,A,3725.3503,N,12204.8604,W,8.71,199.15,190526,,,A*7B
$GPRMC,092008.000,A,3725.3480,N,12204.8614,W,8.75,191.05,190526,,,A*72
$GPRMC,092009.000,A,3725.3456,N,12204.8620,W,8.75,191.05,190526,,,A*7F
$GPRMC,092010.000,A,3725.3432,N,12204.8626,W,8.74,189.51,190526,,,A*7A
$GPRMC,092011.000,A,3725.3408,N,12204.8631,W,8.75,184.80,190526,,,A*74
$GPRMC,092012.000,A,3725.3383,N,12204.8634,W,8.75,184.80,190526,,,A*76
$GPRMC,092013.000,A,3725.3359,N,12204.8636,W,8.74,183.77,190526,,,A*7C
$GPRMC,092014.000,A,3725.3335,N,12204.8638,W,8.74,178.17,190526,,,A*7D
$GPRMC,092015.000,A,3725.3310,N,12204.8637,W,8.75,175.73,190526,,,A*7A
$GPRMC,092016.000,A,3725.3286,N,12204.8635,W,8.75,175.73,190526,,,A*75
$GPRMC,092017.000,A,3725.3261,N,12204.8633,W,8.74,174.29,190526,,,A*74
$GPRMC,092018.000,A,3725.3237,N,12204.8630,W,8.75,173.10,190526,,,A*77
$GPRMC,092019.000,A,3725.3213,N,12204.8626,W,8.75,173.10,190526,,,A*77
$GPRMC,092020.000,A,3725.3189,N,12204.8622,W,8.75,173.10,190526,,,A*79
$GPRMC,092021.000,A,3725.3164,N,12204.8619,W,8.75,173.10,190526,,,A*73
$GPRMC,092022.000,A,3725.3140,N,12204.8615,W,8.75,173.10,190526,,,A*7A
$GPRMC,092023.000,A,3725.3116,N,12204.8611,W,8.75,173.10,190526,,,A*7C
$GPRMC,092024.000,A,3725.3092,N,12204.8608,W,8.73,168.79,190526,,,A*7D
$GPRMC,092025.000,A,3725.3068,N,12204.8602,W,8.75,165.52,190526,,,A*71
$GPRMC,092026.000,A,3725.3044,N,12204.8594,W,8.75,165.52,190526,,,A*70
$GPRMC,092027.000,A,3725.3020,N,12204.8586,W,8.75,165.52,190526,,,A*70
$GPRMC,092028.000,A,3725.2997,N,12204.8579,W,8.75,165.52,190526,,,A*7B
$GPRMC,092029.000,A,3725.2973,N,12204.8571,W,8.75,165.52,190526,,,A*78
$GPRMC,092030.000,A,3725.2950,N,12204.8563,W,8.75,165.52,190526,,,A*72
$GPRMC,092031.000,A,3725.2926,N,12204.8555,W,5.15,152.80,190526,,,A*77
$GPRMC,092032.000,A,3725.2913,N,12204.8547,W,8.75,19.28,190526,,,A*46
$GPRMC,092033.000,A,3725.2936,N,12204.8537,W,8.75,19.28,190526,,,A*47
$GPRMC,092034.000,A,3725.2959,N,12204.8527,W,8.71,15.32,190526,,,A*4B
$GPRMC,092035.000,A,3725.2983,N,12204.8519,W,8.75,9.24,190526,,,A*7E
$GPRMC,092036.000,A,3725.3007,N,12204.8514,W,8.64,3.15,190526,,,A*7C
$GPRMC,092037.000,A,3725.3031,N,12204.8512,W,8.75,350.85,190526,,,A*72
$GPRMC,092038.000,A,3725.3055,N,12204.8517,W,8.75,350.93,190526,,,A*7D
$GPRMC,092039.000,A,3725.3079,N,12204.8522,W,8.75,350.93,190526,,,A*74
$GPRMC,092040.000,A,3725.3103,N,12204.8527,W,8.75,350.93,190526,,,A*73
$GPRMC,092041.000,A,3725.3127,N,12204.8532,W,8.75,350.93,190526,,,A*70
$GPRMC,092042.000,A,3725.3151,N,12204.8537,W,8.74,349.71,190526,,,A*72
$GPRMC,092043.000,A,3725.3175,N,12204.8542,W,8.75,346.60,190526,,,A*79
$GPRMC,092044.000,A,3725.3199,N,12204.8549,W,8.74,346.36,190526,,,A*75
$GPRMC,092045.000,A,3725.3223,N,12204.8556,W,8.75,316.18,190526,,,A*70
$GPRMC,092046.000,A,3725.3241,N,12204.8578,W,8.04,298.79,190526,,,A*7D
$GPRMC,092047.000,A,3725.3251,N,12204.8602,W,8.48,269.77,190526,,,A*7B
$GPRMC,092048.000,A,3725.3251,N,12204.8632,W,8.75,355.87,190526,,,A*78
$GPRMC,092049.000,A,3725.3276,N,12204.8634,W,8.75,355.87,190526,,,A*7A
$GPRMC,092050.000,A,3725.3300,N,12204.8636,W,8.75,356.08,190526,,,A*74
$GPRMC,092051.000,A,3725.3324,N,12204.8638,W,8.74,1.75,190526,,,A*77
$GPRMC,092052.000,A,3725.3349,N,12204.8637,W,8.75,4.80,190526,,,A*7E
$GPRMC,092053.000,A,3725.3373,N,12204.8635,W,8.75,4.80,190526,,,A*74
$GPRMC,092054.000,A,3725.3397,N,12204.8632,W,8.74,6.87,190526,,,A*7A
$GPRMC,092055.000,A,3725.3422,N,12204.8629,W,8.75,11.05,190526,,,A*45
$GPRMC,092056.000,A,3725.3446,N,12204.8623,W,8.75,11.05,190526,,,A*4E
$GPRMC,092057.000,A,3725.3469,N,12204.8617,W,8.71,14.25,190526,,,A*46
$GPRMC,092058.000,A,3725.3493,N,12204.8609,W,8.75,22.63,190526,,,A*40
$GPRMC,092059.000,A,3725.3516,N,12204.8597,W,8.75,22.63,190526,,,A*49
$GPRMC,092100.000,A,3725.3538,N,12204.8586,W,8.74,23.34,190526,,,A*4A
$GPRMC,092101.000,A,3725.3560,N,12204.8574,W,8.75,31.49,190526,,,A*43
$GPRMC,092102.000,A,3725.3581,N,12204.8557,W,8.75,31.49,190526,,,A*4E
$GPRMC,092103.000,A,3725.3602,N,12204.8541,W,8.75,31.68,190526,,,A*43
$GPRMC,092104.000,A,3725.3623,N,12204.8525,W,8.75,35.22,190526,,,A*4F
$GPRMC,092105.000,A,3725.3643,N,12204.8508,W,8.75,35.22,190526,,,A*47
$GPRMC,092106.000,A,3725.3663,N,12204.8490,W,8.75,35.22,190526,,,A*46
$GPRMC,092107.000,A,3725.3683,N,12204.8472,W,8.75,35.22,190526,,,A*45
$GPRMC,092108.000,A,3725.3702,N,12204.8455,W,8.75,35.59,190526,,,A*4B
$GPRMC,092109.000,A,3725.3722,N,12204.8437,W,8.75,35.60,190526,,,A*46
$GPRMC,092110.000,A,3725.3742,N,12204.8419,W,8.75,34.32,190526,,,A*42
$GPRMC,092111.000,A,3725.3762,N,12204.8402,W,8.74,31.71,190526,,,A*48
$GPRMC,092112.000,A,3725.3783,N,12204.8385,W,8.75,27.90,190526,,,A*45
$GPRMC,092113.000,A,3725.3804,N,12204.8371,W,8.75,27.90,190526,,,A*4F
$GPRMC,092114.000,A,3725.3826,N,12204.8357,W,8.75,27.90,190526,,,A*4C
$GPRMC,092115.000,A,3725.3848,N,12204.8342,W,8.74,23.99,190526,,,A*4D
$GPRMC,092116.000,A,3725.3870,N,12204.8330,W,8.75,17.01,190526,,,A*47
$GPRMC,092117.000,A,3725.3893,N,12204.8321,W,8.75,17.01,190526,,,A*4B
$GPRMC,092118.000,A,3725.3917,N,12204.8312,W,8.75,17.01,190526,,,A*49
$GPRMC,092119.000,A,3725.3940,N,12204.8303,W,8.50,80.71,190526,,,A*44
$GPRMC,092120.000,A,3725.3944,N,12204.8274,W,8.75,83.38,190526,,,A*42
$GPRMC,092121.000,A,3725.3946,N,12204.8243,W,8.75,83.58,190526,,,A*43
$GPRMC,092122.000,A,3725.3949,N,12204.8213,W,8.75,84.37,190526,,,A*44
$GPRMC,092123.000,A,3725.3952,N,12204.8182,W,8.75,83.98,190526,,,A*46
$GPRMC,092124.000,A,3725.3954,N,12204.8152,W,8.75,83.98,190526,,,A*4A
$GPRMC,092125.000,A,3725.3957,N,12204.8122,W,8.75,83.98,190526,,,A*4F
$GPRMC,092126.000,A,3725.3959,N,12204.8091,W,8.75,83.98,190526,,,A*4B
$GPRMC,092127.000,A,3725.3962,N,12204.8061,W,8.75,83.98,190526,,,A*4D
$GPRMC,092128.000,A,3725.3964,N,12204.8031,W,8.75,83.98,190526,,,A*41
$GPRMC,092129.000,A,3725.3967,N,12204.8000,W,8.75,83.98,190526,,,A*41
$GPRMC,092130.000,A,3725.3969,N,12204.7970,W,8.75,83.98,190526,,,A*46
$GPRMC,092131.000,A,3725.3972,N,12204.7939,W,8.75,84.87,190526,,,A*49
$GPRMC,092132.000,A,3725.3974,N,12204.7909,W,8.75,85.36,190526,,,A*44
$GPRMC,092133.000,A,3725.3976,N,12204.7879,W,8.75,85.36,190526,,,A*41
$GPRMC,092134.000,A,3725.3978,N,12204.7848,W,8.75,85.36,190526,,,A*4A
$GPRMC,092135.000,A,3725.3980,N,12204.7818,W,8.75,85.36,190526,,,A*49
$GPRMC,092136.000,A,3725.3982,N,12204.7787,W,8.75,85.36,190526,,,A*41
$GPRMC,092137.000,A,3725.3984,N,12204.7757,W,8.75,85.36,190526,,,A*4B
$GPRMC,092138.000,A,3725.3986,N,12204.7726,W,8.75,85.36,190526,,,A*40
$GPRMC,092139.000,A,3725.3988,N,12204.7696,W,8.75,85.36,190526,,,A*45
$GPRMC,092140.000,A,3725.3990,N,12204.7666,W,8.75,85.36,190526,,,A*4D
$GPRMC,092141.000,A,3725.3992,N,12204.7635,W,8.75,85.36,190526,,,A*48
$GPRMC,092142.000,A,3725.3994,N,12204.7605,W,8.75,85.30,190526,,,A*48
$GPRMC,092143.000,A,3725.3996,N,12204.7574,W,8.75,85.16,190526,,,A*4A
$GPRMC,092144.000,A,3725.3998,N,12204.7544,W,8.75,85.16,190526,,,A*40
$GPRMC,092145.000,A,3725.4000,N,12204.7513,W,8.75,85.16,190526,,,A*4C
$GPRMC,092146.000,A,3725.4002,N,12204.7483,W,8.75,85.16,190526,,,A*45
$GPRMC,092147.000,A,3725.4004,N,12204.7452,W,8.75,85.16,190526,,,A*4E
$GPRMC,092148.000,A,3725.4006,N,12204.7422,W,8.75,85.16,190526,,,A*44
$GPRMC,092149.000,A,3725.4008,N,12204.7392,W,8.75,85.16,190526,,,A*47
$GPRMC,092150.000,A,3725.4010,N,12204.7361,W,8.75,85.16,190526,,,A*4A
$GPRMC,092151.000,A,3725.4012,N,12204.7331,W,8.75,85.16,190526,,,A*4C
$GPRMC,092152.000,A,3725.4014,N,12204.7300,W,8.74,86.68,190526,,,A*40
$GPRMC,092153.000,A,3725.4015,N,12204.7270,W,8.75,89.45,190526,,,A*47
$GPRMC,092154.000,A,3725.4016,N,12204.7239,W,8.75,89.45,190526,,,A*4E
$GPRMC,092155.000,A,3725.4016,N,12204.7209,W,8.75,89.45,190526,,,A*4C
$GPRMC,092156.000,A,3725.4016,N,12204.7178,W,8.75,89.45,190526,,,A*4A
$GPRMC,092157.000,A,3725.4016,N,12204.7148,W,8.75,89.36,190526,,,A*4C
$GPRMC,092158.000,A,3725.4017,N,12204.7117,W,8.75,88.87,190526,,,A*43
$GPRMC,092159.000,A,3725.4017,N,12204.7087,W,8.75,88.87,190526,,,A*4A
$GPRMC,092200.000,A,3725.4018,N,12204.7056,W,8.75,88.87,190526,,,A*46
$GPRMC,092201.000,A,3725.4018,N,12204.7026,W,8.75,88.87,190526,,,A*40
$GPRMC,092202.000,A,3725.4019,N,12204.6995,W,8.75,88.81,190526,,,A*44
$GPRMC,092203.000,A,3725.4019,N,12204.6964,W,8.75,88.46,190526,,,A*40
$GPRMC,092204.000,A,3725.4020,N,12204.6934,W,8.74,87.29,190526,,,A*4F
$GPRMC,092205.000,A,3725.4021,N,12204.6903,W,8.75,83.47,190526,,,A*46
$GPRMC,092206.000,A,3725.4024,N,12204.6873,W,8.75,83.47,190526,,,A*46
$GPRMC,092207.000,A,3725.4026,N,12204.6843,W,5.96,121.72,190526,,,A*79
$GPRMC,092208.000,A,3725.4018,N,12204.6825,W,8.75,179.15,190526,,,A*77
$GPRMC,092209.000,A,3725.3993,N,12204.6825,W,8.75,179.15,190526,,,A*7B
$GPRMC,092210.000,A,3725.3969,N,12204.6824,W,8.75,179.15,190526,,,A*77
$GPRMC,092211.000,A,3725.3944,N,12204.6824,W,8.75,179.55,190526,,,A*7D
$GPRMC,092212.000,A,3725.3920,N,12204.6823,W,8.75,181.07,190526,,,A*7B
$GPRMC,092213.000,A,3725.3896,N,12204.6824,W,8.75,181.47,190526,,,A*75
$GPRMC,092214.000,A,3725.3871,N,12204.6825,W,8.75,181.47,190526,,,A*7A
$GPRMC,092215.000,A,3725.3847,N,12204.6826,W,8.75,181.94,190526,,,A*73
$GPRMC,092216.000,A,3725.3822,N,12204.6827,W,8.75,182.15,190526,,,A*78
$GPRMC,092217.000,A,3725.3798,N,12204.6828,W,8.75,182.07,190526,,,A*7B
$GPRMC,092218.000,A,3725.3774,N,12204.6829,W,8.75,182.83,190526,,,A*7B
$GPRMC,092219.000,A,3725.3749,N,12204.6830,W,8.75,183.55,190526,,,A*76
$GPRMC,092220.000,A,3725.3725,N,12204.6832,W,8.75,183.40,190526,,,A*70
$GPRMC,092221.000,A,3725.3700,N,12204.6834,W,8.75,183.42,190526,,,A*72
$GPRMC,092222.000,A,3725.3676,N,12204.6836,W,8.75,183.50,190526,,,A*70
$GPRMC,092223.000,A,3725.3652,N,12204.6838,W,8.75,183.98,190526,,,A*7D
$GPRMC,092224.000,A,3725.3627,N,12204.6840,W,8.75,184.25,190526,,,A*76
$GPRMC,092225.000,A,3725.3603,N,12204.6842,W,8.75,184.81,190526,,,A*7D
$GPRMC,092226.000,A,3725.3579,N,12204.6845,W,8.75,184.85,190526,,,A*73
$GPRMC,092227.000,A,3725.3554,N,12204.6847,W,8.75,184.89,190526,,,A*73
$GPRMC,092228.000,A,3725.3530,N,12204.6850,W,8.75,185.48,190526,,,A*74
$GPRMC,092229.000,A,3725.3506,N,12204.6853,W,8.75,185.60,190526,,,A*79
$GPRMC,092230.000,A,3725.3481,N,12204.6856,W,8.75,185.67,190526,,,A*7D
$GPRMC,092231.000,A,3725.3457,N,12204.6859,W,8.75,185.55,190526,,,A*79
$GPRMC,092232.000,A,3725.3433,N,12204.6862,W,8.75,185.44,190526,,,A*70
$GPRMC,092233.000,A,3725.3408,N,12204.6865,W,8.75,184.26,190526,,,A*7B
$GPRMC,092234.000,A,3725.3384,N,12204.6867,W,8.75,183.93,190526,,,A*74
$GPRMC,092235.000,A,3725.3360,N,12204.6869,W,8.75,183.55,190526,,,A*7B
$GPRMC,092236.000,A,3725.3335,N,12204.6871,W,8.75,182.20,190526,,,A*72
$GPRMC,092237.000,A,3725.3311,N,12204.6872,W,8.75,181.89,190526,,,A*76
$GPRMC,092238.000,A,3725.3286,N,12204.6873,W,8.75,181.42,190526,,,A*70
$GPRMC,092239.000,A,3725.3262,N,12204.6874,W,8.75,180.94,190526,,,A*76
$GPRMC,092240.000,A,3725.3238,N,12204.6875,W,8.75,180.59,190526,,,A*77
$GPRMC,092241.000,A,3725.3213,N,12204.6875,W,8.75,179.31,190526,,,A*77
$GPRMC,092242.000,A,3725.3189,N,12204.6875,W,8.75,178.98,190526,,,A*76
$GPRMC,092243.000,A,3725.3164,N,12204.6874,W,8.75,178.58,190526,,,A*79
$GPRMC,092244.000,A,3725.3140,N,12204.6873,W,8.75,177.36,190526,,,A*78
$GPRMC,092245.000,A,3725.3115,N,12204.6872,W,8.75,177.20,190526,,,A*7F
$GPRMC,092246.000,A,3725.3091,N,12204.6870,W,8.75,177.20,190526,,,A*73
$GPRMC,092247.000,A,3725.3067,N,12204.6869,W,8.75,176.78,190526,,,A*7F
$GPRMC,092248.000,A,3725.3042,N,12204.6867,W,8.75,175.20,190526,,,A*77
$GPRMC,092249.000,A,3725.3018,N,12204.6865,W,8.75,173.89,190526,,,A*7E
$GPRMC,092250.000,A,3725.2994,N,12204.6861,W,8.75,173.78,190526,,,A*70
$GPRMC,092251.000,A,3725.2969,N,12204.6858,W,8.75,173.75,190526,,,A*74
$GPRMC,092252.000,A,3725.2945,N,12204.6855,W,8.75,173.03,190526,,,A*75
$GPRMC,092253.000,A,3725.2921,N,12204.6851,W,8.75,172.38,190526,,,A*7B
$GPRMC,092254.000,A,3725.2897,N,12204.6847,W,8.75,172.06,190526,,,A*7A
$GPRMC,092255.000,A,3725.2872,N,12204.6843,W,8.75,171.43,190526,,,A*76
$GPRMC,092256.000,A,3725.2848,N,12204.6838,W,8.75,170.84,190526,,,A*7A
$GPRMC,092257.000,A,3725.2824,N,12204.6833,W,8.75,171.18,190526,,,A*7E
$GPRMC,092258.000,A,3725.2800,N,12204.6828,W,8.75,173.58,190526,,,A*7B
$GPRMC,092259.000,A,3725.2776,N,12204.6825,W,8.75,176.32,190526,,,A*70
$GPRMC,092300.000,A,3725.2751,N,12204.6823,W,8.75,177.20,190526,,,A*7C
$GPRMC,092301.000,A,3725.2727,N,12204.6821,W,8.75,178.06,190526,,,A*75
$GPRMC,092302.000,A,3725.2703,N,12204.6820,W,8.75,179.96,190526,,,A*79
$GPRMC,092303.000,A,3725.2678,N,12204.6820,W,8.75,180.00,190526,,,A*7C
$GPRMC,092304.000,A,3725.2654,N,12204.6820,W,8.75,180.00,190526,,,A*75
$GPRMC,092305.000,A,3725.2629,N,12204.6820,W,8.75,180.00,190526,,,A*7E
$GPRMC,092306.000,A,3725.2605,N,12204.6820,W,8.75,180.44,190526,,,A*73
$GPRMC,092307.000,A,3725.2581,N,12204.6821,W,8.75,180.53,190526,,,A*7A
$GPRMC,092308.000,A,3725.2556,N,12204.6821,W,8.75,180.53,190526,,,A*7F
$GPRMC,092309.000,A,3725.2532,N,12204.6821,W,8.75,180.53,190526,,,A*7C
$GPRMC,092310.000,A,3725.2507,N,12204.6821,W,8.75,180.53,190526,,,A*72
$GPRMC,092311.000,A,3725.2483,N,12204.6822,W,8.75,180.53,190526,,,A*7D
$GPRMC,092312.000,A,3725.2458,N,12204.6822,W,8.75,180.28,190526,,,A*74
$GPRMC,092313.000,A,3725.2434,N,12204.6822,W,8.75,179.24,190526,,,A*75
$GPRMC,092314.000,A,3725.2410,N,12204.6822,W,8.75,179.64,190526,,,A*70
$GPRMC,092315.000,A,3725.2385,N,12204.6822,W,8.75,180.00,190526,,,A*7E
$GPRMC,092316.000,A,3725.2361,N,12204.6822,W,5.82,231.88,190526,,,A*7B
$GPRMC,092317.000,A,3725.2351,N,12204.6838,W,8.75,276.79,190526,,,A*7A
$GPRMC,092318.000,A,3725.2354,N,12204.6868,W,8.75,276.79,190526,,,A*75
$GPRMC,092319.000,A,3725.2356,N,12204.6898,W,8.75,275.95,190526,,,A*78
$GPRMC,092320.000,A,3725.2359,N,12204.6929,W,8.75,275.20,190526,,,A*78
$GPRMC,092321.000,A,3725.2361,N,12204.6959,W,8.75,275.15,190526,,,A*73
$GPRMC,092322.000,A,3725.2363,N,12204.6990,W,8.75,275.15,190526,,,A*77
$GPRMC,092323.000,A,3725.2366,N,12204.7020,W,8.75,275.15,190526,,,A*70
$GPRMC,092324.000,A,3725.2368,N,12204.7050,W,8.75,275.15,190526,,,A*7E
$GPRMC,092325.000,A,3725.2370,N,12204.7081,W,8.75,275.15,190526,,,A*7A
$GPRMC,092326.000,A,3725.2372,N,12204.7111,W,8.75,275.15,190526,,,A*73
$GPRMC,092327.000,A,3725.2374,N,12204.7142,W,8.75,275.15,190526,,,A*72
$GPRMC,092328.000,A,3725.2376,N,12204.7172,W,8.75,275.15,190526,,,A*7C
$GPRMC,092329.000,A,3725.2379,N,12204.7202,W,8.75,275.15,190526,,,A*76
$GPRMC,092330.000,A,3725.2381,N,12204.7233,W,8.75,275.15,190526,,,A*7B
$GPRMC,092331.000,A,3725.2383,N,12204.7263,W,8.75,275.15,190526,,,A*7D
$GPRMC,092332.000,A,3725.2385,N,12204.7294,W,8.75,275.15,190526,,,A*70
$GPRMC,092333.000,A,3725.2387,N,12204.7324,W,8.75,275.15,190526,,,A*79
$GPRMC,092334.000,A,3725.2389,N,12204.7355,W,8.75,275.15,190526,,,A*76
$GPRMC,092335.000,A,3725.2392,N,12204.7385,W,8.75,275.15,190526,,,A*70
$GPRMC,092336.000,A,3725.2394,N,12204.7415,W,8.75,275.15,190526,,,A*7B
$GPRMC,092337.000,A,3725.2396,N,12204.7446,W,8.75,274.75,190526,,,A*79
$GPRMC,092338.000,A,3725.2398,N,12204.7476,W,8.75,274.75,190526,,,A*7B
$GPRMC,092339.000,A,3725.2400,N,12204.7507,W,8.75,274.75,190526,,,A*7B
$GPRMC,092340.000,A,3725.2402,N,12204.7537,W,8.75,274.75,190526,,,A*74
$GPRMC,092341.000,A,3725.2404,N,12204.7568,W,8.75,274.75,190526,,,A*79
$GPRMC,092342.000,A,3725.2406,N,12204.7598,W,8.75,274.75,190526,,,A*77
$GPRMC,092343.000,A,3725.2408,N,12204.7628,W,8.75,274.75,190526,,,A*70
$GPRMC,092344.000,A,3725.2410,N,12204.7659,W,8.75,274.75,190526,,,A*78
$GPRMC,092345.000,A,3725.2412,N,12204.7689,W,8.75,274.75,190526,,,A*76
$GPRMC,092346.000,A,3725.2414,N,12204.7720,W,8.75,274.75,190526,,,A*71
$GPRMC,092347.000,A,3725.2416,N,12204.7750,W,8.75,274.75,190526,,,A*75
$GPRMC,092348.000,A,3725.2418,N,12204.7781,W,8.75,274.75,190526,,,A*78
$GPRMC,092349.000,A,3725.2420,N,12204.7811,W,8.75,274.75,190526,,,A*74
$GPRMC,092350.000,A,3725.2422,N,12204.7841,W,8.75,274.75,190526,,,A*7B
$GPRMC,092351.000,A,3725.2424,N,12204.7872,W,8.75,274.75,190526,,,A*7C
$GPRMC,092352.000,A,3725.2426,N,12204.7902,W,8.75,274.75,190526,,,A*7B
$GPRMC,092353.000,A,3725.2428,N,12204.7933,W,8.75,274.75,190526,,,A*76
$GPRMC,092354.000,A,3725.2430,N,12204.7963,W,8.75,274.70,190526,,,A*78
$GPRMC,092355.000,A,3725.2432,N,12204.7994,W,8.75,274.14,190526,,,A*71
$GPRMC,092356.000,A,3725.2434,N,12204.8024,W,8.75,274.14,190526,,,A*79
$GPRMC,092357.000,A,3725.2436,N,12204.8055,W,8.75,274.14,190526,,,A*7C
$GPRMC,092358.000,A,3725.2437,N,12204.8085,W,8.75,274.14,190526,,,A*7F
$GPRMC,092359.000,A,3725.2439,N,12204.8115,W,8.75,274.86,190526,,,A*73
$GPRMC,092400.000,A,3725.2441,N,12204.8146,W,8.75,274.07,190526,,,A*78
$GPRMC,092401.000,A,3725.2443,N,12204.8176,W,8.75,273.88,190526,,,A*78
$GPRMC,092402.000,A,3725.2445,N,12204.8207,W,8.75,273.88,190526,,,A*78
$GPRMC,092403.000,A,3725.2446,N,12204.8237,W,8.75,273.88,190526,,,A*79
$GPRMC,092404.000,A,3725.2448,N,12204.8268,W,6.23,238.05,190526,,,A*7D
$GPRMC,092405.000,A,3725.2439,N,12204.8286,W,8.75,183.03,190526,,,A*72
$GPRMC,092406.000,A,3725.2414,N,12204.8288,W,8.74,182.06,190526,,,A*75
$GPRMC,092407.000,A,3725.2390,N,12204.8289,W,8.75,178.22,190526,,,A*7C
$GPRMC,092408.000,A,3725.2365,N,12204.8288,W,8.75,178.22,190526,,,A*78
$GPRMC,092409.000,A,3725.2341,N,12204.8287,W,8.75,178.30,190526,,,A*73
$GPRMC,092410.000,A,3725.2317,N,12204.8286,W,8.75,178.94,190526,,,A*77
$GPRMC,092411.000,A,3725.2292,N,12204.8286,W,8.75,179.18,190526,,,A*7F
$GPRMC,092412.000,A,3725.2268,N,12204.8285,W,8.75,179.19,190526,,,A*7B
$GPRMC,092413.000,A,3725.2243,N,12204.8285,W,8.75,179.19,190526,,,A*73
$GPRMC,092414.000,A,3725.2219,N,12204.8284,W,8.75,179.19,190526,,,A*7A
$GPRMC,092415.000,A,3725.2195,N,12204.8284,W,8.75,180.18,190526,,,A*7B
$GPRMC,092416.000,A,3725.2170,N,12204.8284,W,8.75,180.36,190526,,,A*7F
$GPRMC,092417.000,A,3725.2146,N,12204.8284,W,8.75,180.36,190526,,,A*7B
$GPRMC,092418.000,A,3725.2121,N,12204.8284,W,8.75,180.36,190526,,,A*75
$GPRMC,092419.000,A,3725.2097,N,12204.8285,W,8.75,180.36,190526,,,A*79
$GPRMC,092420.000,A,3725.2072,N,12204.8285,W,8.75,180.36,190526,,,A*78
$GPRMC,092421.000,A,3725.2048,N,12204.8285,W,8.75,180.29,190526,,,A*7E
$GPRMC,092422.000,A,3725.2024,N,12204.8285,W,8.75,180.25,190526,,,A*7B
$GPRMC,092423.000,A,3725.1999,N,12204.8285,W,8.75,180.25,190526,,,A*76
$GPRMC,092424.000,A,3725.1975,N,12204.8285,W,8.75,180.25,190526,,,A*73
$GPRMC,092425.000,A,3725.1950,N,12204.8285,W,8.75,180.25,190526,,,A*75
$GPRMC,092426.000,A,3725.1926,N,12204.8286,W,8.75,180.25,190526,,,A*74
$GPRMC,092427.000,A,3725.1901,N,12204.8286,W,8.75,180.25,190526,,,A*70
$GPRMC,092428.000,A,3725.1877,N,12204.8286,W,8.75,180.25,190526,,,A*7F
$GPRMC,092429.000,A,3725.1853,N,12204.8286,W,8.75,180.25,190526,,,A*78
$GPRMC,092430.000,A,3725.1828,N,12204.8286,W,8.75,180.25,190526,,,A*7C
$GPRMC,092431.000,A,3725.1804,N,12204.8286,W,8.75,180.25,190526,,,A*73
$GPRMC,092432.000,A,3725.1779,N,12204.8286,W,8.75,180.25,190526,,,A*75
$GPRMC,092433.000,A,3725.1755,N,12204.8287,W,8.75,180.25,190526,,,A*7B
$GPRMC,092434.000,A,3725.1730,N,12204.8287,W,6.59,205.06,190526,,,A*70
$GPRMC,092435.000,A,3725.1714,N,12204.8297,W,8.75,270.00,190526,,,A*72
$GPRMC,092436.000,A,3725.1714,N,12204.8327,W,8.75,270.24,190526,,,A*7D
$GPRMC,092437.000,A,3725.1714,N,12204.8358,W,8.75,270.34,190526,,,A*75
$GPRMC,092438.000,A,3725.1714,N,12204.8388,W,8.75,270.34,190526,,,A*77
$GPRMC,092439.000,A,3725.1714,N,12204.8419,W,8.75,270.34,190526,,,A*79
$GPRMC,092440.000,A,3725.1714,N,12204.8449,W,6.19,320.49,190526,,,A*78
$GPRMC,092441.000,A,3725.1728,N,12204.8463,W,8.75,0.63,190526,,,A*73
$GPRMC,092442.000,A,3725.1752,N,12204.8463,W,8.75,0.14,190526,,,A*7D
$GPRMC,092443.000,A,3725.1776,N,12204.8463,W,8.75,0.00,190526,,,A*7F
$GPRMC,092444.000,A,3725.1801,N,12204.8463,W,7.26,283.47,190526,,,A*74
$GPRMC,092445.000,A,3725.1806,N,12204.8487,W,8.75,270.00,190526,,,A*7E
$GPRMC,092446.000,A,3725.1806,N,12204.8518,W,8.75,270.00,190526,,,A*7A
$GPRMC,092447.000,A,3725.1806,N,12204.8548,W,8.75,270.00,190526,,,A*7E
$GPRMC,092448.000,A,3725.1806,N,12204.8579,W,7.98,275.87,190526,,,A*75
$GPRMC,092449.000,A,3725.1808,N,12204.8607,W,8.75,0.18,190526,,,A*7A
$GPRMC,092450.000,A,3725.1832,N,12204.8606,W,8.75,0.18,190526,,,A*7A
$GPRMC,092451.000,A,3725.1857,N,12204.8606,W,8.75,0.18,190526,,,A*78
$GPRMC,092452.000,A,3725.1881,N,12204.8606,W,8.75,0.18,190526,,,A*70
$GPRMC,092453.000,A,3725.1906,N,12204.8606,W,8.75,0.18,190526,,,A*7F
$GPRMC,092454.000,A,3725.1930,N,12204.8606,W,8.75,0.18,190526,,,A*7D
$GPRMC,092455.000,A,3725.1954,N,12204.8606,W,8.75,0.18,190526,,,A*7E
$GPRMC,092456.000,A,3725.1979,N,12204.8606,W,8.75,0.18,190526,,,A*72
$GPRMC,092457.000,A,3725.2003,N,12204.8606,W,8.75,0.18,190526,,,A*74
$GPRMC,092458.000,A,3725.2028,N,12204.8606,W,8.75,0.18,190526,,,A*72
$GPRMC,092459.000,A,3725.2052,N,12204.8606,W,8.75,0.18,190526,,,A*7E
$GPRMC,092500.000,A,3725.2077,N,12204.8605,W,8.75,0.19,190526,,,A*76
$GPRMC,092501.000,A,3725.2101,N,12204.8605,W,8.75,0.22,190526,,,A*7F
$GPRMC,092502.000,A,3725.2125,N,12204.8605,W,8.75,0.22,190526,,,A*7A
$GPRMC,092503.000,A,3725.2150,N,12204.8605,W,8.75,0.22,190526,,,A*79
$GPRMC,092504.000,A,3725.2174,N,12204.8605,W,8.75,0.22,190526,,,A*78
$GPRMC,092505.000,A,3725.2199,N,12204.8605,W,8.75,0.22,190526,,,A*7A
$GPRMC,092506.000,A,3725.2223,N,12204.8605,W,7.71,278.35,190526,,,A*7B
$GPRMC,092507.000,A,3725.2226,N,12204.8631,W,8.75,270.00,190526,,,A*7D
$GPRMC,092508.000,A,3725.2226,N,12204.8662,W,8.75,270.00,190526,,,A*74
$GPRMC,092509.000,A,3725.2226,N,12204.8693,W,8.75,270.00,190526,,,A*7B
$GPRMC,092510.000,A,3725.2226,N,12204.8723,W,8.75,270.00,190526,,,A*79
$GPRMC,092511.000,A,3725.2226,N,12204.8754,W,8.75,270.00,190526,,,A*78
$GPRMC,092512.000,A,3725.2226,N,12204.8784,W,8.75,270.00,190526,,,A*76
$GPRMC,092513.000,A,3725.2226,N,12204.8815,W,8.74,267.94,190526,,,A*7A
$GPRMC,092514.000,A,3725.2225,N,12204.8845,W,8.22,251.08,190526,,,A*78
$GPRMC,092515.000,A,3725.2218,N,12204.8872,W,8.55,210.05,190526,,,A*7B
$GPRMC,092516.000,A,3725.2197,N,12204.8887,W,8.66,187.41,190526,,,A*7B
$GPRMC,092517.000,A,3725.2173,N,12204.8891,W,8.75,180.92,190526,,,A*7C
$GPRMC,092518.000,A,3725.2149,N,12204.8892,W,8.75,180.89,190526,,,A*73
$GPRMC,092519.000,A,3725.2124,N,12204.8892,W,8.75,180.74,190526,,,A*7B
$GPRMC,092520.000,A,3725.2100,N,12204.8893,W,8.75,180.74,190526,,,A*76
$GPRMC,092521.000,A,3725.2076,N,12204.8893,W,8.75,180.74,190526,,,A*77
$GPRMC,092522.000,A,3725.2051,N,12204.8893,W,8.75,180.74,190526,,,A*71
$GPRMC,092523.000,A,3725.2027,N,12204.8894,W,8.75,180.74,190526,,,A*76
$GPRMC,092524.000,A,3725.2002,N,12204.8894,W,8.75,180.74,190526,,,A*76
$GPRMC,092525.000,A,3725.1978,N,12204.8895,W,8.75,180.74,190526,,,A*71
$GPRMC,092526.000,A,3725.1954,N,12204.8895,W,8.75,180.65,190526,,,A*7C
$GPRMC,092527.000,A,3725.1929,N,12204.8895,W,8.75,180.60,190526,,,A*72
$GPRMC,092528.000,A,3725.1905,N,12204.8896,W,8.75,180.60,190526,,,A*70
$GPRMC,092529.000,A,3725.1880,N,12204.8896,W,8.75,180.60,190526,,,A*7D
$GPRMC,092530.000,A,3725.1856,N,12204.8896,W,8.75,180.60,190526,,,A*7E
$GPRMC,092531.000,A,3725.1831,N,12204.8897,W,8.75,180.60,190526,,,A*7F
$GPRMC,092532.000,A,3725.1807,N,12204.8897,W,8.75,180.56,190526,,,A*7C
$GPRMC,092533.000,A,3725.1783,N,12204.8897,W,8.75,180.55,190526,,,A*7D
$GPRMC,092534.000,A,3725.1758,N,12204.8898,W,8.75,180.00,190526,,,A*73
$GPRMC,092535.000,A,3725.1734,N,12204.8898,W,6.98,196.99,190526,,,A*72
$GPRMC,092536.000,A,3725.1715,N,12204.8905,W,8.75,270.71,190526,,,A*77
$GPRMC,092537.000,A,3725.1715,N,12204.8935,W,8.75,270.71,190526,,,A*75
$GPRMC,092538.000,A,3725.1716,N,12204.8966,W,8.75,270.71,190526,,,A*7F
$GPRMC,092539.000,A,3725.1716,N,12204.8996,W,8.75,270.46,190526,,,A*75
$GPRMC,092540.000,A,3725.1716,N,12204.9027,W,8.75,269.68,190526,,,A*7D
$GPRMC,092541.000,A,3725.1716,N,12204.9057,W,8.75,269.68,190526,,,A*7B
$GPRMC,092542.000,A,3725.1716,N,12204.9088,W,8.75,269.68,190526,,,A*7A
$GPRMC,092543.000,A,3725.1716,N,12204.9119,W,8.75,269.68,190526,,,A*72
$GPRMC,092544.000,A,3725.1716,N,12204.9149,W,8.75,269.68,190526,,,A*70
$GPRMC,092545.000,A,3725.1715,N,12204.9180,W,8.75,269.68,190526,,,A*77
$GPRMC,092546.000,A,3725.1715,N,12204.9210,W,8.75,269.68,190526,,,A*7E
$GPRMC,092547.000,A,3725.1715,N,12204.9241,W,8.75,269.68,190526,,,A*7B
$GPRMC,092548.000,A,3725.1715,N,12204.9271,W,8.75,269.93,190526,,,A*73
$GPRMC,092549.000,A,3725.1715,N,12204.9302,W,8.75,270.62,190526,,,A*71
$GPRMC,092550.000,A,3725.1715,N,12204.9332,W,8.75,270.62,190526,,,A*7A
$GPRMC,092551.000,A,3725.1716,N,12204.9363,W,8.75,270.62,190526,,,A*7C
$GPRMC,092552.000,A,3725.1716,N,12204.9393,W,8.75,270.62,190526,,,A*70
$GPRMC,092553.000,A,3725.1716,N,12204.9424,W,8.75,270.62,190526,,,A*7A
$GPRMC,092554.000,A,3725.1716,N,12204.9454,W,8.75,270.62,190526,,,A*7A
$GPRMC,092555.000,A,3725.1717,N,12204.9485,W,8.75,270.39,190526,,,A*78
$GPRMC,092556.000,A,3725.1717,N,12204.9516,W,8.75,270.00,190526,,,A*7A
$GPRMC,092557.000,A,3725.1717,N,12204.9546,W,7.52,280.15,190526,,,A*7F
$GPRMC,092558.000,A,3725.1720,N,12204.9572,W,8.75,1.01,190526,,,A*77
$GPRMC,092559.000,A,3725.1745,N,12204.9571,W,8.75,1.01,190526,,,A*76
$GPRMC,092600.000,A,3725.1769,N,12204.9571,W,8.75,0.35,190526,,,A*71
$GPRMC,092601.000,A,3725.1794,N,12204.9571,W,8.75,0.31,190526,,,A*76
$GPRMC,092602.000,A,3725.1818,N,12204.9570,W,8.75,0.31,190526,,,A*7F
$GPRMC,092603.000,A,3725.1843,N,12204.9570,W,8.75,0.31,190526,,,A*70
$GPRMC,092604.000,A,3725.1867,N,12204.9570,W,8.75,0.31,190526,,,A*71
$GPRMC,092605.000,A,3725.1891,N,12204.9570,W,8.75,0.31,190526,,,A*79
$GPRMC,092606.000,A,3725.1916,N,12204.9570,W,8.75,0.31,190526,,,A*74
$GPRMC,092607.000,A,3725.1940,N,12204.9570,W,8.75,0.38,190526,,,A*7F
$GPRMC,092608.000,A,3725.1965,N,12204.9569,W,8.75,0.41,190526,,,A*71
$GPRMC,092609.000,A,3725.1989,N,12204.9569,W,8.75,0.41,190526,,,A*72
$GPRMC,092610.000,A,3725.2014,N,12204.9569,W,8.75,0.41,190526,,,A*74
$GPRMC,092611.000,A,3725.2038,N,12204.9569,W,8.75,0.41,190526,,,A*7B
$GPRMC,092612.000,A,3725.2062,N,12204.9569,W,8.75,0.41,190526,,,A*77
$GPRMC,092613.000,A,3725.2087,N,12204.9568,W,8.75,0.41,190526,,,A*7C
$GPRMC,092614.000,A,3725.2111,N,12204.9568,W,8.75,0.41,190526,,,A*75
$GPRMC,092615.000,A,3725.2136,N,12204.9568,W,8.75,0.40,190526,,,A*70
$GPRMC,092616.000,A,3725.2160,N,12204.9568,W,8.75,0.39,190526,,,A*7E
$GPRMC,092617.000,A,3725.2185,N,12204.9567,W,8.75,0.39,190526,,,A*7B
$GPRMC,092618.000,A,3725.2209,N,12204.9567,W,8.75,0.39,190526,,,A*73
$GPRMC,092619.000,A,3725.2233,N,12204.9567,W,8.75,0.39,190526,,,A*7B
$GPRMC,092620.000,A,3725.2258,N,12204.9567,W,8.75,0.39,190526,,,A*7C
$GPRMC,092621.000,A,3725.2282,N,12204.9567,W,8.75,0.39,190526,,,A*7A
$GPRMC,092622.000,A,3725.2307,N,12204.9566,W,8.75,0.39,190526,,,A*74
$GPRMC,092623.000,A,3725.2331,N,12204.9566,W,6.80,0.39,190526,,,A*74
$GPRMC,092624.000,A,3725.2350,N,12204.9566,W,8.75,180.40,190526,,,A*77
$GPRMC,092625.000,A,3725.2326,N,12204.9566,W,8.75,180.40,190526,,,A*77
$GPRMC,092626.000,A,3725.2301,N,12204.9566,W,8.75,180.40,190526,,,A*71
$GPRMC,092627.000,A,3725.2277,N,12204.9567,W,8.75,180.40,190526,,,A*71
$GPRMC,092628.000,A,3725.2252,N,12204.9567,W,8.75,180.40,190526,,,A*79
$GPRMC,092629.000,A,3725.2228,N,12204.9567,W,8.75,180.40,190526,,,A*75
$GPRMC,092630.000,A,3725.2204,N,12204.9567,W,8.75,180.40,190526,,,A*73
$GPRMC,092631.000,A,3725.2179,N,12204.9568,W,8.75,180.40,190526,,,A*74
$GPRMC,092632.000,A,3725.2155,N,12204.9568,W,8.75,180.40,190526,,,A*79
$GPRMC,092633.000,A,3725.2130,N,12204.9568,W,8.75,180.40,190526,,,A*7B
$GPRMC,092634.000,A,3725.2106,N,12204.9568,W,8.75,180.40,190526,,,A*79
$GPRMC,092635.000,A,3725.2081,N,12204.9568,W,8.75,180.40,190526,,,A*76
$GPRMC,092636.000,A,3725.2057,N,12204.9569,W,8.75,180.40,190526,,,A*7F
$GPRMC,092637.000,A,3725.2033,N,12204.9569,W,8.75,180.40,190526,,,A*7C
$GPRMC,092638.000,A,3725.2008,N,12204.9569,W,8.75,180.40,190526,,,A*7B
$GPRMC,092639.000,A,3725.1984,N,12204.9569,W,8.75,180.40,190526,,,A*74
$GPRMC,092640.000,A,3725.1959,N,12204.9569,W,8.75,180.35,190526,,,A*78
$GPRMC,092641.000,A,3725.1935,N,12204.9570,W,8.75,180.31,190526,,,A*7F
$GPRMC,092642.000,A,3725.1910,N,12204.9570,W,8.75,180.31,190526,,,A*7B
$GPRMC,092643.000,A,3725.1886,N,12204.9570,W,8.75,180.31,190526,,,A*74
$GPRMC,092644.000,A,3725.1862,N,12204.9570,W,8.75,180.31,190526,,,A*79
$GPRMC,092645.000,A,3725.1837,N,12204.9570,W,8.75,180.31,190526,,,A*78
$GPRMC,092646.000,A,3725.1813,N,12204.9571,W,8.75,180.31,190526,,,A*7C
$GPRMC,092647.000,A,3725.1788,N,12204.9571,W,8.75,180.51,190526,,,A*76
$GPRMC,092648.000,A,3725.1764,N,12204.9571,W,8.75,181.01,190526,,,A*7F
$GPRMC,092649.000,A,3725.1739,N,12204.9571,W,8.15,185.43,190526,,,A*72
$GPRMC,092650.000,A,3725.1717,N,12204.9574,W,8.75,270.34,190526,,,A*7C
$GPRMC,092651.000,A,3725.1717,N,12204.9605,W,8.75,270.34,190526,,,A*78
$GPRMC,092652.000,A,3725.1717,N,12204.9635,W,8.75,270.34,190526,,,A*78
$GPRMC,092653.000,A,3725.1717,N,12204.9666,W,8.75,270.34,190526,,,A*7F
$GPRMC,092654.000,A,3725.1717,N,12204.9696,W,8.75,270.04,190526,,,A*74
$GPRMC,092655.000,A,3725.1717,N,12204.9727,W,6.44,297.24,190526,,,A*79
$GPRMC,092656.000,A,3725.1726,N,12204.9747,W,8.75,0.93,190526,,,A*72
$GPRMC,092657.000,A,3725.1750,N,12204.9746,W,8.75,0.55,190526,,,A*79
$GPRMC,092658.000,A,3725.1774,N,12204.9746,W,8.75,0.55,190526,,,A*70
$GPRMC,092659.000,A,3725.1799,N,12204.9746,W,8.75,0.55,190526,,,A*72
$GPRMC,092700.000,A,3725.1823,N,12204.9746,W,8.75,0.55,190526,,,A*71
$GPRMC,092701.000,A,3725.1848,N,12204.9745,W,8.75,0.55,190526,,,A*7E
$GPRMC,092702.000,A,3725.1872,N,12204.9745,W,8.75,0.55,190526,,,A*74
$GPRMC,092703.000,A,3725.1897,N,12204.9745,W,8.75,0.55,190526,,,A*7E
$GPRMC,092704.000,A,3725.1921,N,12204.9744,W,8.75,0.55,190526,,,A*74
$GPRMC,092705.000,A,3725.1945,N,12204.9744,W,8.75,0.55,190526,,,A*77
$GPRMC,092706.000,A,3725.1970,N,12204.9744,W,8.75,0.55,190526,,,A*72
$GPRMC,092707.000,A,3725.1994,N,12204.9743,W,8.75,0.55,190526,,,A*7E
$GPRMC,092708.000,A,3725.2019,N,12204.9743,W,8.75,0.55,190526,,,A*7E
$GPRMC,092709.000,A,3725.2043,N,12204.9743,W,8.75,0.55,190526,,,A*70
$GPRMC,092710.000,A,3725.2068,N,12204.9743,W,8.75,0.55,190526,,,A*71
$GPRMC,092711.000,A,3725.2092,N,12204.9742,W,8.75,0.55,190526,,,A*74
$GPRMC,092712.000,A,3725.2116,N,12204.9742,W,8.75,0.58,190526,,,A*77
$GPRMC,092713.000,A,3725.2141,N,12204.9742,W,8.75,0.61,190526,,,A*7E
$GPRMC,092714.000,A,3725.2165,N,12204.9741,W,8.75,359.97,190526,,,A*7A
$GPRMC,092715.000,A,3725.2190,N,12204.9741,W,8.75,359.47,190526,,,A*7C
$GPRMC,092716.000,A,3725.2214,N,12204.9742,W,8.75,359.47,190526,,,A*73
$GPRMC,092717.000,A,3725.2238,N,12204.9742,W,8.75,359.47,190526,,,A*7C
$GPRMC,092718.000,A,3725.2263,N,12204.9742,W,8.75,359.10,190526,,,A*7F
$GPRMC,092719.000,A,3725.2287,N,12204.9743,W,8.75,358.28,190526,,,A*7F
$GPRMC,092720.000,A,3725.2312,N,12204.9744,W,8.75,358.28,190526,,,A*7F
$GPRMC,092721.000,A,3725.2336,N,12204.9745,W,8.75,358.28,190526,,,A*79
$GPRMC,092722.000,A,3725.2361,N,12204.9745,W,8.75,358.28,190526,,,A*78
$GPRMC,092723.000,A,3725.2385,N,12204.9746,W,8.75,0.42,190526,,,A*72
$GPRMC,092724.000,A,3725.2409,N,12204.9746,W,8.75,0.30,190526,,,A*73
$GPRMC,092725.000,A,3725.2434,N,12204.9746,W,8.75,0.00,190526,,,A*7F
$GPRMC,092726.000,A,3725.2458,N,12204.9746,W,8.75,0.06,190526,,,A*70
$GPRMC,092727.000,A,3725.2483,N,12204.9746,W,8.75,1.00,190526,,,A*70
$GPRMC,092728.000,A,3725.2507,N,12204.9745,W,8.75,1.00,190526,,,A*71
$GPRMC,092729.000,A,3725.2532,N,12204.9745,W,7.47,286.40,190526,,,A*71
$GPRMC,092730.000,A,3725.2537,N,12204.9770,W,8.75,274.55,190526,,,A*7D
$GPRMC,092731.000,A,3725.2539,N,12204.9800,W,8.75,274.55,190526,,,A*7A
$GPRMC,092732.000,A,3725.2541,N,12204.9831,W,8.75,274.60,190526,,,A*72
$GPRMC,092733.000,A,3725.2543,N,12204.9861,W,8.75,274.76,190526,,,A*73
$GPRMC,092734.000,A,3725.2545,N,12204.9892,W,8.75,273.40,190526,,,A*7C
$GPRMC,092735.000,A,3725.2547,N,12204.9922,W,8.75,273.40,190526,,,A*75
$GPRMC,092736.000,A,3725.2548,N,12204.9953,W,8.75,273.40,190526,,,A*7F
$GPRMC,092737.000,A,3725.2550,N,12204.9983,W,8.75,273.16,190526,,,A*79
$GPRMC,092738.000,A,3725.2551,N,12205.0014,W,8.75,271.04,190526,,,A*79
$GPRMC,092739.000,A,3725.2551,N,12205.0044,W,8.75,271.04,190526,,,A*7D
$GPRMC,092740.000,A,3725.2552,N,12205.0075,W,8.75,271.04,190526,,,A*72
$GPRMC,092741.000,A,3725.2552,N,12205.0105,W,8.75,271.04,190526,,,A*75
$GPRMC,092742.000,A,3725.2553,N,12205.0136,W,8.75,271.04,190526,,,A*77
$GPRMC,092743.000,A,3725.2553,N,12205.0166,W,8.74,272.86,190526,,,A*7B
$GPRMC,092744.000,A,3725.2554,N,12205.0197,W,8.75,273.98,190526,,,A*7A
$GPRMC,092745.000,A,3725.2556,N,12205.0227,W,8.75,274.39,190526,,,A*7D
$GPRMC,092746.000,A,3725.2558,N,12205.0258,W,8.75,274.04,190526,,,A*76
$GPRMC,092747.000,A,3725.2560,N,12205.0288,W,8.75,273.77,190526,,,A*72
$GPRMC,092748.000,A,3725.2561,N,12205.0319,W,8.75,273.77,190526,,,A*75
$GPRMC,092749.000,A,3725.2563,N,12205.0349,W,8.75,273.77,190526,,,A*73
$GPRMC,092750.000,A,3725.2564,N,12205.0380,W,8.75,273.77,190526,,,A*79
$GPRMC,092751.000,A,3725.2566,N,12205.0410,W,8.75,273.77,190526,,,A*74
$GPRMC,092752.000,A,3725.2567,N,12205.0441,W,8.75,273.77,190526,,,A*72
$GPRMC,092753.000,A,3725.2569,N,12205.0471,W,8.75,273.77,190526,,,A*7E
$GPRMC,092754.000,A,3725.2571,N,12205.0502,W,8.75,273.77,190526,,,A*75
$GPRMC,092755.000,A,3725.2572,N,12205.0532,W,8.75,273.77,190526,,,A*74
$GPRMC,092756.000,A,3725.2574,N,12205.0562,W,8.75,273.77,190526,,,A*74
$GPRMC,092757.000,A,3725.2575,N,12205.0593,W,8.75,273.77,190526,,,A*7A
$GPRMC,092758.000,A,3725.2577,N,12205.0623,W,8.75,273.77,190526,,,A*7F
$GPRMC,092759.000,A,3725.2579,N,12205.0654,W,8.75,273.77,190526,,,A*70
$GPRMC,092800.000,A,3725.2580,N,12205.0684,W,8.75,273.77,190526,,,A*78
$GPRMC,092801.000,A,3725.2582,N,12205.0715,W,8.75,273.77,190526,,,A*72
$GPRMC,092802.000,A,3725.2583,N,12205.0745,W,8.75,273.77,190526,,,A*75
$GPRMC,092803.000,A,3725.2585,N,12205.0776,W,8.75,273.77,190526,,,A*72
$GPRMC,092804.000,A,3725.2587,N,12205.0806,W,8.75,274.02,190526,,,A*7A
$GPRMC,092805.000,A,3725.2588,N,12205.0837,W,8.75,274.05,190526,,,A*71
$GPRMC,092806.000,A,3725.2590,N,12205.0867,W,8.75,274.05,190526,,,A*7E
$GPRMC,092807.000,A,3725.2592,N,12205.0898,W,8.75,274.05,190526,,,A*7D
$GPRMC,092808.000,A,3725.2593,N,12205.0928,W,8.75,274.05,190526,,,A*79
$GPRMC,092809.000,A,3725.2595,N,12205.0959,W,8.75,276.06,190526,,,A*79
$GPRMC,092810.000,A,3725.2598,N,12205.0989,W,8.75,276.06,190526,,,A*71
$GPRMC,092811.000,A,3725.2600,N,12205.1019,W,8.75,276.06,190526,,,A*73
$GPRMC,092812.000,A,3725.2603,N,12205.1050,W,8.75,276.06,190526,,,A*7E
$GPRMC,092813.000,A,3725.2605,N,12205.1080,W,8.75,276.06,190526,,,A*74
$GPRMC,092814.000,A,3725.2608,N,12205.1110,W,8.75,275.04,190526,,,A*77
$GPRMC,092815.000,A,3725.2610,N,12205.1141,W,8.75,275.87,190526,,,A*70
$GPRMC,092816.000,A,3725.2613,N,12205.1171,W,6.69,254.47,190526,,,A*7F
$GPRMC,092817.000,A,3725.2608,N,12205.1194,W,8.75,183.72,190526,,,A*73
$GPRMC,092818.000,A,3725.2583,N,12205.1196,W,8.75,183.72,190526,,,A*7E
$GPRMC,092819.000,A,3725.2559,N,12205.1198,W,6.34,132.17,190526,,,A*74
$GPRMC,092820.000,A,3725.2547,N,12205.1181,W,8.75,95.59,190526,,,A*44
$GPRMC,092821.000,A,3725.2545,N,12205.1151,W,8.75,95.58,190526,,,A*4B
$GPRMC,092822.000,A,3725.2542,N,12205.1120,W,8.75,95.57,190526,,,A*46
$GPRMC,092823.000,A,3725.2540,N,12205.1090,W,8.75,95.57,190526,,,A*4F
$GPRMC,092824.000,A,3725.2538,N,12205.1060,W,8.75,95.57,190526,,,A*48
$GPRMC,092825.000,A,3725.2535,N,12205.1029,W,8.75,95.57,190526,,,A*49
$GPRMC,092826.000,A,3725.2533,N,12205.0999,W,8.75,95.57,190526,,,A*4F
$GPRMC,092827.000,A,3725.2531,N,12205.0969,W,8.75,94.09,190526,,,A*49
$GPRMC,092828.000,A,3725.2529,N,12205.0938,W,8.75,93.37,190526,,,A*41
$GPRMC,092829.000,A,3725.2527,N,12205.0908,W,8.75,93.37,190526,,,A*4D
$GPRMC,092830.000,A,3725.2526,N,12205.0877,W,8.75,93.37,190526,,,A*4D
$GPRMC,092831.000,A,3725.2525,N,12205.0847,W,8.75,93.37,190526,,,A*4C
$GPRMC,092832.000,A,3725.2523,N,12205.0816,W,8.75,93.37,190526,,,A*4D
$GPRMC,092833.000,A,3725.2522,N,12205.0786,W,8.75,93.37,190526,,,A*4B
$GPRMC,092834.000,A,3725.2520,N,12205.0755,W,8.75,93.37,190526,,,A*40
$GPRMC,092835.000,A,3725.2519,N,12205.0725,W,8.75,93.37,190526,,,A*4C
$GPRMC,092836.000,A,3725.2517,N,12205.0694,W,8.75,93.37,190526,,,A*4A
$GPRMC,092837.000,A,3725.2516,N,12205.0664,W,8.75,93.37,190526,,,A*45
$GPRMC,092838.000,A,3725.2515,N,12205.0633,W,8.75,93.37,190526,,,A*4B
$GPRMC,092839.000,A,3725.2513,N,12205.0603,W,8.75,93.37,190526,,,A*4F
$GPRMC,092840.000,A,3725.2512,N,12205.0572,W,8.75,93.37,190526,,,A*45
$GPRMC,092841.000,A,3725.2510,N,12205.0542,W,8.75,93.37,190526,,,A*45
$GPRMC,092842.000,A,3725.2509,N,12205.0511,W,8.75,93.37,190526,,,A*48
$GPRMC,092843.000,A,3725.2507,N,12205.0481,W,8.75,93.37,190526,,,A*4F
$GPRMC,092844.000,A,3725.2506,N,12205.0450,W,8.75,93.37,190526,,,A*45
$GPRMC,092845.000,A,3725.2505,N,12205.0420,W,8.75,93.37,190526,,,A*40
$GPRMC,092846.000,A,3725.2503,N,12205.0389,W,8.75,93.37,190526,,,A*41
$GPRMC,092847.000,A,3725.2502,N,12205.0359,W,8.75,93.37,190526,,,A*4C
$GPRMC,092848.000,A,3725.2500,N,12205.0328,W,8.75,93.37,190526,,,A*47
$GPRMC,092849.000,A,3725.2499,N,12205.0298,W,8.75,93.37,190526,,,A*4D
$GPRMC,092850.000,A,3725.2497,N,12205.0267,W,8.75,93.37,190526,,,A*4B
$GPRMC,092851.000,A,3725.2496,N,12205.0237,W,8.75,92.39,190526,,,A*41
$GPRMC,092852.000,A,3725.2495,N,12205.0206,W,8.75,91.94,190526,,,A*47
$GPRMC,092853.000,A,3725.2494,N,12205.0176,W,8.75,91.94,190526,,,A*43
$GPRMC,092854.000,A,3725.2493,N,12205.0145,W,8.75,91.94,190526,,,A*43
$GPRMC,092855.000,A,3725.2493,N,12205.0115,W,8.75,91.94,190526,,,A*47
$GPRMC,092856.000,A,3725.2492,N,12205.0084,W,8.75,91.94,190526,,,A*4C
$GPRMC,092857.000,A,3725.2491,N,12205.0054,W,8.75,91.94,190526,,,A*43
$GPRMC,092858.000,A,3725.2490,N,12205.0023,W,8.75,91.94,190526,,,A*4D
$GPRMC,092859.000,A,3725.2489,N,12204.9993,W,8.75,91.94,190526,,,A*4E
$GPRMC,092900.000,A,3725.2488,N,12204.9962,W,8.75,91.94,190526,,,A*4C
$GPRMC,092901.000,A,3725.2488,N,12204.9932,W,8.74,93.26,190526,,,A*42
$GPRMC,092902.000,A,3725.2486,N,12204.9901,W,8.74,93.05,190526,,,A*4E
$GPRMC,092903.000,A,3725.2485,N,12204.9871,W,8.75,92.10,190526,,,A*4E
$GPRMC,092904.000,A,3725.2484,N,12204.9840,W,8.75,92.21,190526,,,A*48
$GPRMC,092905.000,A,3725.2483,N,12204.9810,W,8.75,92.21,190526,,,A*4B
$GPRMC,092906.000,A,3725.2482,N,12204.9779,W,8.75,92.21,190526,,,A*49
$GPRMC,092907.000,A,3725.2481,N,12204.9749,W,8.03,6.25,190526,,,A*70
$GPRMC,092908.000,A,3725.2504,N,12204.9746,W,8.75,1.00,190526,,,A*7D
$GPRMC,092909.000,A,3725.2528,N,12204.9745,W,8.75,2.53,190526,,,A*74
$GPRMC,092910.000,A,3725.2552,N,12204.9744,W,8.75,3.25,190526,,,A*70
$GPRMC,092911.000,A,3725.2577,N,12204.9742,W,8.75,3.49,190526,,,A*7A
$GPRMC,092912.000,A,3725.2601,N,12204.9740,W,8.75,3.64,190526,,,A*76
$GPRMC,092913.000,A,3725.2626,N,12204.9738,W,8.75,3.15,190526,,,A*7B
$GPRMC,092914.000,A,3725.2650,N,12204.9736,W,8.75,3.15,190526,,,A*73
$GPRMC,092915.000,A,3725.2674,N,12204.9735,W,8.74,5.29,190526,,,A*7F
$GPRMC,092916.000,A,3725.2699,N,12204.9732,W,8.75,6.70,190526,,,A*76
$GPRMC,092917.000,A,3725.2723,N,12204.9728,W,8.75,6.70,190526,,,A*7C
$GPRMC,092918.000,A,3725.2747,N,12204.9725,W,8.75,6.70,190526,,,A*7C
$GPRMC,092919.000,A,3725.2771,N,12204.9721,W,8.73,9.79,190526,,,A*7C
$GPRMC,092920.000,A,3725.2795,N,12204.9716,W,8.73,14.84,190526,,,A*46
$GPRMC,092921.000,A,3725.2819,N,12204.9708,W,8.75,29.23,190526,,,A*46
$GPRMC,092922.000,A,3725.2840,N,12204.9693,W,8.70,41.04,190526,,,A*44
$GPRMC,092923.000,A,3725.2858,N,12204.9673,W,8.74,42.24,190526,,,A*47
$GPRMC,092924.000,A,3725.2877,N,12204.9652,W,8.75,40.62,190526,,,A*4F
$GPRMC,092925.000,A,3725.2895,N,12204.9632,W,8.69,24.87,190526,,,A*40
$GPRMC,092926.000,A,3725.2917,N,12204.9620,W,8.73,20.12,190526,,,A*48
$GPRMC,092927.000,A,3725.2940,N,12204.9609,W,8.75,15.37,190526,,,A*47
$GPRMC,092928.000,A,3725.2963,N,12204.9601,W,8.73,15.68,190526,,,A*4D
$GPRMC,092929.000,A,3725.2987,N,12204.9593,W,8.75,6.76,190526,,,A*75
$GPRMC,092930.000,A,3725.3011,N,12204.9589,W,8.74,4.29,190526,,,A*78
$GPRMC,092931.000,A,3725.3035,N,12204.9587,W,8.75,1.40,190526,,,A*7A
$GPRMC,092932.000,A,3725.3060,N,12204.9586,W,8.72,349.43,190526,,,A*73
$GPRMC,092933.000,A,3725.3084,N,12204.9592,W,8.71,342.12,190526,,,A*71
$GPRMC,092934.000,A,3725.3107,N,12204.9601,W,8.73,335.33,190526,,,A*74
$GPRMC,092935.000,A,3725.3129,N,12204.9614,W,8.75,328.08,190526,,,A*7F
$GPRMC,092936.000,A,3725.3150,N,12204.9630,W,8.75,328.08,190526,,,A*74
$GPRMC,092937.000,A,3725.3170,N,12204.9646,W,8.75,328.08,190526,,,A*76
$GPRMC,092938.000,A,3725.3191,N,12204.9662,W,8.75,327.72,190526,,,A*72
$GPRMC,092939.000,A,3725.3212,N,12204.9679,W,8.75,328.82,190526,,,A*71
$GPRMC,092940.000,A,3725.3233,N,12204.9695,W,8.66,335.26,190526,,,A*7E
$GPRMC,092941.000,A,3725.3255,N,12204.9707,W,8.75,345.92,190526,,,A*7F
$GPRMC,092942.000,A,3725.3278,N,12204.9715,W,8.72,350.26,190526,,,A*7C
$GPRMC,092943.000,A,3725.3302,N,12204.9720,W,8.75,355.53,190526,,,A*77
$GPRMC,092944.000,A,3725.3327,N,12204.9722,W,8.75,354.99,190526,,,A*72
$GPRMC,092945.000,A,3725.3351,N,12204.9725,W,8.75,355.47,190526,,,A*77
$GPRMC,092946.000,A,3725.3375,N,12204.9728,W,8.75,355.20,190526,,,A*7E
$GPRMC,092947.000,A,3725.3400,N,12204.9730,W,8.75,355.20,190526,,,A*73
$GPRMC,092948.000,A,3725.3424,N,12204.9733,W,8.75,355.20,190526,,,A*79
$GPRMC,092949.000,A,3725.3448,N,12204.9735,W,8.75,355.20,190526,,,A*74
$GPRMC,092950.000,A,3725.3473,N,12204.9738,W,8.56,345.18,190526,,,A*72
$GPRMC,092951.000,A,3725.3496,N,12204.9746,W,8.75,330.98,190526,,,A*7A
$GPRMC,092952.000,A,3725.3517,N,12204.9760,W,8.69,322.49,190526,,,A*77
$GPRMC,092953.000,A,3725.3536,N,12204.9779,W,8.75,316.94,190526,,,A*77
$GPRMC,092954.000,A,3725.3554,N,12204.9800,W,8.75,299.25,190526,,,A*79
$GPRMC,092955.000,A,3725.3566,N,12204.9827,W,8.75,299.23,190526,,,A*7A
$GPRMC,092956.000,A,3725.3578,N,12204.9853,W,8.75,299.23,190526,,,A*75
$GPRMC,092957.000,A,3725.3590,N,12204.9880,W,8.75,299.48,190526,,,A*71
$GPRMC,092958.000,A,3725.3602,N,12204.9907,W,6.59,251.45,190526,,,A*71
$GPRMC,092959.000,A,3725.3596,N,12204.9929,W,8.75,216.01,190526,,,A*71
$GPRMC,093000.000,A,3725.3576,N,12204.9947,W,8.75,215.79,190526,,,A*7F
$GPRMC,093001.000,A,3725.3556,N,12204.9964,W,8.47,238.37,190526,,,A*79
$GPRMC,093002.000,A,3725.3544,N,12204.9990,W,8.46,272.25,190526,,,A*7E
$GPRMC,093003.000,A,3725.3545,N,12205.0019,W,8.74,285.63,190526,,,A*75
$GPRMC,093004.000,A,3725.3551,N,12205.0049,W,8.73,292.84,190526,,,A*7A
$GPRMC,093005.000,A,3725.3561,N,12205.0077,W,8.75,295.89,190526,,,A*79
$GPRMC,093006.000,A,3725.3571,N,12205.0104,W,8.75,295.89,190526,,,A*7E
$GPRMC,093007.000,A,3725.3582,N,12205.0132,W,8.75,295.90,190526,,,A*7E
$GPRMC,093008.000,A,3725.3593,N,12205.0159,W,8.75,296.32,190526,,,A*77
$GPRMC,093009.000,A,3725.3603,N,12205.0187,W,8.73,294.90,190526,,,A*73
$GPRMC,093010.000,A,3725.3614,N,12205.0214,W,8.75,288.30,190526,,,A*75
$GPRMC,093011.000,A,3725.3621,N,12205.0243,W,8.75,288.30,190526,,,A*70
$GPRMC,093012.000,A,3725.3629,N,12205.0272,W,0.19,288.30,190526,,,A*7B
